{"type":"FeatureCollection","features":[{"id":"5905005","type":"Feature","properties":{},"geometry":{"type":"Polygon","coordinates":[[[-117.54004398878698,49.12171346821093],[-117.541692423004,49.12091296663254],[-117.53951085961928,49.11848282009779],[-117.54169030556088,49.11815635902998],[-117.5384362027445,49.11844250547624],[-117.53903265609134,49.116639020780205],[-117.53698904867338,49.115283079114505],[-117.54227960001991,49.112747015274905],[-117.53948439881327,49.11029669214012],[-117.54528341077653,49.104263893823756],[-117.54951049079054,49.10597940061302],[-117.55266508760934,49.10106671170283],[-117.55737076141878,49.102416471005085],[-117.56235242663072,49.097209761671515],[-117.56704100773645,49.099798759014824],[-117.56145791360632,49.10672982471315],[-117.55999665677548,49.106149864903166],[-117.55473486959878,49.11384047095955],[-117.55758884929769,49.11610110804048],[-117.54951757771647,49.12043389227286],[-117.54486230644606,49.12027039200299],[-117.54611023386583,49.123832583807925],[-117.54364581671378,49.1244097964207],[-117.54004398878698,49.12171346821093]]]},"bbox":[-117.56704100773645,49.097209761671515,-117.53698904867338,49.1244097964207]},{"id":"5905009","type":"Feature","properties":{},"geometry":{"type":"Polygon","coordinates":[[[-117.5832693490961,49.081499947250656],[-117.57773629559054,49.07780227836609],[-117.58219215588316,49.074846157252594],[-117.58027619561224,49.07815405495759],[-117.58047771112896,49.07812556612314],[-117.58684343185091,49.0734797583248],[-117.59798963408821,49.07012006637741],[-117.59427300913724,49.073863909949154],[-117.59991936417173,49.072420235819706],[-117.60435385837567,49.07392736018734],[-117.60336777400663,49.07585664578253],[-117.5989052827114,49.07600886048203],[-117.59417555962771,49.08019811200924],[-117.59419820494907,49.08460825764785],[-117.58334842159962,49.084340315878514],[-117.5832693490961,49.081499947250656]]]},"bbox":[-117.60435385837567,49.07012006637741,-117.57773629559054,49.08460825764785]},{"id":"5905014","type":"Feature","properties":{},"geometry":{"type":"Polygon","coordinates":[[[-117.71130600901341,49.12615529984072],[-117.71079967509796,49.11080876698105],[-117.70684197603696,49.10620630441445],[-117.7041177456766,49.105251935429095],[-117.70434837684435,49.11023378502573],[-117.67153278306183,49.11087108253989],[-117.67118798311263,49.10337585372943],[-117.64179217298611,49.103440792966985],[-117.64160337212344,49.09576537073858],[-117.63137326494447,49.09606728564874],[-117.63112595748734,49.09224038016522],[-117.61852916991128,49.09220608915925],[-117.61797231044163,49.08821063570093],[-117.61296952923902,49.088258653807216],[-117.61210779611432,49.078951230453335],[-117.60835970301822,49.077069668976776],[-117.61054085124455,49.077070202543744],[-117.61290321899561,49.07357630617636],[-117.61762002586312,49.07947076007128],[-117.62543860360184,49.08408715680082],[-117.63937430811029,49.08792328426852],[-117.65503140434026,49.095761610531355],[-117.68546364020816,49.0953549752044],[-117.69431926538236,49.09431246377116],[-117.69419619677316,49.088925535349425],[-117.71820679620019,49.0887614425143],[-117.71536853354233,49.08769657151644],[-117.7152113053235,49.04408365499484],[-117.7099408380877,49.044095626820926],[-117.70976451656486,49.03342065363983],[-117.70430651343942,49.033293167725674],[-117.7042912160746,49.02970134040555],[-117.71188757064687,49.02805993571595],[-117.71185219989822,49.02980083737648],[-117.72575497069457,49.029900616618804],[-117.72595903359722,49.04426888960334],[-117.73710383916887,49.044316236386685],[-117.73727082471544,49.05892135129252],[-117.75923929955474,49.05910560465277],[-117.75919815950819,49.08114859395958],[-117.74773008785836,49.081190410141815],[-117.74783051223686,49.088060484469786],[-117.74387418351971,49.0880258727533],[-117.74380398367252,49.0905294920709],[-117.73623320278213,49.09374839299702],[-117.73577254986883,49.09156719721807],[-117.72857089144739,49.09648788920203],[-117.72882308497257,49.101141904637274],[-117.73076988866005,49.09832382039601],[-117.73750589667596,49.09811876978347],[-117.73833826217637,49.09550358277342],[-117.74022508642643,49.094946691769046],[-117.74028850574089,49.09673901078847],[-117.74468088988876,49.09647020107286],[-117.74542064942561,49.09869931286009],[-117.7475288549345,49.09885112649961],[-117.74842045830769,49.119986812694776],[-117.74127591812139,49.11981355057478],[-117.73963242959836,49.12151220408492],[-117.73333034354008,49.11760558601712],[-117.72882895289031,49.117871627895774],[-117.73313308864697,49.119850592342104],[-117.73591348942385,49.123636512283156],[-117.73715918866012,49.140643991563444],[-117.73447346300094,49.14655676241074],[-117.72404699907688,49.14652850242488],[-117.72378711426508,49.1319704839102],[-117.71142707503463,49.132030160534406],[-117.71130600901341,49.12615529984072]]]},"bbox":[-117.75923929955474,49.02805993571595,-117.60835970301822,49.14655676241074]},{"id":"5905018","type":"Feature","properties":{},"geometry":{"type":"Polygon","coordinates":[[[-117.74470194218881,49.09652631444373],[-117.74089638687062,49.096981849086696],[-117.74066580517542,49.0948987107067],[-117.73949399720296,49.09503889819206],[-117.73792483845962,49.09793120354127],[-117.73076988866005,49.09832382039601],[-117.72874535354929,49.10086662510783],[-117.72857089144739,49.09648788920203],[-117.73577254986883,49.09156719721807],[-117.73623320278213,49.09374839299702],[-117.74181422472911,49.091784454390954],[-117.74380398367252,49.0905294920709],[-117.74387418351971,49.0880258727533],[-117.75463808064904,49.08783252280967],[-117.75503280772291,49.09058190165574],[-117.76210529337172,49.09517138123411],[-117.74770576204527,49.10225447721021],[-117.7475288549345,49.09885112649961],[-117.74542064942561,49.09869931286009],[-117.74470194218881,49.09652631444373]]]},"bbox":[-117.76210529337172,49.08783252280967,-117.72857089144739,49.10225447721021]},{"id":"5905023","type":"Feature","properties":{},"geometry":{"type":"Polygon","coordinates":[[[-117.80679339377512,49.12324026832862],[-117.80688732503371,49.116695337480465],[-117.82463750279335,49.1167355745275],[-117.82474156558452,49.11280154495527],[-117.81831730413842,49.11266378941334],[-117.81974688438052,49.107499492793295],[-117.81824706663426,49.10589144610582],[-117.81160581825445,49.10604251182917],[-117.81170232674229,49.10299722632452],[-117.80510565652047,49.10267328492986],[-117.80357033301004,49.08793674163218],[-117.78102613965568,49.08792814090809],[-117.78077826736315,49.08463502923461],[-117.77809357793652,49.083815172722204],[-117.77792522199643,49.08080855843276],[-117.78077874113677,49.08078296855827],[-117.78075329676354,49.075421072409306],[-117.76865729635252,49.08053270612597],[-117.77057218329809,49.0731580080374],[-117.77756815907844,49.068416030053626],[-117.77756835288504,49.067036182732465],[-117.76957239742019,49.067534660677175],[-117.76977774913708,49.06377660955438],[-117.78126869116494,49.06305185908779],[-117.78217430073991,49.06100941540599],[-117.7888655783586,49.06077559607397],[-117.79041858460758,49.06154351264684],[-117.78958044717687,49.0632735305251],[-117.79979976576658,49.064263099832196],[-117.79975654210949,49.066387576106564],[-117.8256786852329,49.066377517684344],[-117.82458091223519,49.07722600333667],[-117.83048211940603,49.07885475617885],[-117.83280731344956,49.082456978855646],[-117.83517402453978,49.079731072037994],[-117.84218034268835,49.08007504110071],[-117.88204164134602,49.0965159595019],[-117.89506908341825,49.161832698756434],[-117.89548607101983,49.186163918356606],[-117.86692150174554,49.18609426384613],[-117.85720508683318,49.18093965901246],[-117.85388515184316,49.17738909205788],[-117.84937296043104,49.16789068769161],[-117.8376786308862,49.16470918348657],[-117.83394943420949,49.16175491185116],[-117.83380025008967,49.155993320206086],[-117.83736644644226,49.15286359665253],[-117.83753273033892,49.14529286932987],[-117.83425838978918,49.14170903625195],[-117.82504767165038,49.138087104113275],[-117.81520155922958,49.124513988626205],[-117.80679339377512,49.12324026832862]]]},"bbox":[-117.89548607101983,49.06077559607397,-117.76865729635252,49.186163918356606]},{"id":"5905026","type":"Feature","properties":{},"geometry":{"type":"Polygon","coordinates":[[[-117.471947068384,49.17571459711894],[-117.47211410512553,49.17124507105514],[-117.48423395882138,49.1708834580657],[-117.48385391658593,49.16441183509489],[-117.49492590830106,49.16386211092544],[-117.49535174886309,49.160455381270424],[-117.50045208248059,49.16035851040186],[-117.50044747261626,49.15801068378377],[-117.50579753487675,49.157748931423725],[-117.50603923051354,49.13881777564837],[-117.51079488897969,49.13884163405915],[-117.51082029288487,49.12358096088499],[-117.5205235487895,49.123666810498015],[-117.5210837837503,49.08806025038966],[-117.46543061371884,49.08816612157197],[-117.46621646179776,49.05045590170596],[-117.46815130148418,49.04632518397691],[-117.46965213826326,49.00066657776902],[-117.63199023531554,49.00081670542183],[-117.60719732481718,49.01525767010485],[-117.60378729379786,49.02272964825451],[-117.60516597356953,49.02800514569114],[-117.61639768887493,49.036187587669005],[-117.61353183133562,49.04647752930739],[-117.61644316200547,49.05759163388074],[-117.61200546494032,49.070846750543375],[-117.61290321899561,49.07357630617636],[-117.61054085124455,49.077070202543744],[-117.60835970301822,49.077069668976776],[-117.61210779611432,49.078951230453335],[-117.61296952923902,49.088258653807216],[-117.61797231044163,49.08821063570093],[-117.61852916991128,49.09220608915925],[-117.63112595748734,49.09224038016522],[-117.63137326494447,49.09606728564874],[-117.64160337212344,49.09576537073858],[-117.64179217298611,49.103440792966985],[-117.67118798311263,49.10337585372943],[-117.67153278306183,49.11087108253989],[-117.70434837684435,49.11023378502573],[-117.7041177456766,49.105251935429095],[-117.70684197603696,49.10620630441445],[-117.71079967509796,49.11080876698105],[-117.71142707503463,49.132030160534406],[-117.72378711426508,49.1319704839102],[-117.72404699907688,49.14652850242488],[-117.73447346300094,49.14655676241074],[-117.72188699210048,49.16240450110746],[-117.71643219505818,49.1725791147057],[-117.71687922006062,49.17453880706886],[-117.71258359517263,49.184645608215035],[-117.71341401312154,49.18941040096372],[-117.70838190480897,49.19769950544278],[-117.70146072018737,49.20269170991979],[-117.68361481761008,49.20853420837292],[-117.67408072089525,49.207724367022244],[-117.67427467341865,49.17504159105115],[-117.471947068384,49.17571459711894]],[[-117.59419820494907,49.08460825764785],[-117.59417555962771,49.08019811200924],[-117.5989052827114,49.07600886048203],[-117.60460563430804,49.07474988739615],[-117.60210067134886,49.072514861306146],[-117.59427300913724,49.073863909949154],[-117.59809129083139,49.070128508708784],[-117.58684343185091,49.0734797583248],[-117.58047771112896,49.07812556612314],[-117.58219215588316,49.074846157252594],[-117.57773629559054,49.07780227836609],[-117.5832693490961,49.081499947250656],[-117.58334842159962,49.084340315878514],[-117.59419820494907,49.08460825764785]],[[-117.54611023386583,49.123832583807925],[-117.54486230644606,49.12027039200299],[-117.54951757771647,49.12043389227286],[-117.55758884929769,49.11610110804048],[-117.55473486959878,49.11384047095955],[-117.55999665677548,49.106149864903166],[-117.56145791360632,49.10672982471315],[-117.56704100773645,49.099798759014824],[-117.56440054084221,49.097685766969754],[-117.56235242663072,49.097209761671515],[-117.55737076141878,49.102416471005085],[-117.55266508760934,49.10106671170283],[-117.54951049079054,49.10597940061302],[-117.54528341077653,49.104263893823756],[-117.53948439881327,49.11029669214012],[-117.54227960001991,49.112747015274905],[-117.53698904867338,49.115283079114505],[-117.53903265609134,49.116639020780205],[-117.53832452658119,49.11826123486079],[-117.54116050353771,49.11756815761414],[-117.54174299949753,49.11897488414191],[-117.54042776572773,49.118012368294785],[-117.539442663635,49.11933111465489],[-117.541692423004,49.12091296663254],[-117.54004398878698,49.12171346821093],[-117.54364581671378,49.1244097964207],[-117.54611023386583,49.123832583807925]]]},"bbox":[-117.73447346300094,49.00066657776902,-117.46543061371884,49.20853420837292]},{"id":"5905030","type":"Feature","properties":{},"geometry":{"type":"Polygon","coordinates":[[[-117.70232906068595,49.24298558578153],[-117.70199255737928,49.22804859923157],[-117.6863186161501,49.228277162983346],[-117.68584524941166,49.22462150646402],[-117.67534283133487,49.22454070058466],[-117.68361481761008,49.20853420837292],[-117.70317581688359,49.20167430655909],[-117.70838190480897,49.19769950544278],[-117.71341401312154,49.18941040096372],[-117.71258359517263,49.184645608215035],[-117.71687922006062,49.17453880706886],[-117.71643219505818,49.1725791147057],[-117.72188699210048,49.16240450110746],[-117.73330908530114,49.14867090386237],[-117.73715918866012,49.140643991563444],[-117.73591348942385,49.123636512283156],[-117.73313308864697,49.119850592342104],[-117.72882895289031,49.117871627895774],[-117.73333034354008,49.11760558601712],[-117.73963242959836,49.12151220408492],[-117.74127591812139,49.11981355057478],[-117.74842045830769,49.119986812694776],[-117.74770576204527,49.10225447721021],[-117.76210529337172,49.09517138123411],[-117.75503280772291,49.09058190165574],[-117.75463808064904,49.08783252280967],[-117.74783051223686,49.088060484469786],[-117.74765465645557,49.086124474873046],[-117.74773008785836,49.081190410141815],[-117.75919815950819,49.08114859395958],[-117.75923929955474,49.05910560465277],[-117.73727082471544,49.05892135129252],[-117.73710383916887,49.044316236386685],[-117.72595903359722,49.04426888960334],[-117.72575497069457,49.029900616618804],[-117.71185219989822,49.02980083737648],[-117.71188757064687,49.02805993571595],[-117.70799788197624,49.028071882462854],[-117.70789906261527,49.02970531936902],[-117.7042912160746,49.02970134040555],[-117.70430651343942,49.033293167725674],[-117.70976451656486,49.03342065363983],[-117.7099408380877,49.044095626820926],[-117.7152113053235,49.04408365499484],[-117.71536853354233,49.08769657151644],[-117.71820679620019,49.0887614425143],[-117.69419619677316,49.088925535349425],[-117.69431926538236,49.09431246377116],[-117.68546364020816,49.0953549752044],[-117.65154306301044,49.09510579294728],[-117.64665879346812,49.09086988848307],[-117.62169913987992,49.08211485304082],[-117.61323813443771,49.07454281047526],[-117.61200546494032,49.070846750543375],[-117.61644316200547,49.05759163388074],[-117.61365575764012,49.04347200070041],[-117.61639768887493,49.036187587669005],[-117.60516597356953,49.02800514569114],[-117.60378729379786,49.02272964825451],[-117.60719732481718,49.01525767010485],[-117.61183554574971,49.01215240741271],[-117.63199023531554,49.00081670542183],[-118.0619085635752,49.00027175843116],[-118.06382451285415,49.001706225431334],[-118.06348405373456,49.0102313550464],[-118.05648288914917,49.01699085654528],[-118.05975487104472,49.024308806105026],[-118.05625243139298,49.02934459629815],[-118.0510677605705,49.03149329069798],[-118.04842256260974,49.042405086890895],[-118.04833117001517,49.044937112415695],[-118.05633530874358,49.050158107805196],[-118.05770203155254,49.05360136317179],[-118.0566900738264,49.06300717522814],[-118.05768455560563,49.07043449891997],[-118.0552473287373,49.081750992599716],[-118.05705440162585,49.0873470208176],[-118.05382658677473,49.09191542534553],[-118.05904923420611,49.09752063817091],[-118.05363033674986,49.10360050934361],[-118.05594866735709,49.10949646624637],[-118.05122908095989,49.11594531754936],[-118.05486541698009,49.127181519857125],[-118.05389722860362,49.13182521071223],[-118.0560513961933,49.13746783217783],[-118.05528655778247,49.14214362489691],[-118.05757789639341,49.14394717380971],[-118.04602292018366,49.15206235990462],[-118.0890968761155,49.15238610313219],[-118.08915133447836,49.167186250344535],[-118.095434645785,49.16722193090546],[-118.09921140495416,49.175925008997716],[-118.11129720036205,49.18716313836871],[-118.10955157087757,49.18982787898408],[-118.1163787246525,49.201369569028785],[-118.11746915488713,49.20624562882431],[-118.13151126194829,49.22317674723437],[-118.13396791233193,49.23397962976934],[-118.13314502349213,49.24348854034518],[-118.13581248402562,49.264003353834525],[-117.70309203528385,49.265342233957696],[-117.70232906068595,49.24298558578153]],[[-117.89506908341825,49.161832698756434],[-117.88204164134602,49.0965159595019],[-117.84218034268835,49.08007504110071],[-117.83517402453978,49.079731072037994],[-117.83280731344956,49.082456978855646],[-117.83048211940603,49.07885475617885],[-117.82458091223519,49.07722600333667],[-117.8256786852329,49.066377517684344],[-117.79975654210949,49.066387576106564],[-117.79979976576658,49.064263099832196],[-117.78958044717687,49.0632735305251],[-117.79041858460758,49.06154351264684],[-117.7888655783586,49.06077559607397],[-117.78217430073991,49.06100941540599],[-117.78126869116494,49.06305185908779],[-117.76977774913708,49.06377660955438],[-117.76957239742019,49.067534660677175],[-117.77756835288504,49.067036182732465],[-117.77756815907844,49.068416030053626],[-117.77057218329809,49.0731580080374],[-117.76865729635252,49.08053270612597],[-117.78075329676354,49.075421072409306],[-117.78077874113677,49.08078296855827],[-117.77792522199643,49.08080855843276],[-117.77809357793652,49.083815172722204],[-117.78077826736315,49.08463502923461],[-117.78102613965568,49.08792814090809],[-117.80357033301004,49.08793674163218],[-117.80510565652047,49.10267328492986],[-117.81170232674229,49.10299722632452],[-117.81160581825445,49.10604251182917],[-117.81824706663426,49.10589144610582],[-117.81974688438052,49.107499492793295],[-117.81831730413842,49.11266378941334],[-117.82474156558452,49.11280154495527],[-117.82463750279335,49.1167355745275],[-117.80688732503371,49.116695337480465],[-117.80679339377512,49.12324026832862],[-117.81520155922958,49.124513988626205],[-117.82504767165038,49.138087104113275],[-117.83425838978918,49.14170903625195],[-117.83753273033892,49.14529286932987],[-117.83736644644226,49.15286359665253],[-117.83380025008967,49.155993320206086],[-117.83394943420949,49.16175491185116],[-117.8376786308862,49.16470918348657],[-117.84937296043104,49.16789068769161],[-117.85388515184316,49.17738909205788],[-117.85720508683318,49.18093965901246],[-117.86692150174554,49.18609426384613],[-117.89548607101983,49.186163918356606],[-117.89506908341825,49.161832698756434]]]},"bbox":[-118.13581248402562,49.00027175843116,-117.60378729379786,49.265342233957696]},{"id":"5905032","type":"Feature","properties":{},"geometry":{"type":"Polygon","coordinates":[[[-118.45168445188791,49.05194203657032],[-118.4296122096881,49.05145776761172],[-118.42898101508707,49.03741971190543],[-118.42418083070534,49.036754680398396],[-118.42447358209562,49.02937932910221],[-118.41950547418382,49.02927484291795],[-118.41967819706751,49.02280627554626],[-118.42704943895819,49.023962522424426],[-118.42726240132257,49.02089039857129],[-118.42220284388766,49.01929060467488],[-118.42309389680133,49.01696371791494],[-118.41968756089672,49.01690309207189],[-118.41968591396481,49.0146715878937],[-118.44160699735083,49.01472271433285],[-118.441604162381,49.016063649499465],[-118.43059999016124,49.01630760608396],[-118.43057059887575,49.02079048852609],[-118.43509994473054,49.02229868219707],[-118.44178994560924,49.018760759730746],[-118.44519783116856,49.018808766321],[-118.44426244495315,49.01474912499328],[-118.45616169626945,49.014693505531206],[-118.45656185819932,49.02059093043672],[-118.46528048902847,49.01522052707409],[-118.47480124664509,49.01943216905132],[-118.47503869085902,49.03655239596364],[-118.44717102295238,49.03752714594114],[-118.44736539588092,49.04673142008965],[-118.45365573242023,49.046717468520654],[-118.45597276092792,49.04841423697723],[-118.45474334077406,49.05094185087534],[-118.45175220496094,49.05029655093782],[-118.45168445188791,49.05194203657032]]]},"bbox":[-118.47503869085902,49.0146715878937,-118.41950547418382,49.05194203657032]},{"id":"5905037","type":"Feature","properties":{},"geometry":{"type":"Polygon","coordinates":[[[-118.81097433175877,49.01839363752798],[-118.77270011710745,49.01790271336488],[-118.77259157843388,49.015295098662506],[-118.75639235963521,49.01524696619492],[-118.75581121194732,49.00782102810324],[-118.7503587775969,49.00775655100953],[-118.74992589655467,49.000190827705566],[-118.85032752469408,49.00018766908149],[-118.85014811227283,49.00344340407521],[-118.83373498344206,49.0030948772524],[-118.83370501532102,49.00966636125194],[-118.83970798599775,49.00870190905801],[-118.84453437319337,49.011737078066574],[-118.84423276683009,49.018444133771524],[-118.81097433175877,49.01839363752798]]]},"bbox":[-118.85032752469408,49.00018766908149,-118.74992589655467,49.018444133771524]},{"id":"5905042","type":"Feature","properties":{},"geometry":{"type":"Polygon","coordinates":[[[-118.6784849957829,49.108235972568465],[-118.67304584980704,49.10852381804239],[-118.67422259884056,49.095265812073464],[-118.67325047442485,49.07983899794953],[-118.6834121941965,49.079615920293136],[-118.68358030193947,49.10816769118699],[-118.6784849957829,49.108235972568465]]]},"bbox":[-118.68358030193947,49.079615920293136,-118.67304584980704,49.10852381804239]},{"id":"5905050","type":"Feature","properties":{},"geometry":{"type":"Polygon","coordinates":[[[-118.18956960678788,49.28068351088797],[-118.18448835264857,49.27754813691744],[-118.17954367071331,49.277007579519996],[-118.1768918036829,49.27440325319662],[-118.17781517116615,49.270663034486944],[-118.181394353888,49.26888872136801],[-118.18192119521109,49.26699945274774],[-118.17708426238357,49.2603336206478],[-118.1768233923414,49.24932460523965],[-118.16629201066065,49.25040462481763],[-118.16100051429613,49.260701328627476],[-118.1519353748315,49.267241341999885],[-118.14969459906627,49.27127543246049],[-118.15012008377461,49.27365071237915],[-118.14221517038925,49.277678682101566],[-118.134649141319,49.26862141538882],[-118.13558521612164,49.25678379043341],[-118.13314502349213,49.24348854034518],[-118.13396791233193,49.23397962976934],[-118.13151126194829,49.22317674723437],[-118.11746915488713,49.20624562882431],[-118.1163787246525,49.201369569028785],[-118.10955157087757,49.18982787898408],[-118.11129720036205,49.18716313836871],[-118.09921140495416,49.175925008997716],[-118.095434645785,49.16722193090546],[-118.08915133447836,49.167186250344535],[-118.0890968761155,49.15238610313219],[-118.04602292018366,49.15206235990462],[-118.05757789639341,49.14394717380971],[-118.05528655778247,49.14214362489691],[-118.0560513961933,49.13746783217783],[-118.05389722860362,49.13182521071223],[-118.05486541698009,49.127181519857125],[-118.05122908095989,49.11594531754936],[-118.05594866735709,49.10949646624637],[-118.05363033674986,49.10360050934361],[-118.05904923420611,49.09752063817091],[-118.05382658677473,49.09191542534553],[-118.05705440162585,49.0873470208176],[-118.0552473287373,49.081750992599716],[-118.05768455560563,49.07043449891997],[-118.0566900738264,49.06300717522814],[-118.05770203155254,49.05360136317179],[-118.05633530874358,49.050158107805196],[-118.04833117001517,49.044937112415695],[-118.0510677605705,49.03149329069798],[-118.05625243139298,49.02934459629815],[-118.05975487104472,49.024308806105026],[-118.05648288914917,49.01699085654528],[-118.06348405373456,49.0102313550464],[-118.06427760128882,49.002830788835276],[-118.06216223614591,49.00029456490285],[-118.29781012087344,49.00016294329851],[-118.29892802943887,49.00773698191968],[-118.29739116799009,49.037865040381625],[-118.31180448017882,49.0504741778618],[-118.32846776631558,49.05568630416798],[-118.33780193661674,49.07961462681696],[-118.33120721289124,49.086148239453784],[-118.33494298802447,49.09338314437794],[-118.3317014204468,49.10349656145541],[-118.33544295201486,49.12743530142953],[-118.34355475486285,49.13491091991352],[-118.34968199281408,49.1437322711975],[-118.35129568864232,49.15558954773046],[-118.34539268252081,49.1684902746364],[-118.3487424656202,49.17520534936835],[-118.34740167756522,49.18648366051632],[-118.33713095401747,49.19322545341862],[-118.33991051786096,49.19945848096878],[-118.33943989063908,49.2030417058449],[-118.33582194458513,49.203290631453186],[-118.33585909466622,49.21744306525183],[-118.3133741270063,49.217247053741566],[-118.31420854183344,49.23261753776829],[-118.31822982451925,49.23304594788248],[-118.31921173061964,49.24211430008302],[-118.30966896293634,49.244772835339454],[-118.30425922358711,49.25846526669002],[-118.3035184433559,49.26527884472336],[-118.29535718358005,49.27109815208056],[-118.2791024944593,49.276490543587194],[-118.27264819775823,49.28025221904352],[-118.26467067007462,49.28653789781417],[-118.25726936976974,49.29660701920406],[-118.24974853475602,49.31233059681486],[-118.24539247520487,49.315890827644296],[-118.21929047998246,49.32836755197295],[-118.20912871508438,49.326084553810176],[-118.20623854565676,49.304891802982354],[-118.20373885495948,49.30144694685926],[-118.20772767344731,49.29466044353846],[-118.20389841500908,49.29401152256135],[-118.19773752177316,49.285683613029875],[-118.1969891402667,49.28023505229639],[-118.18956960678788,49.28068351088797]]]},"bbox":[-118.35129568864232,49.00016294329851,-118.04602292018366,49.32836755197295]},{"id":"5905052","type":"Feature","properties":{},"geometry":{"type":"Polygon","coordinates":[[[-118.30539637561031,49.79733656751347],[-118.30626532734473,49.795718294523724],[-118.29030971354877,49.7940167184003],[-118.28721098638357,49.78757731190214],[-118.28725402136985,49.778846610902356],[-118.29910651457949,49.76627633542964],[-118.29273078890165,49.765697990057],[-118.28884694576787,49.763325843011735],[-118.28768697752176,49.75983201283114],[-118.29200942545557,49.755927089332936],[-118.29980887944924,49.75267438262252],[-118.30130342438284,49.750188298186046],[-118.29572943195551,49.744768814642484],[-118.28531969498978,49.743261053024746],[-118.2856117365145,49.73420470014808],[-118.28105147056803,49.72468323023733],[-118.28323439988328,49.71684186968155],[-118.28097078820772,49.714616969981925],[-118.2754591259742,49.714179565543546],[-118.27391126377177,49.71010551127256],[-118.2760283192484,49.69847915547011],[-118.2770767530773,49.69734476474994],[-118.27951553640443,49.698365313439126],[-118.28093083568203,49.69486768947622],[-118.28077683280759,49.682909031535814],[-118.27790617939347,49.67386359062871],[-118.27937344204638,49.67089120544017],[-118.27437206193635,49.66532345408198],[-118.27544370361612,49.65838497742468],[-118.2529898610994,49.656420912217435],[-118.24688507892408,49.649160694061045],[-118.2418933665332,49.63616032801738],[-118.24356122921263,49.63166119618771],[-118.25465117321585,49.61755336162078],[-118.2539043820554,49.61022209497264],[-118.25034768693088,49.60439981900715],[-118.2519284196298,49.59324587383286],[-118.24487746731855,49.56156683132118],[-118.25105252373048,49.55232582010459],[-118.25503945572346,49.5525397291469],[-118.26115377258017,49.549552275718455],[-118.26004767208772,49.54636538718956],[-118.26147185002114,49.53923951763184],[-118.26026764796767,49.53657463672803],[-118.26437155565836,49.53378664043661],[-118.26543163061058,49.52934953471617],[-118.2735531063676,49.52489810242198],[-118.27579172657866,49.51198473854935],[-118.287362342007,49.494904994416444],[-118.28767744837347,49.4888392999435],[-118.28454990532649,49.480592831527396],[-118.28044826252284,49.47700229336893],[-118.28319582759413,49.47053051741268],[-118.28272764873648,49.46796095155858],[-118.27669922767603,49.46663999334854],[-118.2596166201945,49.448935826634916],[-118.25283319501497,49.44449354530564],[-118.26033511263743,49.43151593756092],[-118.26148000736127,49.42247770058275],[-118.27071221461043,49.421907790362766],[-118.27372551355808,49.41960357012704],[-118.26255523006708,49.41271948066099],[-118.25964684757261,49.41280546105114],[-118.26000382603425,49.407631931371476],[-118.25686600788472,49.40366624341389],[-118.26668829356966,49.398754000988646],[-118.26403232404027,49.39524608212386],[-118.26419453133829,49.38895059022357],[-118.25633121959032,49.385616500083934],[-118.25609290617602,49.383104928915955],[-118.25101756201624,49.378606146764206],[-118.25020065177216,49.37397949728774],[-118.25179354776904,49.363610673287695],[-118.23862600485924,49.35763551038044],[-118.24072716669154,49.34603770834603],[-118.23809820420773,49.34103596826498],[-118.23455237740178,49.338682186063814],[-118.22995550764327,49.338638689128864],[-118.22251454639438,49.333886139457015],[-118.21902342949626,49.32853512605155],[-118.24539247520487,49.315890827644296],[-118.24974853475602,49.31233059681486],[-118.25726936976974,49.29660701920406],[-118.26467067007462,49.28653789781417],[-118.27264819775823,49.28025221904352],[-118.2791024944593,49.276490543587194],[-118.29535718358005,49.27109815208056],[-118.3035184433559,49.26527884472336],[-118.30425922358711,49.25846526669002],[-118.30966896293634,49.244772835339454],[-118.31921173061964,49.24211430008302],[-118.31822982451925,49.23304594788248],[-118.31420854183344,49.23261753776829],[-118.3133741270063,49.217247053741566],[-118.33585909466622,49.21744306525183],[-118.33582194458513,49.203290631453186],[-118.33943989063908,49.2030417058449],[-118.33991051786096,49.19945848096878],[-118.33713095401747,49.19322545341862],[-118.34740167756522,49.18648366051632],[-118.3487424656202,49.17520534936835],[-118.34539268252081,49.1684902746364],[-118.35129568864232,49.15558954773046],[-118.34968199281408,49.1437322711975],[-118.34355475486285,49.13491091991352],[-118.33544295201486,49.12743530142953],[-118.3317014204468,49.10349656145541],[-118.33494298802447,49.09338314437794],[-118.33120721289124,49.086148239453784],[-118.33780193661674,49.07961462681696],[-118.32846776631558,49.05568630416798],[-118.31180448017882,49.0504741778618],[-118.29739116799009,49.037865040381625],[-118.29892802943887,49.00773698191968],[-118.29781012087344,49.00016294329851],[-118.59107831263299,49.0000748674634],[-118.60754792578604,49.01063638192572],[-118.61141633118183,49.01569218616189],[-118.62110292894187,49.02005086427843],[-118.62111189540194,49.02289205876199],[-118.61445639497653,49.02835700470117],[-118.61241030282586,49.03377034091548],[-118.6037707001225,49.03430382737499],[-118.60359236793802,49.04136018335525],[-118.62501049613354,49.041484658153294],[-118.62515906220658,49.037967624994664],[-118.63114926593734,49.03805309263483],[-118.630685520272,49.07106331226931],[-118.6142974266657,49.07122698224649],[-118.61444862930504,49.07823370437884],[-118.63071199130387,49.07814855852604],[-118.63134438418558,49.125749484565574],[-118.62269960838277,49.12585024796072],[-118.6227290544557,49.12856453806647],[-118.5911717363353,49.12894008387056],[-118.59140259510646,49.136301601569166],[-118.56865808531114,49.136455878477115],[-118.56837338669882,49.14362624110025],[-118.56328454922567,49.14388375816376],[-118.564636124899,49.17554423999549],[-118.59222123354613,49.17569599792187],[-118.58229611457928,49.18357232706008],[-118.58261319044422,49.18737547029656],[-118.5934874483093,49.18704107148997],[-118.60021069774453,49.18377660673836],[-118.60289005077512,49.19330849454285],[-118.61527223914983,49.20563442663422],[-118.61696004707129,49.20974657177073],[-118.62177266238014,49.214742770141726],[-118.622422980784,49.21829538747456],[-118.62015751566739,49.22241392860463],[-118.61372661208834,49.22688722242192],[-118.61109248025423,49.23111317135412],[-118.59965379190352,49.2363293419057],[-118.59611621311242,49.244417514122084],[-118.59596812340149,49.24906733199204],[-118.59189950873825,49.25443101808179],[-118.59491047213763,49.26017283030793],[-118.58754918734485,49.26880145010962],[-118.58903092380572,49.27455879652558],[-118.58636111953876,49.29383806151865],[-118.592249610534,49.29701259872916],[-118.5944095394915,49.29954912916187],[-118.59334451867511,49.30187586066327],[-118.59833553267755,49.302432501571374],[-118.60897789169982,49.309689625751034],[-118.61113726343984,49.31611479202858],[-118.6132374940839,49.316940841005916],[-118.61294907527373,49.31976121596193],[-118.61637453149635,49.3274010205485],[-118.61731155624844,49.332023886186064],[-118.61405732212987,49.33470237272511],[-118.61546347813976,49.34034051707389],[-118.63477575245267,49.34657677223502],[-118.63969844123227,49.35219592161641],[-118.64158909251385,49.35805154450785],[-118.64133466813847,49.36701966670363],[-118.65591571567633,49.37472040116871],[-118.6689433536285,49.37414383056647],[-118.68026604731203,49.36802711217047],[-118.6890077767289,49.36527892554717],[-118.70597155522013,49.37458685919098],[-118.71594698538145,49.37683946668996],[-118.70897642859818,49.38495137012826],[-118.71713597304868,49.40060870965181],[-118.70497998743934,49.41619647472866],[-118.71277128622299,49.42636098793706],[-118.70845036275915,49.43204157702328],[-118.71188912664869,49.434180283908596],[-118.71393340096463,49.438160118362696],[-118.71239730481557,49.448900146829295],[-118.69783566590033,49.456008706396155],[-118.68831702780706,49.4567169620086],[-118.68740575945405,49.45798070514659],[-118.6898103117313,49.46314313326681],[-118.68628342696326,49.46902228789708],[-118.67967833745888,49.47105518281588],[-118.68466837840212,49.4728809227286],[-118.68739703842294,49.478520703654574],[-118.69232357179335,49.47863868462469],[-118.69853100236223,49.48354594533901],[-118.70176053730376,49.49089660146532],[-118.69183385236356,49.50462753199831],[-118.69267185453432,49.514964990332984],[-118.68254766678601,49.51353300836219],[-118.6739707082542,49.51756309511462],[-118.66592669392327,49.51913831079809],[-118.66606642664141,49.527318889923514],[-118.66021461665659,49.53013795786095],[-118.6548357504113,49.53008917527219],[-118.65416237746037,49.53528747327572],[-118.65855933993433,49.54273225360199],[-118.65311849440225,49.543564405565064],[-118.64798642709765,49.54646346683583],[-118.64468206766166,49.55399123334353],[-118.63680412569077,49.560681598361874],[-118.62887774668492,49.561788770023554],[-118.62278555086617,49.5584688542231],[-118.62009698111397,49.562671380931626],[-118.62231381293182,49.56789089419798],[-118.61810018235295,49.577679207689954],[-118.61229266274584,49.57911616906103],[-118.60998971132341,49.586496805876244],[-118.60567669003879,49.58930179865437],[-118.60842571034199,49.594653789368536],[-118.60324426592575,49.594254897681196],[-118.59583462630324,49.590004477959226],[-118.59418506843764,49.586994714341564],[-118.58948369059806,49.58761191756733],[-118.58638271954604,49.591215713897675],[-118.58852978086557,49.601887807056045],[-118.58356450808232,49.606022395738144],[-118.58784067827989,49.61264838923287],[-118.59406398909432,49.61627361426817],[-118.58869923978085,49.620806198629104],[-118.59090504387444,49.62731769586747],[-118.57887115611378,49.63317458538284],[-118.58217183866545,49.641949444166016],[-118.57965008838964,49.647590850980045],[-118.58587330155505,49.65141734705927],[-118.58575350140131,49.65636149372392],[-118.56579045474452,49.66432874991219],[-118.5727584497361,49.670828234838154],[-118.57565129943318,49.67850872207689],[-118.56283724695501,49.682086210235845],[-118.55725193179904,49.68587235428694],[-118.57062567497773,49.69485091337288],[-118.57216683733564,49.696426120031305],[-118.57149729931406,49.699941525278945],[-118.56869155083922,49.704220837359614],[-118.56022378589887,49.707688574711206],[-118.55587834020052,49.714073843881756],[-118.54528076394145,49.71960034126519],[-118.53712754797695,49.73380007344823],[-118.5316803631486,49.738120116472366],[-118.5054155545,49.73923210696843],[-118.50371958022288,49.750260027481794],[-118.49675425754285,49.75977876352459],[-118.49802316675061,49.76995096508637],[-118.49705823732396,49.77369419999291],[-118.5035967241026,49.77570870800021],[-118.50874003591163,49.775383486288504],[-118.51199038202743,49.78166480403848],[-118.5108224464342,49.7857559944239],[-118.51277335529896,49.79530026935565],[-118.50801688236918,49.8057699274103],[-118.51021317097882,49.8125570066292],[-118.31219441240428,49.81230454311962],[-118.30982360279988,49.80960990220761],[-118.302884588337,49.80811695326788],[-118.30157218437994,49.805747823133565],[-118.30255969958189,49.79907349056231],[-118.30539637561031,49.79733656751347]],[[-118.45168445188791,49.05194203657032],[-118.45175220496094,49.05029655093782],[-118.45474334077406,49.05094185087534],[-118.45597276092792,49.04841423697723],[-118.45365573242023,49.046717468520654],[-118.44736539588092,49.04673142008965],[-118.44717102295238,49.03752714594114],[-118.47503869085902,49.03655239596364],[-118.47480124664509,49.01943216905132],[-118.46528048902847,49.01522052707409],[-118.45656185819932,49.02059093043672],[-118.45616169626945,49.014693505531206],[-118.44426244495315,49.01474912499328],[-118.44519783116856,49.018808766321],[-118.44178994560924,49.018760759730746],[-118.43509994473054,49.02229868219707],[-118.43057059887575,49.02079048852609],[-118.43059999016124,49.01630760608396],[-118.441604162381,49.016063649499465],[-118.44160699735083,49.01472271433285],[-118.41968591396481,49.0146715878937],[-118.41968756089672,49.01690309207189],[-118.42309389680133,49.01696371791494],[-118.42220284388766,49.01929060467488],[-118.42726240132257,49.02089039857129],[-118.42704943895819,49.023962522424426],[-118.41967819706751,49.02280627554626],[-118.41950547418382,49.02927484291795],[-118.42447358209562,49.02937932910221],[-118.42418083070534,49.036754680398396],[-118.42898101508707,49.03741971190543],[-118.4296122096881,49.05145776761172],[-118.45168445188791,49.05194203657032]]]},"bbox":[-118.71713597304868,49.0000748674634,-118.21902342949626,49.8125570066292]},{"id":"5905054","type":"Feature","properties":{},"geometry":{"type":"Polygon","coordinates":[[[-119.11034072150976,49.792322796674476],[-119.09963882501147,49.79322364773175],[-119.08553121543846,49.799093530093614],[-119.065498767854,49.798213741562535],[-119.05568075139206,49.81232225542521],[-118.51021317097882,49.8125570066292],[-118.50801688236918,49.8057699274103],[-118.51277335529896,49.79530026935565],[-118.5108224464342,49.7857559944239],[-118.51124749094974,49.77899150507221],[-118.50874003591163,49.775383486288504],[-118.5035967241026,49.77570870800021],[-118.49705823732396,49.77369419999291],[-118.49802316675061,49.76995096508637],[-118.49675425754285,49.75977876352459],[-118.50371958022288,49.750260027481794],[-118.5054155545,49.73923210696843],[-118.5316803631486,49.738120116472366],[-118.53712754797695,49.73380007344823],[-118.54528076394145,49.71960034126519],[-118.55587834020052,49.714073843881756],[-118.56022378589887,49.707688574711206],[-118.56869155083922,49.704220837359614],[-118.57216683733564,49.696426120031305],[-118.55725193179904,49.68587235428694],[-118.56283724695501,49.682086210235845],[-118.57565129943318,49.67850872207689],[-118.5727584497361,49.670828234838154],[-118.56579045474452,49.66432874991219],[-118.58575350140131,49.65636149372392],[-118.58587330155505,49.65141734705927],[-118.57965008838964,49.647590850980045],[-118.58217183866545,49.641949444166016],[-118.57887115611378,49.63317458538284],[-118.59090504387444,49.62731769586747],[-118.58869923978085,49.620806198629104],[-118.59406398909432,49.61627361426817],[-118.58784067827989,49.61264838923287],[-118.58356450808232,49.606022395738144],[-118.58852978086557,49.601887807056045],[-118.58638271954604,49.591215713897675],[-118.58948369059806,49.58761191756733],[-118.59418506843764,49.586994714341564],[-118.59583462630324,49.590004477959226],[-118.60324426592575,49.594254897681196],[-118.60842571034199,49.594653789368536],[-118.60567669003879,49.58930179865437],[-118.60998971132341,49.586496805876244],[-118.61229266274584,49.57911616906103],[-118.61810018235295,49.577679207689954],[-118.62231381293182,49.56789089419798],[-118.62009698111397,49.562671380931626],[-118.62278555086617,49.5584688542231],[-118.62887774668492,49.561788770023554],[-118.63680412569077,49.560681598361874],[-118.64468206766166,49.55399123334353],[-118.64798642709765,49.54646346683583],[-118.65311849440225,49.543564405565064],[-118.65855933993433,49.54273225360199],[-118.65416237746037,49.53528747327572],[-118.6548357504113,49.53008917527219],[-118.66021461665659,49.53013795786095],[-118.66606642664141,49.527318889923514],[-118.66592669392327,49.51913831079809],[-118.6739707082542,49.51756309511462],[-118.68254766678601,49.51353300836219],[-118.69267185453432,49.514964990332984],[-118.69183385236356,49.50462753199831],[-118.70176053730376,49.49089660146532],[-118.69853100236223,49.48354594533901],[-118.69232357179335,49.47863868462469],[-118.68739703842294,49.478520703654574],[-118.68466837840212,49.4728809227286],[-118.67967833745888,49.47105518281588],[-118.68628342696326,49.46902228789708],[-118.6898103117313,49.46314313326681],[-118.68740575945405,49.45798070514659],[-118.68831702780706,49.4567169620086],[-118.69783566590033,49.456008706396155],[-118.71239730481557,49.448900146829295],[-118.71393340096463,49.438160118362696],[-118.71188912664869,49.434180283908596],[-118.70845036275915,49.43204157702328],[-118.71277128622299,49.42636098793706],[-118.71216610427248,49.424821534319136],[-118.70497998743934,49.41619647472866],[-118.71713597304868,49.40060870965181],[-118.70897642859818,49.38495137012826],[-118.71594698538145,49.37683946668996],[-118.70597155522013,49.37458685919098],[-118.6890077767289,49.36527892554717],[-118.68026604731203,49.36802711217047],[-118.6689433536285,49.37414383056647],[-118.65591571567633,49.37472040116871],[-118.64133466813847,49.36701966670363],[-118.64158909251385,49.35805154450785],[-118.63969844123227,49.35219592161641],[-118.63477575245267,49.34657677223502],[-118.61546347813976,49.34034051707389],[-118.61405732212987,49.33470237272511],[-118.61731155624844,49.332023886186064],[-118.61637453149635,49.3274010205485],[-118.61294907527373,49.31976121596193],[-118.6132374940839,49.316940841005916],[-118.61113726343984,49.31611479202858],[-118.60897789169982,49.309689625751034],[-118.59833553267755,49.302432501571374],[-118.59334451867511,49.30187586066327],[-118.5944095394915,49.29954912916187],[-118.592249610534,49.29701259872916],[-118.58636111953876,49.29383806151865],[-118.58903092380572,49.27455879652558],[-118.58754918734485,49.26880145010962],[-118.59491047213763,49.26017283030793],[-118.59189950873825,49.25443101808179],[-118.59596812340149,49.24906733199204],[-118.59611621311242,49.244417514122084],[-118.59965379190352,49.2363293419057],[-118.61109248025423,49.23111317135412],[-118.61372661208834,49.22688722242192],[-118.62015751566739,49.22241392860463],[-118.622422980784,49.21829538747456],[-118.62177266238014,49.214742770141726],[-118.61696004707129,49.20974657177073],[-118.61527223914983,49.20563442663422],[-118.60289005077512,49.19330849454285],[-118.60021069774453,49.18377660673836],[-118.5934874483093,49.18704107148997],[-118.58261319044422,49.18737547029656],[-118.58229611457928,49.18357232706008],[-118.59222123354613,49.17569599792187],[-118.564636124899,49.17554423999549],[-118.56328454922567,49.14388375816376],[-118.56837338669882,49.14362624110025],[-118.56865808531114,49.136455878477115],[-118.59140259510646,49.136301601569166],[-118.5911717363353,49.12894008387056],[-118.6227290544557,49.12856453806647],[-118.62269960838277,49.12585024796072],[-118.63134438418558,49.125749484565574],[-118.63071199130387,49.07814855852604],[-118.61444862930504,49.07823370437884],[-118.6142974266657,49.07122698224649],[-118.630685520272,49.07106331226931],[-118.63114926593734,49.03805309263483],[-118.62515906220658,49.037967624994664],[-118.62501049613354,49.041484658153294],[-118.60359236793802,49.04136018335525],[-118.6037707001225,49.03430382737499],[-118.61241030282586,49.03377034091548],[-118.61445639497653,49.02835700470117],[-118.62111189540194,49.02289205876199],[-118.62110292894187,49.02005086427843],[-118.61141633118183,49.01569218616189],[-118.60754792578604,49.01063638192572],[-118.59107831263299,49.0000748674634],[-118.74992589655467,49.000190827705566],[-118.7503587775969,49.00775655100953],[-118.75581121194732,49.00782102810324],[-118.75639235963521,49.01524696619492],[-118.77259157843388,49.015295098662506],[-118.77270011710745,49.01790271336488],[-118.78593269651793,49.01838047978861],[-118.84423276683009,49.018444133771524],[-118.84453437319337,49.011737078066574],[-118.83970798599775,49.00870190905801],[-118.83370501532102,49.00966636125194],[-118.83373498344206,49.0030948772524],[-118.85014811227283,49.00344340407521],[-118.85032752469408,49.00018766908149],[-119.29492322323372,49.00004765733321],[-119.29516785476407,49.007961776064036],[-119.30150920884397,49.00807357366647],[-119.30182071645689,49.07325407116544],[-119.30038138659265,49.08178503804393],[-119.29745733928348,49.086412480888924],[-119.29111383876192,49.087568876367136],[-119.29021626450977,49.08926581540026],[-119.29245024173167,49.09755524647029],[-119.28803116098995,49.10055813549342],[-119.27403136978747,49.1003628998446],[-119.27710404712136,49.1103808559666],[-119.27042038048413,49.11565584656162],[-119.2849817380749,49.133477907718685],[-119.28458359219749,49.13484229775399],[-119.26340374666654,49.14069749079791],[-119.26132832080165,49.15204569730241],[-119.25706918868359,49.15640970618549],[-119.25436304515989,49.16567133616842],[-119.24235217421453,49.169482197016286],[-119.23567305344132,49.17964305797794],[-119.22078899324316,49.18488752249775],[-119.21721561964804,49.19461457218535],[-119.21139568875836,49.19748288077117],[-119.1972352137198,49.1992202916024],[-119.18910883592898,49.198334263951786],[-119.18097923846373,49.20443776652703],[-119.1809077693862,49.2105632772716],[-119.17624291079635,49.215252137244114],[-119.180473551005,49.21831507823314],[-119.1980901588242,49.21644987442488],[-119.21291230917615,49.222443652275366],[-119.21997849707735,49.22898038294296],[-119.23738440044973,49.238944863090445],[-119.23084414312373,49.24694120758047],[-119.23266020888194,49.255799199233984],[-119.22866686341126,49.26305112892471],[-119.22512079318567,49.26510922237782],[-119.22057974502746,49.27609963015991],[-119.21335095339424,49.285699924896555],[-119.18681645559761,49.298247450810415],[-119.17503756005394,49.31002788095106],[-119.18687274051543,49.3167642909231],[-119.20788308600801,49.32539294946033],[-119.20201487372861,49.33931638342063],[-119.20259313503534,49.34194828540724],[-119.20515990928855,49.3433937555028],[-119.21314289696697,49.34603018766832],[-119.22224399607283,49.34301789739887],[-119.23639360738225,49.34141023305543],[-119.25694404286338,49.34639225225722],[-119.26043704274343,49.35031447366185],[-119.25831213987902,49.358587369392495],[-119.25190749416049,49.36611861010868],[-119.25138760354562,49.3687690424433],[-119.26206870551654,49.382274872381046],[-119.2817274968323,49.38761909890634],[-119.28679369668723,49.38385938510164],[-119.2929474138241,49.38254856779233],[-119.30035751773305,49.38570747334416],[-119.30079731613152,49.503644797161805],[-119.30263163215423,49.5050104693263],[-119.30989494961052,49.50504020234206],[-119.30400304538334,49.51194216546349],[-119.30207491897066,49.521749464317594],[-119.30868288743723,49.525974710012555],[-119.31122133402732,49.53077288817688],[-119.32178017435544,49.53046033657781],[-119.32257603237473,49.535165750769494],[-119.32788264576364,49.53913383727063],[-119.33205029644598,49.54792208120794],[-119.33338870155227,49.55603981531943],[-119.33842210282235,49.556794957126854],[-119.33925339098506,49.55842355885661],[-119.33591358866927,49.56937515840069],[-119.34636141015697,49.58196459504273],[-119.34830840454535,49.58753121620973],[-119.3481042733095,49.59290597579483],[-119.36140592306872,49.59379664924542],[-119.36381785290844,49.59576673350027],[-119.3498577607945,49.606652446636495],[-119.35864560021012,49.61788619739332],[-119.35210657689983,49.62647176812575],[-119.34986239643764,49.634242365051726],[-119.35962282093672,49.64529897217059],[-119.37282873503648,49.65404615926495],[-119.3719234274495,49.67200456214462],[-119.37590573740643,49.67903282759907],[-119.36927073214088,49.679673626711846],[-119.36156730319917,49.686681936491254],[-119.34793019380628,49.69226779753467],[-119.34784639859838,49.693645319851214],[-119.3398983680984,49.69488532169374],[-119.33182337870915,49.69845473023953],[-119.32586647006598,49.69706527667315],[-119.3230858334502,49.69812964790572],[-119.2956800699822,49.715192936856916],[-119.28658815256819,49.72630979925612],[-119.27182000713279,49.73021398309605],[-119.26911724863746,49.73931872451645],[-119.26293656005778,49.74478184543756],[-119.22855429097648,49.73515284744404],[-119.22018079526562,49.73924047913334],[-119.20686180356488,49.73725406064974],[-119.19977976860929,49.74213791039518],[-119.19840622409997,49.74695612726255],[-119.20160140985641,49.753629091582596],[-119.18535483217566,49.75822712655454],[-119.16374501950878,49.75783022508585],[-119.16401273859643,49.7638630666831],[-119.1527306624581,49.76400540450179],[-119.15167848938268,49.79265427819369],[-119.15385029089585,49.79951502826364],[-119.1336119122747,49.79934634942128],[-119.12205800855173,49.795550215953675],[-119.11572152955752,49.79094718997694],[-119.11034072150976,49.792322796674476]],[[-118.67669081308134,49.07970430277677],[-118.67325047442485,49.07983899794953],[-118.67422259884056,49.095265812073464],[-118.67304584980704,49.10852381804239],[-118.68358030193947,49.10816769118699],[-118.683638822368,49.0799501139638],[-118.67669081308134,49.07970430277677]]]},"bbox":[-119.37590573740643,49.00004765733321,-118.49675425754285,49.8125570066292]}],"bbox":[-119.37590573740643,49.00004765733321,-117.46543061371884,49.8125570066292]}