{"type":"FeatureCollection","features":[{"id":"5907005","type":"Feature","properties":{},"geometry":{"type":"Polygon","coordinates":[[[-119.49873287524267,49.040294429844316],[-119.49706351235811,49.03930851893181],[-119.49385800892918,49.04199360357643],[-119.48825553389217,49.03930587206372],[-119.48381856144864,49.033655026680314],[-119.48009853573619,49.03523358835303],[-119.48114578251604,49.03631154157627],[-119.47066328620005,49.040024398628276],[-119.46891276594077,49.04465240981041],[-119.46675655387573,49.04418245495001],[-119.46348957624336,49.04247279185681],[-119.4644638485295,49.04083683640277],[-119.45902928508767,49.03398588532605],[-119.4588636356282,49.03057702531477],[-119.4568619076979,49.029580558341806],[-119.45098013845383,49.03157223951757],[-119.44751862280202,49.03675458674386],[-119.43701124157279,49.0363243403754],[-119.43535111259638,49.027882700145106],[-119.4390783804669,49.02384741574735],[-119.43343000064144,49.02240879228796],[-119.4321073360002,49.0146414062597],[-119.43363500225664,49.0149656104774],[-119.43507800823699,49.011171388082914],[-119.4428340158009,49.010636990478],[-119.43894868971164,49.0198397159703],[-119.4605843448163,49.026546059987],[-119.45957570940962,49.024669698411046],[-119.46566195233132,49.0233058566029],[-119.46189246360846,49.02193949248692],[-119.45967420227993,49.01669471421404],[-119.45987171527838,49.014291396001376],[-119.46444949447763,49.0127417999034],[-119.46638434589255,49.01756620075115],[-119.47400849212859,49.0224752080443],[-119.47442605607336,49.024221294055664],[-119.47983489409837,49.024084291127956],[-119.48083160230166,49.0170183939348],[-119.4776466637892,49.0148405000884],[-119.4753734078699,49.00670095875147],[-119.48484586192271,49.00542993025448],[-119.48892936838315,49.00736091334803],[-119.4962471392333,49.0179228156596],[-119.49368577296968,49.02085539570482],[-119.50563599905885,49.044360113927894],[-119.49873287524267,49.040294429844316]]]},"bbox":[-119.50563599905885,49.00542993025448,-119.4321073360002,49.04465240981041]},{"id":"5907009","type":"Feature","properties":{},"geometry":{"type":"Polygon","coordinates":[[[-119.8197293638591,49.21107987661633],[-119.81900009673234,49.21271655449783],[-119.81329789983874,49.21302558952452],[-119.81266312858799,49.20855984470001],[-119.81487689414026,49.20848835143452],[-119.81480324971228,49.203376369409675],[-119.82137090812633,49.19864499661838],[-119.82817679985473,49.198389993096235],[-119.83714245883763,49.20079034882973],[-119.8370322995173,49.21107645645076],[-119.8197293638591,49.21107987661633]]]},"bbox":[-119.83714245883763,49.198389993096235,-119.81266312858799,49.21302558952452]},{"id":"5907014","type":"Feature","properties":{},"geometry":{"type":"Polygon","coordinates":[[[-119.54928424818867,49.203292545890086],[-119.54728498296362,49.20416488324058],[-119.54488491040878,49.20272904533846],[-119.5371889858996,49.20457736203154],[-119.53728433232683,49.197557008623455],[-119.53496522623848,49.1947597557842],[-119.53731809117556,49.194054408183575],[-119.53734852101594,49.19069662766792],[-119.53499433634785,49.189431505611665],[-119.53733385659997,49.19020139530094],[-119.5370363207846,49.17594487393413],[-119.54012465675464,49.17555198121983],[-119.5390346602147,49.17090889378893],[-119.54467019527152,49.170016084844306],[-119.54839400534968,49.17318088224813],[-119.5529896146161,49.16807790359391],[-119.56074605808975,49.17244441334659],[-119.5649497132393,49.17097662861057],[-119.56996061160744,49.17440860390818],[-119.5763129383228,49.17579392732569],[-119.57443520491245,49.179885355557744],[-119.56650139859912,49.178796013523],[-119.55334796140971,49.18989749698831],[-119.55271907281046,49.192306468779584],[-119.55580104226578,49.19669262724758],[-119.55162811690688,49.19528852828235],[-119.55233370991785,49.2001703518111],[-119.54928424818867,49.203292545890086]]]},"bbox":[-119.5763129383228,49.16807790359391,-119.53496522623848,49.20457736203154]},{"id":"5907022","type":"Feature","properties":{},"geometry":{"type":"Polygon","coordinates":[[[-119.60636373270475,49.11381764630211],[-119.60410968926368,49.1144194947123],[-119.60403048919135,49.09463048820478],[-119.59298282656144,49.09463035022076],[-119.5931847685255,49.09226038981785],[-119.57802292652508,49.09201056295357],[-119.57029543035311,49.092252927088374],[-119.5701037797091,49.09587334019688],[-119.56452159870037,49.095783455786126],[-119.55973597091852,49.09043476155107],[-119.55921507404466,49.081290246032886],[-119.5460875144285,49.08118595911511],[-119.5463973506494,49.08440602189042],[-119.55252876399355,49.09036224476539],[-119.55608936158724,49.101197222427906],[-119.56189149350864,49.10556818716672],[-119.55713812150515,49.10759340604628],[-119.54285473401978,49.095483026821256],[-119.51536539607554,49.09470357286427],[-119.51582711558483,49.080418718293586],[-119.50958820368936,49.076261258184076],[-119.50815410428382,49.07087636178587],[-119.4936595490971,49.071028765618586],[-119.49340983109764,49.06823585376427],[-119.49701951569408,49.068113365991024],[-119.49511364031245,49.06752515514771],[-119.48459184549444,49.0690391625607],[-119.47861732365881,49.06785275482777],[-119.47652071277821,49.06617076530249],[-119.47506291556283,49.061371158117],[-119.46921973849474,49.060587857989084],[-119.46597723887977,49.05839885758472],[-119.46656621957507,49.05288006133515],[-119.4625667298135,49.05311926046602],[-119.46616521395772,49.05389696711553],[-119.46402221766958,49.05460757276934],[-119.46139484478638,49.05349526744125],[-119.46159321974174,49.05084485366921],[-119.45550704611203,49.050974468253955],[-119.44830224448054,49.047250157185424],[-119.44376191645308,49.04257017014617],[-119.44506231829598,49.036787383247884],[-119.44751862280202,49.03675458674386],[-119.45176105342203,49.03099033034569],[-119.4568619076979,49.029580558341806],[-119.4588636356282,49.03057702531477],[-119.45902928508767,49.03398588532605],[-119.4644638485295,49.04083683640277],[-119.46348957624336,49.04247279185681],[-119.46675655387573,49.04418245495001],[-119.46891276594077,49.04465240981041],[-119.47066328620005,49.040024398628276],[-119.48114578251604,49.03631154157627],[-119.48009853573619,49.03523358835303],[-119.48381856144864,49.033655026680314],[-119.48862412287613,49.039595066173185],[-119.49385800892918,49.04199360357643],[-119.49706351235811,49.03930851893181],[-119.50563599905885,49.044360113927894],[-119.49368577296968,49.02085539570482],[-119.4962471392333,49.0179228156596],[-119.48892936838315,49.00736091334803],[-119.48484586192271,49.00542993025448],[-119.4753734078699,49.00670095875147],[-119.4776466637892,49.0148405000884],[-119.48083160230166,49.0170183939348],[-119.47983489409837,49.024084291127956],[-119.47442605607336,49.024221294055664],[-119.47400849212859,49.0224752080443],[-119.46638434589255,49.01756620075115],[-119.46444949447763,49.0127417999034],[-119.45987171527838,49.014291396001376],[-119.46189246360846,49.02193949248692],[-119.46566195233132,49.0233058566029],[-119.45957570940962,49.024669698411046],[-119.4605843448163,49.026546059987],[-119.43894868971164,49.0198397159703],[-119.4428340158009,49.010636990478],[-119.43769817706823,49.01029489733727],[-119.43507800823699,49.011171388082914],[-119.43363500225664,49.0149656104774],[-119.4321073360002,49.0146414062597],[-119.43343000064144,49.02240879228796],[-119.4390783804669,49.02384741574735],[-119.43535111259638,49.027882700145106],[-119.43719913239717,49.03667892876729],[-119.42151607052442,49.036361247956535],[-119.42186421634469,49.0665977522488],[-119.44911459215125,49.06667308058788],[-119.44884657088633,49.12379167574433],[-119.44205651379617,49.12083196768884],[-119.42909213903746,49.119782253296194],[-119.4140092198055,49.12756694966978],[-119.40691132629578,49.129307350041614],[-119.3971081344702,49.12927744624799],[-119.3898057318201,49.12539797086683],[-119.37789861809901,49.124375372451325],[-119.37064901562624,49.120673860346706],[-119.35872740724645,49.11785955856132],[-119.3560994318201,49.11355985967542],[-119.35794002421619,49.11140794519441],[-119.34226048590205,49.11402393037002],[-119.32658039858543,49.113849223883214],[-119.2960439257163,49.13060314410691],[-119.29025342075784,49.135999765590405],[-119.28609793779036,49.14461044858391],[-119.27953912991201,49.14515454844969],[-119.27429210344755,49.15151935833614],[-119.25597402844313,49.16188682218115],[-119.25706918868359,49.15640970618549],[-119.26132832080165,49.15204569730241],[-119.26329126130483,49.14659622282309],[-119.26340374666654,49.14069749079791],[-119.28458359219749,49.13484229775399],[-119.2849817380749,49.133477907718685],[-119.27042038048413,49.11565584656162],[-119.27710404712136,49.1103808559666],[-119.27703710239318,49.10719421354109],[-119.27347658796712,49.10112460308662],[-119.28803116098995,49.10055813549342],[-119.29245024173167,49.09755524647029],[-119.29021626450977,49.08926581540026],[-119.29111383876192,49.087568876367136],[-119.29745733928348,49.086412480888924],[-119.30038138659265,49.08178503804393],[-119.30182071645689,49.07325407116544],[-119.30150920884397,49.00807357366647],[-119.29516785476407,49.007961776064036],[-119.29492322323372,49.00004765733321],[-119.6261234358622,49.000080810824315],[-119.6265611485888,49.07346994594334],[-119.63687211243882,49.07369084409209],[-119.63731867735623,49.08789948125716],[-119.64826047017601,49.08819441792171],[-119.64853627024675,49.09911692839704],[-119.67061823403134,49.09929827589913],[-119.66962147207046,49.12093279467603],[-119.63704196540401,49.121301675945226],[-119.63709707602264,49.11749101750583],[-119.63133289186831,49.11768944066735],[-119.63092098946541,49.114104490519864],[-119.60636373270475,49.11381764630211]]]},"bbox":[-119.67061823403134,49.00004765733321,-119.25597402844313,49.16188682218115]},{"id":"5907024","type":"Feature","properties":{},"geometry":{"type":"MultiPolygon","coordinates":[[[[-120.5033424765451,49.45800264728324],[-120.5022464690588,49.458364722177194],[-120.50106625857624,49.45794102802197],[-120.50381213041133,49.45786656703476],[-120.50309080363068,49.45856418464818],[-120.5033424765451,49.45800264728324]]],[[[-120.48605372638866,49.48053966604831],[-120.48446643436336,49.47808902161405],[-120.48449452220723,49.473185764063416],[-120.4861605362739,49.4731199855063],[-120.48640960385579,49.469314802419554],[-120.48248049594139,49.46929239455886],[-120.48084248581864,49.466686598473125],[-120.48240476916257,49.465360197489716],[-120.47875191632463,49.46276052860188],[-120.48117700874494,49.461398954884565],[-120.47861687955398,49.46207243712238],[-120.47308091847223,49.459771999662586],[-120.47305119393106,49.45701695607485],[-120.47694750810051,49.45723018626419],[-120.47710147933986,49.45567095649066],[-120.48054973963099,49.453793451699234],[-120.49149905296869,49.453405732257025],[-120.49183076904043,49.44916346840668],[-120.49848797725406,49.44910237570733],[-120.4959132900265,49.451291663968114],[-120.49594228353523,49.46006767372416],[-120.49831401705204,49.46114845802928],[-120.50396849282598,49.45860021456446],[-120.50915391878158,49.45226820289824],[-120.51794741387981,49.45009199626961],[-120.52257889958689,49.44627649198301],[-120.52559363837024,49.44592907118295],[-120.52953183888981,49.440767788845044],[-120.53700143842082,49.441155914375244],[-120.52997293698492,49.44339590911385],[-120.52634973803632,49.44908729404308],[-120.5321610479602,49.447870129724684],[-120.53543785084456,49.45247270710599],[-120.52599586402933,49.456098502294054],[-120.5419696061629,49.455416028043274],[-120.5418889834237,49.46273318550437],[-120.53627745742725,49.46273956195231],[-120.5359089116842,49.46923723181036],[-120.53000618465569,49.46918122662735],[-120.5298194414377,49.466846458942285],[-120.52193538700402,49.461373121281675],[-120.52050074479604,49.461937439266904],[-120.52787534916567,49.46717046700159],[-120.52805279028561,49.46929472127084],[-120.518358126813,49.46952774489187],[-120.50768550497895,49.47523665817258],[-120.50354861556589,49.47500364065192],[-120.50331680591209,49.484127422354895],[-120.48668721586405,49.48381442049402],[-120.48605372638866,49.48053966604831]]],[[[-120.53840194249737,49.38139178807262],[-120.53169056307556,49.38033617325755],[-120.53064957186905,49.382643678169224],[-120.52665319310039,49.38202210238101],[-120.52432046004567,49.390577123449795],[-120.4968946073919,49.38700916643271],[-120.49755902315286,49.38437314119814],[-120.49478272513076,49.38192387010486],[-120.49460348764589,49.37740560598193],[-120.46330628375121,49.373786882892276],[-120.4656025401638,49.35976690876853],[-120.48897207377863,49.36290933248494],[-120.48509676178102,49.35748280033113],[-120.47818467960681,49.35687783186637],[-120.47915348238729,49.3529784287634],[-120.484072661306,49.35349308724099],[-120.49140937765462,49.34965053792735],[-120.49527519365856,49.34519483126715],[-120.4895346483196,49.3388070077798],[-120.48529833216531,49.33674616574176],[-120.48520297427218,49.33478183292716],[-120.4824721109313,49.33475731819391],[-120.482537856714,49.33163421063514],[-120.48985458868721,49.33220546122339],[-120.49887711861876,49.33615290360271],[-120.50045346802108,49.33476855594056],[-120.50230303735873,49.335588063709416],[-120.50163446484767,49.32826392536588],[-120.49453034205821,49.328439166823514],[-120.4938601109379,49.32126387498903],[-120.49851093473232,49.32082908403246],[-120.49890810299787,49.31922620198972],[-120.50209598341743,49.319105545759015],[-120.5019707119364,49.32077030723455],[-120.50374337670864,49.32087512622384],[-120.50231747067154,49.30653051296311],[-120.50470827541362,49.2969343028003],[-120.50105581148706,49.29676939014323],[-120.49997194206958,49.28629286314234],[-120.50380605976672,49.285476520949025],[-120.50420657365687,49.27782933661576],[-120.52142212875034,49.27983842649586],[-120.5264707262978,49.27711902072482],[-120.5304448473489,49.27731044777918],[-120.53511194223634,49.28157566480532],[-120.53450588875569,49.28552870778874],[-120.53933863303064,49.28551636430148],[-120.54164101385537,49.28821880193291],[-120.54403257866561,49.28845135188948],[-120.54641438762168,49.30336000737752],[-120.55348828222408,49.3041904734954],[-120.5535788677112,49.307933381337264],[-120.55048325779896,49.30792105785418],[-120.54377565970078,49.31451064222378],[-120.54506349957222,49.321579899404504],[-120.5417597997336,49.32155421391107],[-120.54823906613782,49.329552056418265],[-120.5626361035606,49.32789117933938],[-120.56488152018512,49.33322774652521],[-120.56249725667726,49.33515153320746],[-120.5681702467837,49.3364045633416],[-120.56583987336239,49.34207227598122],[-120.56365268447004,49.34184990656172],[-120.56162007488771,49.34516916597779],[-120.56132306854563,49.35217347153572],[-120.55007938474195,49.35340611937464],[-120.55525464299934,49.359191382628936],[-120.55191162229148,49.35998457195942],[-120.54887010834126,49.366799295403524],[-120.54961070498902,49.37060548920084],[-120.55360219177274,49.3712313217246],[-120.5524635700554,49.37593404657928],[-120.54862600234178,49.37575025632997],[-120.54891004997562,49.377506987754145],[-120.54123922278943,49.38091689752067],[-120.54697181570538,49.385180489742474],[-120.53732481311222,49.38368151924514],[-120.53840194249737,49.38139178807262]]]]},"bbox":[-120.5681702467837,49.27711902072482,-120.46330628375121,49.484127422354895]},{"id":"5907026","type":"Feature","properties":{},"geometry":{"type":"Polygon","coordinates":[[[-119.79157645870593,49.19599341431738],[-119.67638449112157,49.19649254370963],[-119.67647830387332,49.18243150881715],[-119.67094733080447,49.182439293424615],[-119.66962147207046,49.12093279467603],[-119.67061823403134,49.09929827589913],[-119.64853627024675,49.09911692839704],[-119.64826047017601,49.08819441792171],[-119.63731867735623,49.08789948125716],[-119.63687211243882,49.07369084409209],[-119.6265611485888,49.07346994594334],[-119.6261234358622,49.000080810824315],[-119.70300448244781,49.000049940602004],[-119.70291533875674,49.004767352512616],[-119.70108320547646,49.00804875793413],[-119.70574052579472,49.010971263023166],[-119.70816832639814,49.01464855122973],[-119.70033053881453,49.016128353531215],[-119.69766513375652,49.01846685536574],[-119.70073952164454,49.02421497287875],[-119.6991241229846,49.030488671409735],[-119.70649054106767,49.02883935202565],[-119.71127174565424,49.03070656107068],[-119.71066291547353,49.03360057478252],[-119.70743023608904,49.03683484543419],[-119.71159922838751,49.04102777403614],[-119.70822053999709,49.048349659018974],[-119.71476924325354,49.049967563739926],[-119.71855940812739,49.055943457297445],[-119.71015132964443,49.06194365117748],[-119.7077989158722,49.06603825206089],[-119.7082283125054,49.06786415666575],[-119.71469770838182,49.06898925282837],[-119.71670750923664,49.07246856610143],[-119.71001164875365,49.07900576412598],[-119.72975434645254,49.0805930274007],[-119.73214262413646,49.05901187552454],[-119.73495187546713,49.05910317676649],[-119.73687969118629,49.00008374946362],[-119.94623130325314,49.00015708745753],[-119.94469483040133,49.00380039185476],[-119.91847518533267,49.01311097506574],[-119.91007826528318,49.017646422211],[-119.90955306301417,49.02261255106328],[-119.89219700110964,49.035963753850226],[-119.89300812134212,49.0412089401935],[-119.88453240279958,49.04654694458426],[-119.87273419212265,49.04755738742647],[-119.8371922880024,49.06841566749936],[-119.82494662356484,49.072477161218615],[-119.80579602551155,49.08402897058048],[-119.79334854364895,49.08897376358115],[-119.78327513729262,49.096946425015894],[-119.77484821023279,49.0969507530428],[-119.75951084837719,49.093881562094595],[-119.7565537852212,49.097721858192415],[-119.74903098617308,49.09805187945562],[-119.74939639822635,49.102147987430435],[-119.74768437013778,49.10213000907823],[-119.74769853841502,49.096959481695585],[-119.71462084733524,49.096958597055135],[-119.71466150006069,49.11328014685198],[-119.71702229788497,49.113262927258496],[-119.71704267556446,49.135401066617895],[-119.73866280698192,49.135021439792446],[-119.7392919684513,49.14251217349618],[-119.75605951622437,49.14216980572851],[-119.75599791499668,49.138527668096394],[-119.75358441590488,49.13668772995841],[-119.75569817749042,49.136821912396634],[-119.75479284192102,49.13516299257459],[-119.76058059065983,49.13551901752429],[-119.76088802223849,49.113418711486474],[-119.78248278278099,49.11339073819279],[-119.78247270304658,49.167553910344004],[-119.77373496081546,49.16761906185663],[-119.77396193409494,49.16986691047273],[-119.78641239627272,49.17123285032129],[-119.78714727496572,49.18429440747562],[-119.78909057715695,49.183827880186406],[-119.79157645870593,49.19599341431738]],[[-119.73768253950517,49.18437134187141],[-119.73770388871594,49.17499562772544],[-119.72638006106224,49.17475556507765],[-119.72645913390201,49.19289802732819],[-119.7376201761604,49.19090620524208],[-119.73768253950517,49.18437134187141]]]},"bbox":[-119.94623130325314,49.000049940602004,-119.6261234358622,49.19649254370963]},{"id":"5907028","type":"Feature","properties":{},"geometry":{"type":"Polygon","coordinates":[[[-119.61402378016487,49.295222167467536],[-119.6138968526992,49.2848108696088],[-119.55395263311968,49.28230385053979],[-119.5541669895581,49.27382153421289],[-119.52945567681293,49.27358247584091],[-119.52754520430747,49.27239195380791],[-119.52106185108087,49.274228658970685],[-119.51900274039893,49.27715280221289],[-119.51490839203588,49.27742060803878],[-119.51490912314799,49.269852145627425],[-119.50391109457605,49.26988997807658],[-119.50376856256256,49.26294530291398],[-119.47999314494194,49.2628839303763],[-119.47949226768752,49.25942951467068],[-119.44232940477625,49.2582111555148],[-119.42285732170262,49.253223568460065],[-119.41119702317637,49.25369355415904],[-119.39203274780952,49.25103316417275],[-119.38202533214577,49.24722765491115],[-119.36848251929503,49.24937674776922],[-119.34792683226507,49.25642664545154],[-119.3351213368957,49.25156866954635],[-119.31766671123023,49.248573572315415],[-119.30744192839619,49.249731347897836],[-119.30103934367595,49.248617658263285],[-119.26654783011108,49.25822396954524],[-119.25697794279388,49.254246168842954],[-119.24995462636797,49.25601216407151],[-119.24291053533544,49.254942545257414],[-119.2377160268794,49.255916748652176],[-119.22877303124515,49.266075657105056],[-119.22612560365478,49.277803955321836],[-119.2202829064299,49.28763245987683],[-119.21836231937,49.29413686411617],[-119.21747112459501,49.30247556992566],[-119.22061784214898,49.31374105667769],[-119.22081270248246,49.320205557466],[-119.20689783649162,49.34403266615892],[-119.20259313503534,49.34194828540724],[-119.20201487372861,49.33931638342063],[-119.20788308600801,49.32539294946033],[-119.18687274051543,49.3167642909231],[-119.17503756005394,49.31002788095106],[-119.18681645559761,49.298247450810415],[-119.21335095339424,49.285699924896555],[-119.22057974502746,49.27609963015991],[-119.22512079318567,49.26510922237782],[-119.22866686341126,49.26305112892471],[-119.23266020888194,49.255799199233984],[-119.23084414312373,49.24694120758047],[-119.23738440044973,49.238944863090445],[-119.21997849707735,49.22898038294296],[-119.21291230917615,49.222443652275366],[-119.1980901588242,49.21644987442488],[-119.180473551005,49.21831507823314],[-119.17624291079635,49.215252137244114],[-119.1809077693862,49.2105632772716],[-119.18097923846373,49.20443776652703],[-119.18910883592898,49.198334263951786],[-119.1972352137198,49.1992202916024],[-119.21139568875836,49.19748288077117],[-119.21721561964804,49.19461457218535],[-119.22078899324316,49.18488752249775],[-119.23567305344132,49.17964305797794],[-119.24235217421453,49.169482197016286],[-119.25436304515989,49.16567133616842],[-119.25597402844313,49.16188682218115],[-119.27429210344755,49.15151935833614],[-119.27953912991201,49.14515454844969],[-119.28596592652131,49.14471306405369],[-119.29025342075784,49.135999765590405],[-119.2960439257163,49.13060314410691],[-119.30850322242402,49.123318013858665],[-119.32658039858543,49.113849223883214],[-119.34226048590205,49.11402393037002],[-119.35794002421619,49.11140794519441],[-119.3560994318201,49.11355985967542],[-119.35872740724645,49.11785955856132],[-119.37064901562624,49.120673860346706],[-119.37789861809901,49.124375372451325],[-119.3898057318201,49.12539797086683],[-119.39599264077742,49.129164959864184],[-119.40691132629578,49.129307350041614],[-119.4140092198055,49.12756694966978],[-119.42909213903746,49.119782253296194],[-119.44205651379617,49.12083196768884],[-119.44884657088633,49.12379167574433],[-119.44882186165961,49.240757365854286],[-119.53730187972019,49.24085739578938],[-119.5371889858996,49.20457736203154],[-119.54488491040878,49.20272904533846],[-119.54728498296362,49.20416488324058],[-119.55010114250436,49.20345026014216],[-119.55242482041315,49.19978155411122],[-119.55162811690688,49.19528852828235],[-119.55580104226578,49.19669262724758],[-119.55271907281046,49.192306468779584],[-119.55334796140971,49.18989749698831],[-119.56650139859912,49.178796013523],[-119.57443520491245,49.179885355557744],[-119.5763129383228,49.17579392732569],[-119.56996061160744,49.17440860390818],[-119.5649497132393,49.17097662861057],[-119.56074605808975,49.17244441334659],[-119.5529896146161,49.16807790359391],[-119.54839400534968,49.17318088224813],[-119.54467019527152,49.170016084844306],[-119.5390346602147,49.17090889378893],[-119.54012465675464,49.17555198121983],[-119.5370363207846,49.17594487393413],[-119.53655219618418,49.15397319530463],[-119.55941689891081,49.153699524431566],[-119.56001729360071,49.13177272033308],[-119.5486942561467,49.13158476004815],[-119.54869291817188,49.12497986860029],[-119.53744850203397,49.12487333401614],[-119.53737904967588,49.10989823088847],[-119.526467955661,49.10947149157334],[-119.52617070342409,49.094349358059816],[-119.54285473401978,49.095483026821256],[-119.55713812150515,49.10759340604628],[-119.56000906399042,49.10665160713129],[-119.56189149350864,49.10556818716672],[-119.55608936158724,49.101197222427906],[-119.55252876399355,49.09036224476539],[-119.5463973506494,49.08440602189042],[-119.5460875144285,49.08118595911511],[-119.55921507404466,49.081290246032886],[-119.55973597091852,49.09043476155107],[-119.56452159870037,49.095783455786126],[-119.5701037797091,49.09587334019688],[-119.57029543035311,49.092252927088374],[-119.57802292652508,49.09201056295357],[-119.5931847685255,49.09226038981785],[-119.59298282656144,49.09463035022076],[-119.60403048919135,49.09463048820478],[-119.60410968926368,49.1144194947123],[-119.63092098946541,49.114104490519864],[-119.63133289186831,49.11768944066735],[-119.63709707602264,49.11749101750583],[-119.63704196540401,49.121301675945226],[-119.66962147207046,49.12093279467603],[-119.67094733080447,49.182439293424615],[-119.67647830387332,49.18243150881715],[-119.67554793535051,49.27773406573564],[-119.67004963573716,49.2775967912322],[-119.67044889339331,49.29946142753945],[-119.61401263941342,49.298985893230075],[-119.61402378016487,49.295222167467536]]]},"bbox":[-119.67647830387332,49.08118595911511,-119.17503756005394,49.34403266615892]},{"id":"5907035","type":"Feature","properties":{},"geometry":{"type":"Polygon","coordinates":[[[-119.79408026481075,49.712410911638855],[-119.7717419031158,49.71244290882092],[-119.77151895049057,49.690586790390874],[-119.76700235046373,49.6904069519211],[-119.76691704138449,49.683413013288],[-119.76142746938974,49.683446327102104],[-119.76117632064523,49.67944180423885],[-119.72105645056138,49.67887645539687],[-119.72027588397556,49.66018428449468],[-119.70975568715016,49.66035263897931],[-119.70945132435993,49.65400018031945],[-119.69092461596533,49.65300533087526],[-119.69015897896976,49.650553430253254],[-119.6850360788127,49.6465775282685],[-119.67891929872664,49.637363169016005],[-119.67282357896508,49.63164107882258],[-119.6681129897812,49.62899958558252],[-119.66126424403949,49.62968950317783],[-119.6609643797279,49.62538273711687],[-119.65597436215376,49.6216851852301],[-119.65599976374344,49.615895672294755],[-119.64769350458772,49.607500855041906],[-119.6503141006512,49.60219641270141],[-119.64505370908805,49.59538218701105],[-119.6426752149613,49.586053663756275],[-119.62795096096042,49.58118441885641],[-119.61690527622218,49.57294189876222],[-119.62118513254816,49.563211356896666],[-119.63486812193392,49.561194852330225],[-119.6356009765863,49.55782522795192],[-119.64683220978435,49.558090840506054],[-119.65428567359231,49.56594866577011],[-119.65680121381028,49.56339496589478],[-119.66321393358618,49.563084548649236],[-119.66880060749503,49.559744760615494],[-119.67472470703485,49.55909536119656],[-119.67531740687245,49.55675966256438],[-119.6782317998589,49.558743556458744],[-119.67747704561626,49.559850167083944],[-119.68287621626338,49.561460956373686],[-119.68662272569519,49.559404366614615],[-119.68792180794946,49.55611726556601],[-119.6924896199421,49.55444527290523],[-119.69287083474018,49.54880534559688],[-119.70305492320239,49.54794664825114],[-119.71114234366226,49.55016836715339],[-119.71402863070438,49.556839347628056],[-119.7129368182604,49.56082285804283],[-119.71391043676174,49.56666496076694],[-119.7162799246061,49.568507970625994],[-119.7171277111389,49.57278907203033],[-119.72105360633441,49.57425175860414],[-119.72298594438956,49.580620860700414],[-119.72794492599506,49.58269016955981],[-119.73276750674658,49.58259476688206],[-119.73497725905494,49.58555144019195],[-119.7490654515177,49.58575919748271],[-119.74866455426034,49.598241224519015],[-119.76344708568628,49.59850636443492],[-119.76372077608642,49.61217497547651],[-119.74974868582072,49.612691627083535],[-119.74919813352741,49.608035025347526],[-119.72710823010004,49.609421384152746],[-119.7272299567376,49.61596971668506],[-119.7162525070668,49.616092727163796],[-119.71429342951944,49.62423518883845],[-119.71454057018649,49.63850372061867],[-119.7203158823087,49.6387065873664],[-119.72042028933969,49.6419764890624],[-119.7344990754843,49.641485877910995],[-119.73496260017006,49.64521251497574],[-119.74105661061091,49.644940046010895],[-119.74158280000296,49.648832025754956],[-119.73173964972574,49.64943310497616],[-119.73157469288839,49.652848514457354],[-119.73719498488377,49.65290200725925],[-119.73738718111858,49.65656928918034],[-119.74853217142686,49.65654121216056],[-119.78902890264989,49.683179250958474],[-119.7888691650734,49.693560384065314],[-119.79438563991667,49.69380763999416],[-119.79456259744175,49.700980572468296],[-119.80597649850752,49.7011621066964],[-119.80564761646882,49.708260867992855],[-119.79422182703541,49.70826517612615],[-119.79408026481075,49.712410911638855]]]},"bbox":[-119.80597649850752,49.54794664825114,-119.61690527622218,49.71244290882092]},{"id":"5907041","type":"Feature","properties":{},"geometry":{"type":"Polygon","coordinates":[[[-119.54161683866565,49.52409216900492],[-119.54136080076148,49.51925393072671],[-119.53254584062185,49.51942046084194],[-119.53019469005548,49.51809703422152],[-119.53061551601155,49.5005387534612],[-119.51508257126784,49.50065473787449],[-119.51558737086309,49.496633444393275],[-119.53494884161786,49.49676613999232],[-119.53690044624035,49.489115384171576],[-119.54840472034168,49.482735614184534],[-119.54926017724185,49.46079405615689],[-119.56002989216921,49.46082564060556],[-119.55929286626946,49.4476830220409],[-119.56843610325008,49.44724797506019],[-119.56797510051659,49.42379619414927],[-119.57912892029022,49.423620130157566],[-119.58389915880203,49.43005270630458],[-119.58282537904972,49.434533314216246],[-119.58749999188665,49.44617119724438],[-119.58668303579168,49.450754639460946],[-119.59912611157085,49.44950419397985],[-119.59897009099097,49.451625509176374],[-119.59407929213823,49.45245344713403],[-119.59428273483805,49.453980171883096],[-119.59183892437107,49.45471786602391],[-119.59521153764749,49.45614496649815],[-119.59406549875337,49.45821722655171],[-119.60022007852298,49.45709780463443],[-119.60066248262656,49.45260234720389],[-119.60500189298759,49.451979524441384],[-119.60683957280557,49.45494889650971],[-119.60816108844651,49.45461890195467],[-119.60438039262645,49.47083759309458],[-119.60488126680498,49.47529505973538],[-119.59881437182051,49.47521831219153],[-119.60020857906278,49.45781109141419],[-119.59627155403558,49.45863834029948],[-119.59479183425132,49.46699455710475],[-119.59889464554611,49.48035216695365],[-119.61460743007856,49.49021765648855],[-119.61679471845255,49.49342507520174],[-119.61677443905889,49.496663655704815],[-119.61038017258485,49.505447096777985],[-119.60105598947925,49.50523973756761],[-119.58545679641078,49.509520858879235],[-119.58560466450463,49.51501130371367],[-119.58078303232831,49.52493514012752],[-119.57406384802816,49.53029829171268],[-119.57526055190183,49.53373490836411],[-119.58152438551876,49.53648784235221],[-119.57989799184053,49.540592561286005],[-119.58145693765398,49.546555504314405],[-119.58070476976727,49.55178819662978],[-119.58254629729315,49.55526846300394],[-119.54751536065316,49.55560458691539],[-119.54734136154491,49.54093109066793],[-119.54205990952634,49.54061761862125],[-119.54161683866565,49.52409216900492]],[[-119.59293230712923,49.4722777007424],[-119.59161497686183,49.47293731972873],[-119.59648269154418,49.47531292227031],[-119.59562981137002,49.47211488807395],[-119.59293230712923,49.4722777007424]]]},"bbox":[-119.61679471845255,49.423620130157566,-119.51508257126784,49.55560458691539]},{"id":"5907047","type":"Feature","properties":{},"geometry":{"type":"Polygon","coordinates":[[[-119.50007914494346,49.50429112398208],[-119.33648669119357,49.50520032039987],[-119.30263163215423,49.5050104693263],[-119.30079737345768,49.50364506359914],[-119.30035751773305,49.38570747334416],[-119.2929474138241,49.38254856779233],[-119.28679369668723,49.38385938510164],[-119.2817274968323,49.38761909890634],[-119.26206870551654,49.382274872381046],[-119.25138760354562,49.3687690424433],[-119.25190749416049,49.36611861010868],[-119.25831213987902,49.358587369392495],[-119.26043704274343,49.35031447366185],[-119.25694404286338,49.34639225225722],[-119.23639360738225,49.34141023305543],[-119.22224399607283,49.34301789739887],[-119.21314289696697,49.34603018766832],[-119.20689783649162,49.34403266615892],[-119.22081270248246,49.320205557466],[-119.22061784214898,49.31374105667769],[-119.21747112459501,49.30247556992566],[-119.21836231937,49.29413686411617],[-119.2202829064299,49.28763245987683],[-119.22612560365478,49.277803955321836],[-119.22877303124515,49.266075657105056],[-119.23318671092854,49.26028627199352],[-119.23787860705897,49.25582415664507],[-119.25015933766001,49.25599935658549],[-119.25418112919867,49.254093745423184],[-119.26607893167004,49.25817986118813],[-119.2694857381181,49.25784225514087],[-119.27389182973963,49.2553356703633],[-119.2818327445514,49.254647765600474],[-119.30112212799861,49.24860766348292],[-119.32876783324414,49.25000005374704],[-119.34792683226507,49.25642664545154],[-119.36848251929503,49.24937674776922],[-119.38202533214577,49.24722765491115],[-119.39203274780952,49.25103316417275],[-119.41119702317637,49.25369355415904],[-119.42285732170262,49.253223568460065],[-119.44232940477625,49.2582111555148],[-119.47949226768752,49.25942951467068],[-119.47999314494194,49.2628839303763],[-119.50376856256256,49.26294530291398],[-119.50391109457605,49.26988997807658],[-119.51490912314799,49.269852145627425],[-119.51490839203588,49.27742060803878],[-119.51900274039893,49.27715280221289],[-119.52106185108087,49.274228658970685],[-119.52724481561467,49.272424760764565],[-119.54151459807352,49.27369992144993],[-119.54111568545962,49.281086791191726],[-119.54635149166197,49.281133349355756],[-119.54831790921263,49.29434005670814],[-119.54576728415269,49.29454828466128],[-119.54742329547972,49.30501335772371],[-119.563594851107,49.31636138931825],[-119.56754079776915,49.3229006203568],[-119.57710073906132,49.331518054609816],[-119.57874464219731,49.3349311380757],[-119.58569604929114,49.33408586953403],[-119.59146679111358,49.35617575092307],[-119.57426651622505,49.3581063815986],[-119.57660079377911,49.36919049835877],[-119.57059360058149,49.384319410767425],[-119.57187121874857,49.389500194941014],[-119.58794541252365,49.42113052280011],[-119.5778977847139,49.42363073578317],[-119.56797510051659,49.42379619414927],[-119.56843610325008,49.44724797506019],[-119.55929286626946,49.4476830220409],[-119.56002989216921,49.46082564060556],[-119.54926017724185,49.46079405615689],[-119.54840472034168,49.482735614184534],[-119.53690044624035,49.489115384171576],[-119.53603511130925,49.49612720790361],[-119.51558737086309,49.496633444393275],[-119.51508257126784,49.50065473787449],[-119.53061551601155,49.5005387534612],[-119.53048303500955,49.504081675798766],[-119.50007914494346,49.50429112398208]]]},"bbox":[-119.59146679111358,49.24722765491115,-119.20689783649162,49.50520032039987]},{"id":"5907048","type":"Feature","properties":{},"geometry":{"type":"Polygon","coordinates":[[[-119.88391676336359,49.47169149521064],[-119.73894673592258,49.47147061323476],[-119.73952359843534,49.431750580271796],[-119.72023955473264,49.431490004298425],[-119.72071472775318,49.39524691811734],[-119.6987034787528,49.395108844026936],[-119.6991522626665,49.360737910775896],[-119.69096172342071,49.36096020104405],[-119.69081668049199,49.36518428158403],[-119.67974685728399,49.3663351696282],[-119.6797914016897,49.38072790884266],[-119.60552165708968,49.38097864544576],[-119.60589545543235,49.423161893166494],[-119.6098719235203,49.43162683742329],[-119.61285313099623,49.433866337882904],[-119.61466896250539,49.43967991423736],[-119.61301976078236,49.444711009043644],[-119.608777238161,49.447833269695145],[-119.60730413285036,49.45101496857475],[-119.5978452106793,49.452451953693036],[-119.59912611157085,49.44950419397985],[-119.58668303579168,49.450754639460946],[-119.58749999188665,49.44617119724438],[-119.58282537904972,49.434533314216246],[-119.58389915880203,49.43005270630458],[-119.5778977847139,49.42363073578317],[-119.58794541252365,49.42113052280011],[-119.57187121874857,49.389500194941014],[-119.57059360058149,49.384319410767425],[-119.57660079377911,49.36919049835877],[-119.57426651622505,49.3581063815986],[-119.59146679111358,49.35617575092307],[-119.58569604929114,49.33408586953403],[-119.57874464219731,49.3349311380757],[-119.57710073906132,49.331518054609816],[-119.56754079776915,49.3229006203568],[-119.563594851107,49.31636138931825],[-119.54742329547972,49.30501335772371],[-119.54576728415269,49.29454828466128],[-119.54831790921263,49.29434005670814],[-119.54635149166197,49.281133349355756],[-119.54111568545962,49.281086791191726],[-119.54151459807352,49.27369992144993],[-119.5541669895581,49.27382153421289],[-119.55395263311968,49.28230385053979],[-119.6138968526992,49.2848108696088],[-119.61401263941342,49.298985893230075],[-119.79747661169094,49.30126314455649],[-119.7976597454955,49.309604071795384],[-119.84183441679045,49.310220818104426],[-119.84187588480411,49.31408235952606],[-119.89115002139556,49.31435825839928],[-119.89431597745788,49.37151582246422],[-119.93228161223259,49.36983314322117],[-119.9319434030646,49.37512259292733],[-119.94066889147112,49.37540338890637],[-119.94062661923003,49.38123439861554],[-119.93494010654493,49.38140728231959],[-119.93722830244528,49.40384763232551],[-119.93485655463944,49.40087341853937],[-119.92586008888007,49.402734832984805],[-119.92251203421593,49.4054738090849],[-119.91913603188002,49.40335206249871],[-119.91244022698609,49.404276210687826],[-119.90772882548416,49.39776012831936],[-119.90342439961677,49.39756808629487],[-119.89789139406676,49.39219044571672],[-119.89518703365077,49.39166346086357],[-119.89475455790986,49.402797002003005],[-119.89974860011,49.46549495356664],[-119.90452041404107,49.46345779454328],[-119.9150975913073,49.469221070276895],[-119.91512966191661,49.471594787951894],[-119.88391676336359,49.47169149521064]]]},"bbox":[-119.94066889147112,49.27369992144993,-119.54111568545962,49.47169149521064]},{"id":"5907049","type":"Feature","properties":{},"geometry":{"type":"Polygon","coordinates":[[[-119.51539033086553,49.727903983478555],[-119.51081529574893,49.72537966023443],[-119.50130051888746,49.730465812205175],[-119.4858974773619,49.74639297572117],[-119.48030641733533,49.74470891100883],[-119.45876379569954,49.725470079710625],[-119.45628817458045,49.71859105894967],[-119.4538986546869,49.70227846921166],[-119.44799597900011,49.70037324540083],[-119.44678108803689,49.6912556337217],[-119.43475224839973,49.685790865707496],[-119.42703348088702,49.67538799248848],[-119.42277411212066,49.67527462217537],[-119.4182623945247,49.68065972519627],[-119.4055210397438,49.6840509544799],[-119.37590573740643,49.67903282759907],[-119.3719234274495,49.67200456214462],[-119.37282873503648,49.65404615926495],[-119.35962282093672,49.64529897217059],[-119.34986239643764,49.634242365051726],[-119.35210657689983,49.62647176812575],[-119.35864560021012,49.61788619739332],[-119.3498577607945,49.606652446636495],[-119.36381785290844,49.59576673350027],[-119.36140592306872,49.59379664924542],[-119.3481042733095,49.59290597579483],[-119.34830840454535,49.58753121620973],[-119.34636141015697,49.58196459504273],[-119.33591358866927,49.56937515840069],[-119.33925339098506,49.55842355885661],[-119.33842210282235,49.556794957126854],[-119.33338870155227,49.55603981531943],[-119.33205029644598,49.54792208120794],[-119.32788264576364,49.53913383727063],[-119.32257603237473,49.535165750769494],[-119.32178017435544,49.53046033657781],[-119.31122133402732,49.53077288817688],[-119.30868288743723,49.525974710012555],[-119.30207491897066,49.521749464317594],[-119.30400304538334,49.51194216546349],[-119.30712680309637,49.50740958205403],[-119.30989494961052,49.50504020234206],[-119.53044456430543,49.504103986921855],[-119.53019469005548,49.51809703422152],[-119.53254584062185,49.51942046084194],[-119.54136080076148,49.51925393072671],[-119.54205990952634,49.54061761862125],[-119.54734136154491,49.54093109066793],[-119.54751536065316,49.55560458691539],[-119.56712190978664,49.55556582584247],[-119.58254629729315,49.55526846300394],[-119.58070476976727,49.55178819662978],[-119.58145693765398,49.546555504314405],[-119.57989799184053,49.540592561286005],[-119.58152438551876,49.53648784235221],[-119.57526055190183,49.53373490836411],[-119.57406384802816,49.53029829171268],[-119.58078303232831,49.52493514012752],[-119.58560466450463,49.51501130371367],[-119.58545679641078,49.509520858879235],[-119.60105598947925,49.50523973756761],[-119.61038017258485,49.505447096777985],[-119.59914911127139,49.51783149100174],[-119.59612488096114,49.52987260109527],[-119.60274070596056,49.54961139200391],[-119.60332451339745,49.57211408962055],[-119.60538690137325,49.577207507422706],[-119.6256061872179,49.60167750630854],[-119.62557948907585,49.60916760024303],[-119.64250808974491,49.63344761649013],[-119.67401521634328,49.65784929408605],[-119.68296417922738,49.666663398595354],[-119.69780818795807,49.685556095268836],[-119.73819690971162,49.720014310146816],[-119.74157461040988,49.72482060939192],[-119.74196730210588,49.731498707709676],[-119.73694980341847,49.74336309501816],[-119.71955191159172,49.76524900348947],[-119.69745586040732,49.77516161916299],[-119.69708950614634,49.76073836640434],[-119.66098669363876,49.75900515364663],[-119.55662401952523,49.76018602594345],[-119.55631926363134,49.75314119725111],[-119.51902101443235,49.752903279684105],[-119.51931462476735,49.74130271404753],[-119.51539033086553,49.727903983478555]]]},"bbox":[-119.74196730210588,49.504103986921855,-119.30207491897066,49.77516161916299]},{"id":"5907051","type":"Feature","properties":{},"geometry":{"type":"MultiPolygon","coordinates":[[[[-119.63402750675223,49.50610478269977],[-119.63401508561685,49.50078189058735],[-119.64861575451788,49.50131314986056],[-119.64860125950553,49.517108650519944],[-119.63693018069388,49.51744466650745],[-119.63655688439471,49.508079140665565],[-119.63403211237478,49.50808362269004],[-119.63402750675223,49.50610478269977]]],[[[-119.60338668037568,49.56877871120415],[-119.60332860475152,49.552701206512864],[-119.59612488096114,49.52987260109527],[-119.59914911127139,49.51783149100174],[-119.61345564148823,49.50123256598874],[-119.61412963536364,49.5061346709117],[-119.61648478949186,49.50864445708977],[-119.62021496210153,49.50853175857693],[-119.62030625032693,49.490301690865586],[-119.63081660654092,49.490289704382405],[-119.63085001353714,49.49877019855889],[-119.63251368594362,49.49873549243088],[-119.63254872800438,49.50001910745772],[-119.63076883139607,49.49997150221346],[-119.63051459055299,49.50353278670574],[-119.63292931396603,49.50842157057903],[-119.63142509578881,49.50838668039942],[-119.63140012331071,49.513797777481535],[-119.62607130152391,49.51373940205439],[-119.62594433315155,49.51661474226267],[-119.62874114454428,49.51935811358093],[-119.62874233692878,49.521369166429594],[-119.62246508562917,49.522773937352845],[-119.62106938615233,49.52601584537157],[-119.61740024542298,49.52622420963269],[-119.6182212434834,49.53098856713678],[-119.62470286916695,49.53740721432312],[-119.6265900036243,49.53681967816911],[-119.63059346199975,49.53975868827339],[-119.64043583234745,49.54992800946557],[-119.64703295641516,49.552110272314124],[-119.64845756556173,49.55395405364922],[-119.64771534815434,49.556791225770645],[-119.66461775735088,49.55126588374062],[-119.6641482765085,49.56174714455319],[-119.66321393358618,49.563084548649236],[-119.65680121381028,49.56339496589478],[-119.65428567359231,49.56594866577011],[-119.64683220978435,49.558090840506054],[-119.6356009765863,49.55782522795192],[-119.63486812193392,49.561194852330225],[-119.62118513254816,49.563211356896666],[-119.61690527622218,49.57294189876222],[-119.62795096096042,49.58118441885641],[-119.6426752149613,49.586053663756275],[-119.64505370908805,49.59538218701105],[-119.6503141006512,49.60219641270141],[-119.64769350458772,49.607500855041906],[-119.65599976374344,49.615895672294755],[-119.65597436215376,49.6216851852301],[-119.6609643797279,49.62538273711687],[-119.66126424403949,49.62968950317783],[-119.6681129897812,49.62899958558252],[-119.67282357896508,49.63164107882258],[-119.67891929872664,49.637363169016005],[-119.6850360788127,49.6465775282685],[-119.69015897896976,49.650553430253254],[-119.69092461596533,49.65300533087526],[-119.70945132435993,49.65400018031945],[-119.70975568715016,49.66035263897931],[-119.72027588397556,49.66018428449468],[-119.72105645056138,49.67887645539687],[-119.76117632064523,49.67944180423885],[-119.76142746938974,49.683446327102104],[-119.76691704138449,49.683413013288],[-119.76700235046373,49.6904069519211],[-119.77151895049057,49.690586790390874],[-119.7717419031158,49.71244290882092],[-119.72866460630196,49.7120629582033],[-119.71964750086391,49.704431613117286],[-119.69780818795807,49.685556095268836],[-119.68296417922738,49.666663398595354],[-119.67401521634328,49.65784929408605],[-119.64250808974491,49.63344761649013],[-119.62557948907585,49.60916760024303],[-119.6256061872179,49.60167750630854],[-119.60538690137325,49.577207507422706],[-119.6035033102265,49.57365439787017],[-119.60338668037568,49.56877871120415]]],[[[-119.83681068988886,49.75811101162521],[-119.83590596582944,49.712625813236464],[-119.79408026481075,49.712410911638855],[-119.79422182703541,49.70826517612615],[-119.80564761646882,49.708260867992855],[-119.80597649850752,49.7011621066964],[-119.79456259744175,49.700980572468296],[-119.79438563991667,49.69380763999416],[-119.7888691650734,49.693560384065314],[-119.78902890264989,49.683179250958474],[-119.74853217142686,49.65654121216056],[-119.73738718111858,49.65656928918034],[-119.73719498488377,49.65290200725925],[-119.73157469288839,49.652848514457354],[-119.73173964972574,49.64943310497616],[-119.74158280000296,49.648832025754956],[-119.74105661061091,49.644940046010895],[-119.73496260017006,49.64521251497574],[-119.7344990754843,49.641485877910995],[-119.72042028933969,49.6419764890624],[-119.7203158823087,49.6387065873664],[-119.71454057018649,49.63850372061867],[-119.71429342951944,49.62423518883845],[-119.7162525070668,49.616092727163796],[-119.7272299567376,49.61596971668506],[-119.72710823010004,49.609421384152746],[-119.74919813352741,49.608035025347526],[-119.74974868582072,49.612691627083535],[-119.76372077608642,49.61217497547651],[-119.76350696756982,49.59517568269846],[-119.75797089893024,49.59488961045779],[-119.75923114128896,49.58379477722024],[-119.75322851522105,49.58358153700322],[-119.75371723585077,49.56595992723639],[-119.77604940159391,49.5658347685378],[-119.77731728230177,49.51491202117325],[-119.76685171800123,49.51478870705603],[-119.7678533158553,49.50076995529934],[-119.74897643142725,49.50060235168246],[-119.74993692372594,49.47896045294779],[-119.73883859344214,49.47894938492441],[-119.73894673592258,49.47147061323476],[-119.90013561550111,49.47170425458567],[-119.90069353083958,49.48114824993821],[-119.90352080724024,49.48346453250809],[-119.9037132770813,49.48551583257891],[-119.9076220252064,49.48630404959296],[-119.9080910481477,49.50008971928374],[-119.91454738380214,49.507573979055785],[-119.91746610682733,49.51439684923016],[-119.92041397914205,49.51704937785627],[-119.92950202918053,49.5167873470212],[-119.94961917308402,49.528885175058306],[-119.96218279459084,49.52384009152257],[-119.98944405809273,49.50742675274728],[-120.00107772215082,49.50582775936704],[-120.03328156867573,49.521515412071984],[-120.03285201276333,49.535461722956114],[-120.03452756944526,49.53956696039733],[-120.02714938391485,49.54292819230038],[-120.02916885439012,49.54774975804373],[-120.022215371444,49.55263056590049],[-120.02227193924769,49.554251872117135],[-120.03287185327756,49.566042618596185],[-120.04034656164777,49.56560223858712],[-120.04066111139828,49.56906043811369],[-120.04772273784681,49.57128812138695],[-120.0484573181106,49.572971580992835],[-120.04119513236415,49.58180285628844],[-120.03443751518661,49.5851721145153],[-120.03089448460803,49.59320462311116],[-120.03160981168625,49.59483970180461],[-120.03745258806806,49.59946424478074],[-120.03992609885205,49.60284181361534],[-120.03953877065234,49.60609457910579],[-120.04209679807703,49.60769500604547],[-120.05979444213371,49.61169949291405],[-120.06489771613836,49.61777001716921],[-120.06602600527488,49.6246438992377],[-120.07144726347276,49.62658422151633],[-120.07548577126626,49.630754116171985],[-120.08632809795428,49.63039670736618],[-120.08625559248486,49.63674040820331],[-120.09463975195254,49.641376999144214],[-120.09922463343459,49.646141197113565],[-120.08432689099878,49.65307607037992],[-120.07475064578011,49.660182293328816],[-120.0601849714173,49.66407245450063],[-120.06012095150638,49.67138489900576],[-120.05197103246974,49.67804956769542],[-120.04211065000811,49.6780742838474],[-120.03411418342783,49.67153572939844],[-120.03024758574607,49.67024823085156],[-120.01899516983423,49.672168425145735],[-120.00711549647971,49.67152584268068],[-119.98990334985194,49.66467178849683],[-119.97519402534672,49.66763259491524],[-119.97519060442066,49.696215683801306],[-120.00346216985321,49.69646696799154],[-120.00400286989536,49.703910483149734],[-119.99831982739742,49.70388642924401],[-119.99831505815679,49.71094566216624],[-119.97958400915417,49.71039556230679],[-119.97953153326449,49.766250902026684],[-119.83699338073643,49.76565883305844],[-119.83681068988886,49.75811101162521]]]]},"bbox":[-120.09922463343459,49.47147061323476,-119.59612488096114,49.766250902026684]},{"id":"5907053","type":"Feature","properties":{},"geometry":{"type":"Polygon","coordinates":[[[-120.13405258272476,49.632603570322544],[-120.13136125356004,49.63155417001773],[-120.12664391029604,49.637323364221764],[-120.09922463343459,49.646141197113565],[-120.09463975195254,49.641376999144214],[-120.08625559248486,49.63674040820331],[-120.08632809795428,49.63039670736618],[-120.07548577126626,49.630754116171985],[-120.07144726347276,49.62658422151633],[-120.06602600527488,49.6246438992377],[-120.06489771613836,49.61777001716921],[-120.05979444213371,49.61169949291405],[-120.04924325912457,49.610325702774304],[-120.03953877065234,49.60609457910579],[-120.03992609885205,49.60284181361534],[-120.03089448460803,49.59320462311116],[-120.03443751518661,49.5851721145153],[-120.04119513236415,49.58180285628844],[-120.0484573181106,49.572971580992835],[-120.04772273784681,49.57128812138695],[-120.04066111139828,49.56906043811369],[-120.04034656164777,49.56560223858712],[-120.03287185327756,49.566042618596185],[-120.02227193924769,49.554251872117135],[-120.022215371444,49.55263056590049],[-120.02916885439012,49.54774975804373],[-120.02714938391485,49.54292819230038],[-120.03452756944526,49.53956696039733],[-120.03285201276333,49.535461722956114],[-120.03328156867573,49.521515412071984],[-120.0282391186211,49.518551674430284],[-120.00107772215082,49.50582775936704],[-119.98944405809273,49.50742675274728],[-119.96218279459084,49.52384009152257],[-119.94961917308402,49.528885175058306],[-119.92950202918053,49.5167873470212],[-119.92041397914205,49.51704937785627],[-119.91746610682733,49.51439684923016],[-119.91454738380214,49.507573979055785],[-119.9080910481477,49.50008971928374],[-119.9076220252064,49.48630404959296],[-119.9037132770813,49.48551583257891],[-119.90352080724024,49.48346453250809],[-119.90069353083958,49.48114824993821],[-119.90013561550111,49.47170425458567],[-119.91512966191661,49.471594787951894],[-119.9150975913073,49.469221070276895],[-119.90452041404107,49.46345779454328],[-119.89974860011,49.46549495356664],[-119.89475455790986,49.402797002003005],[-119.89518703365077,49.39166346086357],[-119.89789139406676,49.39219044571672],[-119.90342439961677,49.39756808629487],[-119.90772882548416,49.39776012831936],[-119.91244022698609,49.404276210687826],[-119.91913603188002,49.40335206249871],[-119.92251203421593,49.4054738090849],[-119.92586008888007,49.402734832984805],[-119.93485655463944,49.40087341853937],[-119.93722830244528,49.40384763232551],[-119.93494010654493,49.38140728231959],[-119.94062661923003,49.38123439861554],[-119.94066889147112,49.37540338890637],[-119.9319434030646,49.37512259292733],[-119.93228161223259,49.36983314322117],[-119.89431597745788,49.37151582246422],[-119.89115002139556,49.31435825839928],[-119.84187588480411,49.31408235952606],[-119.84183441679045,49.310220818104426],[-119.7976597454955,49.309604071795384],[-119.79747661169094,49.30126314455649],[-119.67044889339331,49.29946142753945],[-119.67004963573716,49.2775967912322],[-119.67554793535051,49.27773406573564],[-119.67638449112157,49.19649254370963],[-119.79157645870593,49.19599341431738],[-119.78909057715695,49.183827880186406],[-119.78714727496572,49.18429440747562],[-119.78641239627272,49.17123285032129],[-119.77396193409494,49.16986691047273],[-119.77373496081546,49.16761906185663],[-119.78247270304658,49.167553910344004],[-119.78248278278099,49.11339073819279],[-119.76088802223849,49.113418711486474],[-119.760616770302,49.10224998345918],[-119.74939639822635,49.102147987430435],[-119.74903098617308,49.09805187945562],[-119.7565537852212,49.097721858192415],[-119.75951084837719,49.093881562094595],[-119.77484821023279,49.0969507530428],[-119.78542725036002,49.09598516574846],[-119.79334854364895,49.08897376358115],[-119.80579602551155,49.08402897058048],[-119.82494662356484,49.072477161218615],[-119.8371922880024,49.06841566749936],[-119.87273419212265,49.04755738742647],[-119.88453240279958,49.04654694458426],[-119.89300812134212,49.0412089401935],[-119.89219700110964,49.035963753850226],[-119.90955306301417,49.02261255106328],[-119.91007826528318,49.017646422211],[-119.91847518533267,49.01311097506574],[-119.94469483040133,49.00380039185476],[-119.94623130325314,49.00015708745753],[-120.40254729352773,49.000076883770134],[-120.40518735874542,49.01069322755824],[-120.43512805230601,49.033069852771426],[-120.43629960160017,49.041466297579504],[-120.45569495309054,49.04911089588284],[-120.46045593523371,49.04955646900806],[-120.44042032670554,49.06102543018721],[-120.44823491216054,49.07666225575579],[-120.45565614343494,49.07903264990695],[-120.45731496481997,49.08127315557924],[-120.45573588470464,49.083999435776946],[-120.44199424206987,49.091652176633254],[-120.44155516743646,49.09772738716347],[-120.43247858508539,49.10113592019011],[-120.4449018025584,49.1122822964543],[-120.44457733245213,49.12115559461517],[-120.44161410451925,49.12256430250822],[-120.42408606680063,49.122701041025714],[-120.41917006525884,49.12452297360124],[-120.41683975478846,49.12735001853544],[-120.41537598669618,49.13743086560636],[-120.41833041001286,49.140619811599805],[-120.41458497937354,49.14491512395289],[-120.4223011537565,49.14842608606263],[-120.4244773657737,49.152165563022336],[-120.41480374918665,49.16550282863058],[-120.41117859220088,49.16800246864807],[-120.42597112202704,49.17373852068792],[-120.42789337941394,49.177557554164544],[-120.42170820645975,49.18106947179867],[-120.42127221946265,49.183707825487204],[-120.42478862781877,49.187665682447566],[-120.42442032767077,49.190958613115555],[-120.43113392139645,49.19752312034706],[-120.42042025768316,49.20091381857329],[-120.40782388670303,49.2011841008716],[-120.4073375790167,49.205865660717194],[-120.41331812404644,49.212628993602074],[-120.41419381728228,49.21735470867843],[-120.40884404428124,49.223298322821975],[-120.4145352482828,49.22997822795934],[-120.41546134683283,49.236574456792226],[-120.41173236648157,49.237480668230255],[-120.40039530994393,49.23565419311882],[-120.3920281384051,49.23984468294426],[-120.36235067359718,49.24011225530464],[-120.35467337135233,49.23726388205471],[-120.35268043768866,49.237891023943476],[-120.35031915123864,49.24410153939234],[-120.34062312384278,49.24711745739199],[-120.33163277624759,49.24387056513579],[-120.31431781938667,49.23080605715657],[-120.30850057720538,49.23068045258368],[-120.29593987061875,49.23497092291142],[-120.27133406179314,49.223823184073865],[-120.26321397513016,49.21312589793539],[-120.25701211019496,49.21230867536612],[-120.25165211137022,49.21628583445145],[-120.2476371250592,49.22652107918137],[-120.24952619128644,49.233487612352825],[-120.26794947006823,49.256466743110046],[-120.26174221429052,49.26096790546572],[-120.26214368982743,49.2663026951013],[-120.26643588011007,49.271905319585976],[-120.27042663993787,49.27284718083586],[-120.27543510240139,49.28045184279583],[-120.27566988140289,49.28496535364934],[-120.27169662267427,49.28938024860734],[-120.27132348100031,49.29550079762214],[-120.27248989143655,49.30151326654893],[-120.27538124339775,49.30384927159957],[-120.2687388563288,49.31558800346633],[-120.27382500995827,49.32449636224231],[-120.25894700506646,49.3309833119369],[-120.25096744446759,49.32889602581002],[-120.24106696081368,49.32902846219362],[-120.22682252572328,49.34079342177242],[-120.22653670537453,49.41577212653463],[-120.22463389233846,49.419521941327496],[-120.20970571260901,49.42527545891104],[-120.17319176525652,49.43165129139994],[-120.16848966277193,49.433760540777286],[-120.16632791824047,49.438173471609446],[-120.17048616817159,49.4420210645604],[-120.16761192790842,49.44942136391876],[-120.16834559370322,49.46438833121441],[-120.17242681553448,49.467702803638744],[-120.17854629713177,49.47832202464846],[-120.1733366329587,49.48787674900698],[-120.17720377297455,49.49622600975399],[-120.18657958142332,49.49991662774889],[-120.18542214954743,49.50229440235573],[-120.18889696604855,49.50813866365563],[-120.19413294984976,49.51217824055831],[-120.19320705803966,49.514609544663614],[-120.19730327800993,49.52315836475829],[-120.19637699731172,49.52559083840326],[-120.18985597218658,49.530660961216526],[-120.17441759304423,49.53752922842711],[-120.17375193894316,49.53899702270817],[-120.17531860500578,49.54115451554848],[-120.16563145815377,49.55181008555272],[-120.16564641587948,49.55552794984112],[-120.16015715395793,49.55955242242771],[-120.16368270219564,49.56708856305952],[-120.15738508950876,49.570034994890754],[-120.16254415137989,49.57900393084389],[-120.16958073047766,49.58358793853522],[-120.16527157020812,49.59170765014624],[-120.15780756669292,49.598557759148584],[-120.15865080773989,49.60609662285876],[-120.17415193870818,49.62016776248278],[-120.16508196879919,49.62736645690335],[-120.14636418127414,49.6335695983197],[-120.1374784063006,49.63439677472204],[-120.13405258272476,49.632603570322544]],[[-119.91293984369192,49.211957066719854],[-119.90725019754669,49.21293790441949],[-119.90736963444596,49.22300179014444],[-119.93203298718531,49.223020487055145],[-119.93182892559555,49.21876595359958],[-119.92338813294793,49.21327596385201],[-119.91723813664247,49.21146146977974],[-119.91293984369192,49.211957066719854]],[[-119.82330063362411,49.19856000401029],[-119.81480324971228,49.203376369409675],[-119.81487689414026,49.20848835143452],[-119.81266312858799,49.20855984470001],[-119.81329789983874,49.21302558952452],[-119.81900009673234,49.21271655449783],[-119.81896039010276,49.21107713497656],[-119.8370322995173,49.21107645645076],[-119.83714245883763,49.20079034882973],[-119.82330063362411,49.19856000401029]],[[-120.12270608047699,49.36629705715838],[-120.10056742373038,49.36666040210368],[-120.10026680138157,49.35977851443861],[-120.11167623155639,49.35831074784242],[-120.11131695487964,49.35039622456444],[-120.09023096764425,49.348592042120075],[-120.08987071416053,49.34333097324022],[-120.08150193770997,49.3433941153108],[-120.08083781339387,49.33645238587625],[-120.07046420712611,49.33592830681037],[-120.07060381043496,49.327230357789084],[-120.0596867264128,49.32659165920801],[-120.05936740752745,49.317887857137954],[-120.04549286928312,49.31786859117238],[-120.04380874777118,49.27355338952374],[-120.08935115071105,49.273136126575785],[-120.08908995330958,49.244911406790955],[-120.02224431908967,49.24455776363955],[-120.02271291458257,49.19937552822865],[-119.97894182371174,49.199163395489634],[-119.9786611374701,49.21187348716837],[-119.9286469749593,49.21143324020915],[-119.92853443530595,49.20865153245737],[-119.91429359978817,49.208985714145385],[-119.91437396361806,49.21099433129528],[-119.91775272159762,49.210881862410815],[-119.9233926209388,49.21265496071855],[-119.93504970515517,49.21934015848771],[-119.9435873184623,49.21948265347978],[-119.95242242055681,49.21723376637313],[-119.95616133120282,49.21843295133292],[-119.96352430994979,49.22536036645045],[-119.96794434247582,49.22692126573932],[-119.9750729273386,49.225962774433214],[-119.98275493160698,49.23218944859832],[-120.00161908148434,49.23833770304938],[-120.00586761241327,49.24629906437356],[-120.01800681034265,49.24986955705908],[-120.01917552414852,49.25169115300922],[-120.01716032871074,49.25865545796841],[-120.03005681486628,49.26663535488079],[-120.0311064279644,49.27019876394478],[-120.03535904138762,49.27426625938935],[-120.03479034340084,49.2816650667278],[-120.03663302888245,49.28352077279599],[-120.03359783051553,49.28871627212024],[-120.03446633203158,49.295089658446834],[-120.03164540620241,49.30267355702007],[-120.03283736995101,49.30609430817746],[-120.02906265825365,49.305354504203855],[-120.03061240539657,49.30922310435529],[-120.02997724250841,49.322385189178675],[-120.04108664597766,49.32258764951844],[-120.03942879717269,49.347891762577795],[-120.06684206737445,49.34821200275263],[-120.0671267450174,49.343085639300824],[-120.07850241916259,49.34552219720552],[-120.08059224348384,49.35113655404958],[-120.0785397828406,49.35478316785944],[-120.08075554201496,49.355638786672024],[-120.07841754393199,49.35691749232143],[-120.07794435535871,49.35953187508778],[-120.07800491693642,49.38948951897244],[-120.12247731479279,49.38960810560183],[-120.12270608047699,49.36629705715838]]]},"bbox":[-120.46045593523371,49.000076883770134,-119.67004963573716,49.646141197113565]},{"id":"5907055","type":"Feature","properties":{},"geometry":{"type":"Polygon","coordinates":[[[-120.92443694365886,49.76078236916269],[-120.83415138589646,49.760073957088714],[-120.83279722660475,49.76014549159689],[-120.83236158124953,49.76377007871322],[-120.77179116853854,49.763391096761666],[-120.77233963310285,49.75995715308462],[-120.76063483789171,49.75986929868771],[-120.75988518880236,49.749726093986155],[-120.70446608739572,49.74955856242868],[-120.70436905193594,49.746905202426774],[-120.69294986610693,49.74730068559906],[-120.69315623788206,49.74988210614494],[-120.60433288841661,49.749579507471466],[-120.60376780019236,49.77077050186347],[-120.5736042769397,49.77055239092662],[-120.57341138127732,49.77287825522282],[-120.48571062206668,49.77223134512817],[-120.44534350779908,49.81060947611106],[-120.42387341428426,49.81776536396512],[-120.41963549413644,49.82264210269498],[-120.41920225850417,49.82669432049926],[-120.41652473043203,49.83020652676424],[-120.40749194589283,49.837235488409],[-120.39678589439737,49.83786976432142],[-120.38863736965912,49.84911137807814],[-120.39046149431167,49.853507185622064],[-120.38664185947292,49.85855522969914],[-120.38679111896063,49.866028688155545],[-120.3901453714628,49.87389074446624],[-120.3740305018932,49.88353817782195],[-120.373851707266,49.886878716174934],[-120.36376020915387,49.8915367148942],[-120.36334415920741,49.90318490398512],[-120.34761180561709,49.905823379011714],[-120.33708476184604,49.91076189556338],[-120.33005879904063,49.91201160895471],[-120.32040785903754,49.905240862428066],[-120.30783674699751,49.899963012667676],[-120.26842684033535,49.88794410140649],[-120.26275938763837,49.88903009295231],[-120.25828962862582,49.89449042936096],[-120.24718432368236,49.89658497793889],[-120.22871051853562,49.89592228860622],[-120.21412977554891,49.88623624745818],[-120.2128204723368,49.88178631558301],[-120.21484372310498,49.87591229514197],[-120.21338723856161,49.86052756390721],[-120.21024706022547,49.85930447476307],[-120.1981859189284,49.86044481001438],[-120.18106741630626,49.85619135004358],[-120.17623731438705,49.85667669395352],[-120.1689113441041,49.863440011024224],[-120.16113472598047,49.86525663916084],[-120.14934612065471,49.85576041065766],[-120.13612821732342,49.85057395435148],[-120.1301715929206,49.84582654422525],[-120.12325292272361,49.84945892367866],[-120.1183817311687,49.84409267562673],[-120.09457575301926,49.84452651846212],[-120.0826774029179,49.83884060465029],[-120.07952275568483,49.83456136177587],[-120.07325645940088,49.83590863329128],[-120.06832137672005,49.83975284334255],[-120.0641731972205,49.847679461754005],[-120.05479757802236,49.85570622397326],[-120.03890738711938,49.856585357794394],[-120.0170525229079,49.8447169178004],[-120.01346656092105,49.83940675720727],[-119.99164524964083,49.833884140387795],[-119.98364286742277,49.83022587460994],[-119.96879220239356,49.81958524525875],[-119.9670072969884,49.81220896115795],[-119.9780860819432,49.801888730365],[-119.97755111179396,49.79332135031434],[-119.98432026269886,49.78963278071113],[-119.98442221610372,49.781339149762665],[-119.97867402180826,49.77668296879305],[-119.97988986602994,49.76645125361508],[-119.97958400915417,49.71039556230679],[-119.99831505815679,49.71094566216624],[-119.99831982739742,49.70388642924401],[-120.00400286989536,49.703910483149734],[-120.00346216985321,49.69646696799154],[-119.97519060442066,49.696215683801306],[-119.97519402534672,49.66763259491524],[-119.98990334985194,49.66467178849683],[-120.00711549647971,49.67152584268068],[-120.01899516983423,49.672168425145735],[-120.03024758574607,49.67024823085156],[-120.03411418342783,49.67153572939844],[-120.04211065000811,49.6780742838474],[-120.05197103246974,49.67804956769542],[-120.06012095150638,49.67138489900576],[-120.0601849714173,49.66407245450063],[-120.07475064578011,49.660182293328816],[-120.09527885976209,49.64725284902635],[-120.12664391029604,49.637323364221764],[-120.13136125356004,49.63155417001773],[-120.1374784063006,49.63439677472204],[-120.14636418127414,49.6335695983197],[-120.16508196879919,49.62736645690335],[-120.17415193870818,49.62016776248278],[-120.15865080773989,49.60609662285876],[-120.15780756669292,49.598557759148584],[-120.16527157020812,49.59170765014624],[-120.16958073047766,49.58358793853522],[-120.16254415137989,49.57900393084389],[-120.15738508950876,49.570034994890754],[-120.16368270219564,49.56708856305952],[-120.16015715395793,49.55955242242771],[-120.16564641587948,49.55552794984112],[-120.16563145815377,49.55181008555272],[-120.17531860500578,49.54115451554848],[-120.17375193894316,49.53899702270817],[-120.17441759304423,49.53752922842711],[-120.18985597218658,49.530660961216526],[-120.19637699731172,49.52559083840326],[-120.19721380020512,49.520918747232706],[-120.19320705803966,49.514609544663614],[-120.19413294984976,49.51217824055831],[-120.18754708381894,49.50654386914611],[-120.18542214954743,49.50229440235573],[-120.18657958142332,49.49991662774889],[-120.17720377297455,49.49622600975399],[-120.1733366329587,49.48787674900698],[-120.17854629713177,49.47832202464846],[-120.17242681553448,49.467702803638744],[-120.16834559370322,49.46438833121441],[-120.16761192790842,49.44942136391876],[-120.17048616817159,49.4420210645604],[-120.16632791824047,49.438173471609446],[-120.16848966277193,49.433760540777286],[-120.17319176525652,49.43165129139994],[-120.20970571260901,49.42527545891104],[-120.22463389233846,49.419521941327496],[-120.22653670537453,49.41577212653463],[-120.22664873582828,49.405994203740484],[-120.23167217132072,49.406153842319775],[-120.23159599308767,49.401437126724815],[-120.22633125816616,49.39960951955628],[-120.22682252572328,49.34079342177242],[-120.24106696081368,49.32902846219362],[-120.25096744446759,49.32889602581002],[-120.25894700506646,49.3309833119369],[-120.27255814690629,49.325231193426845],[-120.27415815580001,49.32317638841233],[-120.2687388563288,49.31558800346633],[-120.27538124339775,49.30384927159957],[-120.27248989143655,49.30151326654893],[-120.27132348100031,49.29550079762214],[-120.27169662267427,49.28938024860734],[-120.27566988140289,49.28496535364934],[-120.27543510240139,49.28045184279583],[-120.27042663993787,49.27284718083586],[-120.26643588011007,49.271905319585976],[-120.26214368982743,49.2663026951013],[-120.26174221429052,49.26096790546572],[-120.26794947006823,49.256466743110046],[-120.24952619128644,49.233487612352825],[-120.2476371250592,49.22652107918137],[-120.25165211137022,49.21628583445145],[-120.25701211019496,49.21230867536612],[-120.26321397513016,49.21312589793539],[-120.27133406179314,49.223823184073865],[-120.29593987061875,49.23497092291142],[-120.30850057720538,49.23068045258368],[-120.31431781938667,49.23080605715657],[-120.33163277624759,49.24387056513579],[-120.34062312384278,49.24711745739199],[-120.35031915123864,49.24410153939234],[-120.35268043768866,49.237891023943476],[-120.35467337135233,49.23726388205471],[-120.36235067359718,49.24011225530464],[-120.3920281384051,49.23984468294426],[-120.40039530994393,49.23565419311882],[-120.41173236648157,49.237480668230255],[-120.41546134683283,49.236574456792226],[-120.4145352482828,49.22997822795934],[-120.40884404428124,49.223298322821975],[-120.41419381728228,49.21735470867843],[-120.41331812404644,49.212628993602074],[-120.4073375790167,49.205865660717194],[-120.40782388670303,49.2011841008716],[-120.42042025768316,49.20091381857329],[-120.43113392139645,49.19752312034706],[-120.42442032767077,49.190958613115555],[-120.42478862781877,49.187665682447566],[-120.42127221946265,49.183707825487204],[-120.42170820645975,49.18106947179867],[-120.42789337941394,49.177557554164544],[-120.42597112202704,49.17373852068792],[-120.41117859220088,49.16800246864807],[-120.41480374918665,49.16550282863058],[-120.4244773657737,49.152165563022336],[-120.4223011537565,49.14842608606263],[-120.41458497937354,49.14491512395289],[-120.41833041001286,49.140619811599805],[-120.41537598669618,49.13743086560636],[-120.41683975478846,49.12735001853544],[-120.41917006525884,49.12452297360124],[-120.42408606680063,49.122701041025714],[-120.44161410451925,49.12256430250822],[-120.44457733245213,49.12115559461517],[-120.4449018025584,49.1122822964543],[-120.43247858508539,49.10113592019011],[-120.44155516743646,49.09772738716347],[-120.44199424206987,49.091652176633254],[-120.45573588470464,49.083999435776946],[-120.45731496481997,49.08127315557924],[-120.45565614343494,49.07903264990695],[-120.44823491216054,49.07666225575579],[-120.44042032670554,49.06102543018721],[-120.46045593523371,49.04955646900806],[-120.45569495309054,49.04911089588284],[-120.43629960160017,49.041466297579504],[-120.43512805230601,49.033069852771426],[-120.40518735874542,49.01069322755824],[-120.40254729352773,49.000076883770134],[-120.84840827411041,49.00007714724329],[-120.84815332744348,49.008848673277996],[-120.84656506126527,49.011118030016746],[-120.83925888193538,49.00842264105677],[-120.82569932221516,49.02546256797019],[-120.83028039961306,49.03415167713235],[-120.83239094276541,49.04225335288283],[-120.83688048172938,49.04472199320801],[-120.85221459073269,49.04440081926928],[-120.86866781750645,49.052710189564515],[-120.87317719092242,49.05812990661969],[-120.88725691712403,49.06949328305782],[-120.89382610655782,49.077700280574675],[-120.9121561543551,49.07851288040373],[-120.92663327000149,49.08600101045282],[-120.94882956061727,49.089152494942915],[-120.95413845640614,49.09272943244439],[-120.96311148240692,49.094835658185715],[-120.9656371159872,49.0992879968025],[-120.9655111369915,49.103779290500526],[-120.94421536260131,49.104187214233185],[-120.93519314532449,49.108653764089375],[-120.92982563594612,49.1085477918878],[-120.91431931173997,49.11710559638529],[-120.89706492223371,49.11273646543162],[-120.86796075186673,49.12277132038133],[-120.85964226910276,49.13077321718088],[-120.85850314682753,49.13549170566762],[-120.86424656530356,49.13911308360296],[-120.86397478724915,49.14355257078318],[-120.86608753311815,49.145725076793354],[-120.87842877300903,49.15710451873253],[-120.90543305536562,49.17370736198875],[-120.90318383184503,49.17513873668084],[-120.88253487479223,49.17609107452922],[-120.88111430586696,49.177430958605925],[-120.89096675226577,49.18426171812819],[-120.89404010463107,49.18921452578826],[-120.89384092217733,49.19686835360402],[-120.89127773005437,49.20617474017309],[-120.89526576379804,49.21451493385323],[-120.87359959212918,49.20451293196451],[-120.86445241721403,49.205550977457655],[-120.85958645260642,49.20824299023997],[-120.85773385117041,49.21195883409844],[-120.84738436674384,49.21970600933288],[-120.84841940138075,49.23402135493305],[-120.8457813923946,49.24076239460181],[-120.82338514432628,49.24622255751143],[-120.81800162484393,49.25124288505545],[-120.81678834965638,49.25830473062505],[-120.82062641399656,49.26912101830163],[-120.81271768997439,49.2796295240605],[-120.81206601532648,49.28443158204675],[-120.8194543964684,49.29356805028304],[-120.82397134184977,49.29497116472648],[-120.85546348182865,49.295227658399924],[-120.86985963575661,49.303319350721225],[-120.90578885427223,49.305675298538155],[-120.91729487028731,49.30089308742452],[-120.93612029114905,49.27597720098874],[-120.9443531346273,49.27064323496652],[-120.95601327995455,49.27534036828012],[-120.98121364245311,49.27150448534977],[-120.99228543892882,49.272903782421835],[-120.99670703302361,49.275252671722114],[-120.99678869381032,49.27804424627876],[-121.00141735548361,49.27824238939895],[-121.0001635200799,49.310047906051565],[-120.99741668471486,49.31367492716979],[-121.00414331699989,49.31273551749938],[-121.01143577063691,49.306478730287104],[-121.02431892117497,49.30409599351421],[-121.03331324613166,49.31093527793228],[-121.03581986079062,49.31669404973759],[-121.04296356824395,49.32041020280885],[-121.04086858223211,49.3233888443062],[-121.04524265468756,49.33073445542186],[-121.04965382168064,49.332596172786836],[-121.06285406143154,49.33349142355087],[-121.07220464614433,49.32907365129084],[-121.07837476283567,49.32862070358806],[-121.09272361780103,49.339424569760645],[-121.09404887310343,49.34228162523188],[-121.10177332569593,49.34859631844185],[-121.08794459256494,49.348016042076125],[-121.0769212676953,49.34989556773182],[-121.07525148695794,49.353130485851246],[-121.0980439308036,49.35390947318036],[-121.0992668283464,49.441087741506514],[-121.09414590490097,49.44044013301904],[-121.09061498782388,49.442339264856365],[-121.08893349894439,49.451170965178214],[-121.08013211621166,49.45837641677305],[-121.08141599493518,49.46517144100935],[-121.06573188134227,49.46574270492588],[-121.05092872232214,49.47367355777999],[-121.0593418378455,49.47904638601105],[-121.06495566375926,49.48979923396467],[-121.07343908071094,49.49547796899632],[-121.07323495046644,49.50318990693757],[-121.08205783058554,49.515962961951026],[-121.07918868753958,49.51993821880836],[-121.0699716848556,49.52507529023978],[-121.05438219164101,49.52559011653045],[-121.04881368102475,49.52955548140943],[-121.04771034397176,49.5318721868335],[-121.05052464195653,49.5389293462271],[-121.04938698102639,49.54431072048674],[-121.04733874171488,49.546711931266834],[-121.0378707250964,49.548867408255006],[-121.0358928816967,49.55091843264238],[-121.03901366468415,49.55460593548496],[-121.03522850081626,49.567378178704004],[-121.04092895521129,49.56870828704297],[-121.04014622586442,49.57233987473623],[-121.04299396943873,49.576552178027086],[-121.03658316881604,49.58274805419447],[-121.03788250336378,49.5869119545525],[-121.01863764311936,49.59305948746438],[-121.00639372122507,49.59445650378805],[-121.00205632516099,49.597044975865714],[-120.99010799156423,49.59772162275556],[-120.99367303019677,49.60280975719654],[-120.9835775023975,49.61196421862908],[-120.9703554234957,49.60827216951614],[-120.96267565593178,49.61380456954548],[-120.9631931982503,49.6206370306328],[-120.97063844099122,49.62844237802855],[-120.96789396267215,49.63569947628926],[-120.95950302262398,49.64220913251716],[-120.96031599154725,49.64648977905369],[-120.9639390712079,49.6508358747021],[-120.95931049908437,49.659038236386124],[-120.96126592670083,49.662267869803756],[-120.95707377488122,49.6701945486249],[-120.9586849143441,49.67353418056885],[-120.96240912327514,49.67345937872725],[-120.9616216573456,49.69610267979331],[-120.95419675452646,49.711976441705936],[-120.95675200305627,49.72592555711128],[-120.9604603836811,49.73411551480485],[-120.95959002052487,49.74411715285633],[-120.94973743623004,49.75079770770913],[-120.94845229780327,49.76058055385705],[-120.92443694365886,49.76078236916269]],[[-120.50145372327425,49.45755960902037],[-120.50309080363068,49.45856418464818],[-120.50381213041133,49.45786656703476],[-120.50251303870735,49.45762160017909],[-120.50145372327425,49.45755960902037]],[[-120.50331680591209,49.484127422354895],[-120.50354861556589,49.47500364065192],[-120.50768550497895,49.47523665817258],[-120.518358126813,49.46952774489187],[-120.52805279028561,49.46929472127084],[-120.52787534916567,49.46717046700159],[-120.52050074479604,49.461937439266904],[-120.52193538700402,49.461373121281675],[-120.52846944776017,49.46569286248378],[-120.53000618465569,49.46918122662735],[-120.5359089116842,49.46923723181036],[-120.53627745742725,49.46273956195231],[-120.5418889834237,49.46273318550437],[-120.5419696061629,49.455416028043274],[-120.52599586402933,49.456098502294054],[-120.53543785084456,49.45247270710599],[-120.5321610479602,49.447870129724684],[-120.52634973803632,49.44908729404308],[-120.52997293698492,49.44339590911385],[-120.53700143842082,49.441155914375244],[-120.52953183888981,49.440767788845044],[-120.52559363837024,49.44592907118295],[-120.52257889958689,49.44627649198301],[-120.51794741387981,49.45009199626961],[-120.50915391878158,49.45226820289824],[-120.50396849282598,49.45860021456446],[-120.49831401705204,49.46114845802928],[-120.49594228353523,49.46006767372416],[-120.4959132900265,49.451291663968114],[-120.49848797725406,49.44910237570733],[-120.49183076904043,49.44916346840668],[-120.49149905296869,49.453405732257025],[-120.48054973963099,49.453793451699234],[-120.47710147933986,49.45567095649066],[-120.47694750810051,49.45723018626419],[-120.47305119393106,49.45701695607485],[-120.47308091847223,49.459771999662586],[-120.47861687955398,49.46207243712238],[-120.48117700874494,49.461398954884565],[-120.47875191632463,49.46276052860188],[-120.48240476916257,49.465360197489716],[-120.48084248581864,49.466686598473125],[-120.48248049594139,49.46929239455886],[-120.48640960385579,49.469314802419554],[-120.4861605362739,49.4731199855063],[-120.48449520165794,49.47318200614607],[-120.48446643436336,49.47808902161405],[-120.48668721586405,49.48381442049402],[-120.50331680591209,49.484127422354895]],[[-120.54148378711746,49.38049295073351],[-120.54891004997562,49.377506987754145],[-120.54862600234178,49.37575025632997],[-120.5524635700554,49.37593404657928],[-120.55360219177274,49.3712313217246],[-120.54961070498902,49.37060548920084],[-120.54887010834126,49.366799295403524],[-120.55191162229148,49.35998457195942],[-120.55525464299934,49.359191382628936],[-120.55007938474195,49.35340611937464],[-120.56132306854563,49.35217347153572],[-120.56162007488771,49.34516916597779],[-120.56365268447004,49.34184990656172],[-120.56583987336239,49.34207227598122],[-120.5681702467837,49.3364045633416],[-120.56249725667726,49.33515153320746],[-120.56488152018512,49.33322774652521],[-120.5626361035606,49.32789117933938],[-120.54823906613782,49.329552056418265],[-120.5417597997336,49.32155421391107],[-120.54506349957222,49.321579899404504],[-120.54377565970078,49.31451064222378],[-120.55048325779896,49.30792105785418],[-120.5535788677112,49.307933381337264],[-120.55348828222408,49.3041904734954],[-120.54641438762168,49.30336000737752],[-120.54403257866561,49.28845135188948],[-120.54164101385537,49.28821880193291],[-120.53933863303064,49.28551636430148],[-120.53450588875569,49.28552870778874],[-120.53511194223634,49.28157566480532],[-120.5304448473489,49.27731044777918],[-120.5264707262978,49.27711902072482],[-120.52142212875034,49.27983842649586],[-120.50420657365687,49.27782933661576],[-120.50380605976672,49.285476520949025],[-120.49997194206958,49.28629286314234],[-120.50105581148706,49.29676939014323],[-120.50470827541362,49.2969343028003],[-120.50231747067154,49.30653051296311],[-120.50374337670864,49.32087512622384],[-120.5019707119364,49.32077030723455],[-120.50209598341743,49.319105545759015],[-120.49890810299787,49.31922620198972],[-120.49851093473232,49.32082908403246],[-120.4938601109379,49.32126387498903],[-120.49453034205821,49.328439166823514],[-120.50163446484767,49.32826392536588],[-120.50230303735873,49.335588063709416],[-120.50045346802108,49.33476855594056],[-120.49887711861876,49.33615290360271],[-120.48985458868721,49.33220546122339],[-120.482537856714,49.33163421063514],[-120.4824721109313,49.33475731819391],[-120.48520297427218,49.33478183292716],[-120.48529833216531,49.33674616574176],[-120.4895346483196,49.3388070077798],[-120.49527519365856,49.34519483126715],[-120.49140937765462,49.34965053792735],[-120.484072661306,49.35349308724099],[-120.47915348238729,49.3529784287634],[-120.47818467960681,49.35687783186637],[-120.48509676178102,49.35748280033113],[-120.48897207377863,49.36290933248494],[-120.4656025401638,49.35976690876853],[-120.46330628375121,49.373786882892276],[-120.49460348764589,49.37740560598193],[-120.49478272513076,49.38192387010486],[-120.49755902315286,49.38437314119814],[-120.4968946073919,49.38700916643271],[-120.52432046004567,49.390577123449795],[-120.52665319310039,49.38202210238101],[-120.53064957186905,49.382643678169224],[-120.53169056307556,49.38033617325755],[-120.53840194249737,49.38139178807262],[-120.53732481311222,49.38368151924514],[-120.54697181570538,49.385180489742474],[-120.54148378711746,49.38049295073351]]]},"bbox":[-121.10177332569593,49.000076883770134,-119.9670072969884,49.91201160895471]},{"id":"5907801","type":"Feature","properties":{},"geometry":{"type":"Polygon","coordinates":[[[-119.7392919684513,49.14251217349618],[-119.73866280698192,49.135021439792446],[-119.71704267556446,49.135401066617895],[-119.71702229788497,49.113262927258496],[-119.71466150006069,49.11328014685198],[-119.71462084733524,49.096958597055135],[-119.74769853841502,49.096959481695585],[-119.74768437013778,49.10213000907823],[-119.760616770302,49.10224998345918],[-119.76058059065983,49.13551901752429],[-119.75479284192102,49.13516299257459],[-119.75569817749042,49.136821912396634],[-119.75358441590488,49.13668772995841],[-119.75599791499668,49.138527668096394],[-119.75605951622437,49.14216980572851],[-119.7392919684513,49.14251217349618]]]},"bbox":[-119.760616770302,49.096958597055135,-119.71462084733524,49.14251217349618]},{"id":"5907802","type":"Feature","properties":{},"geometry":{"type":"Polygon","coordinates":[[[-119.44882185277213,49.240748357092784],[-119.44911459215125,49.06667308058788],[-119.42186421634469,49.0665977522488],[-119.42151607052442,49.036361247956535],[-119.44506231829598,49.036787383247884],[-119.44376191645308,49.04257017014617],[-119.44769120695717,49.04676876399734],[-119.4558423212517,49.05109405030273],[-119.46159321974174,49.05084485366921],[-119.46139484478638,49.05349526744125],[-119.4639541250497,49.05459197240099],[-119.46616521395772,49.05389696711553],[-119.4625667298135,49.05311926046602],[-119.46656621957507,49.05288006133515],[-119.46597723887977,49.05839885758472],[-119.46921973849474,49.060587857989084],[-119.47506291556283,49.061371158117],[-119.47652071277821,49.06617076530249],[-119.47861732365881,49.06785275482777],[-119.48459184549444,49.0690391625607],[-119.49511364031245,49.06752515514771],[-119.49701951569408,49.068113365991024],[-119.49340983109764,49.06823585376427],[-119.4936595490971,49.071028765618586],[-119.50815410428382,49.07087636178587],[-119.50958820368936,49.076261258184076],[-119.51582711558483,49.080418718293586],[-119.51536539607554,49.09470357286427],[-119.52617070342409,49.094349358059816],[-119.526467955661,49.10947149157334],[-119.53737904967588,49.10989823088847],[-119.53744850203397,49.12487333401614],[-119.54869291817188,49.12497986860029],[-119.5486942561467,49.13158476004815],[-119.56001729360071,49.13177272033308],[-119.55941689891081,49.153699524431566],[-119.53655219618418,49.15397319530463],[-119.53733385659997,49.19020139530094],[-119.53500296612921,49.190114653146125],[-119.53734852101594,49.19069662766792],[-119.53734120627901,49.193513500114385],[-119.53496522623848,49.1947597557842],[-119.53728433232683,49.197557008623455],[-119.53730187972019,49.24085739578938],[-119.44882185277213,49.240748357092784]]]},"bbox":[-119.56001729360071,49.036361247956535,-119.42151607052442,49.24085739578938]},{"id":"5907803","type":"Feature","properties":{},"geometry":{"type":"MultiPolygon","coordinates":[[[[-119.5923646407853,49.47241502953358],[-119.59562981137002,49.47211488807395],[-119.59648269154418,49.47531292227031],[-119.59420772586826,49.47499874295005],[-119.5923646407853,49.47241502953358]]],[[[-119.74859502391807,49.59409088756154],[-119.7490654515177,49.58575919748271],[-119.73497725905494,49.58555144019195],[-119.73276750674658,49.58259476688206],[-119.72794492599506,49.58269016955981],[-119.72298594438956,49.580620860700414],[-119.72105360633441,49.57425175860414],[-119.7171277111389,49.57278907203033],[-119.7162799246061,49.568507970625994],[-119.71391043676174,49.56666496076694],[-119.7129368182604,49.56082285804283],[-119.71402863070438,49.556839347628056],[-119.71105581514597,49.55010717372289],[-119.70305492320239,49.54794664825114],[-119.69287083474018,49.54880534559688],[-119.6924896199421,49.55444527290523],[-119.68792180794946,49.55611726556601],[-119.68662272569519,49.559404366614615],[-119.68287621626338,49.561460956373686],[-119.67747704561626,49.559850167083944],[-119.6782317998589,49.558743556458744],[-119.67531740687245,49.55675966256438],[-119.67472470703485,49.55909536119656],[-119.6641482765085,49.56174714455319],[-119.66461775735088,49.55126588374062],[-119.64771534815434,49.556791225770645],[-119.64845756556173,49.55395405364922],[-119.64703295641516,49.552110272314124],[-119.64043583234745,49.54992800946557],[-119.63059346199975,49.53975868827339],[-119.6265900036243,49.53681967816911],[-119.62470286916695,49.53740721432312],[-119.6182212434834,49.53098856713678],[-119.61740024542298,49.52622420963269],[-119.62106938615233,49.52601584537157],[-119.62246508562917,49.522773937352845],[-119.62874233692878,49.521369166429594],[-119.62874114454428,49.51935811358093],[-119.62594433315155,49.51661474226267],[-119.62607130152391,49.51373940205439],[-119.63140012331071,49.513797777481535],[-119.63142509578881,49.50838668039942],[-119.63292931396603,49.50842157057903],[-119.63051459055299,49.50353278670574],[-119.63076883139607,49.49997150221346],[-119.63254872800438,49.50001910745772],[-119.63251368594362,49.49873549243088],[-119.63085001353714,49.49877019855889],[-119.63081660654092,49.490289704382405],[-119.62030625032693,49.490301690865586],[-119.62021496210153,49.50853175857693],[-119.61648478949186,49.50864445708977],[-119.6127098607653,49.5028105273279],[-119.61677443905889,49.496663655704815],[-119.61615200400672,49.49195526094936],[-119.59889464554611,49.48035216695365],[-119.59469444437993,49.466476160216224],[-119.59627155403558,49.45863834029948],[-119.60020857906278,49.45781109141419],[-119.59881437182051,49.47521831219153],[-119.60488126680498,49.47529505973538],[-119.60438039262645,49.47083759309458],[-119.60816108844651,49.45461890195467],[-119.60683957280557,49.45494889650971],[-119.60500189298759,49.451979524441384],[-119.60066248262656,49.45260234720389],[-119.60022007852298,49.45709780463443],[-119.59406549875337,49.45821722655171],[-119.59521153764749,49.45614496649815],[-119.59178070489695,49.45518785892395],[-119.59434953573813,49.45390606027445],[-119.59407929213823,49.45245344713403],[-119.60779113263288,49.4507970642063],[-119.608777238161,49.447833269695145],[-119.61301976078236,49.444711009043644],[-119.61466896250539,49.43967991423736],[-119.61285313099623,49.433866337882904],[-119.6098719235203,49.43162683742329],[-119.60589545543235,49.423161893166494],[-119.60552165708968,49.38097864544576],[-119.6797914016897,49.38072790884266],[-119.67974685728399,49.3663351696282],[-119.69081668049199,49.36518428158403],[-119.69096172342071,49.36096020104405],[-119.6991522626665,49.360737910775896],[-119.6987034787528,49.395108844026936],[-119.72071472775318,49.39524691811734],[-119.72023955473264,49.431490004298425],[-119.73952359843534,49.431750580271796],[-119.73883859344214,49.47894938492441],[-119.74993692372594,49.47896045294779],[-119.74897643142725,49.50060235168246],[-119.7678533158553,49.50076995529934],[-119.76685171800123,49.51478870705603],[-119.77731728230177,49.51491202117325],[-119.77604940159391,49.5658347685378],[-119.75371723585077,49.56595992723639],[-119.75322851522105,49.58358153700322],[-119.75923114128896,49.58379477722024],[-119.75797089893024,49.59488961045779],[-119.76350696756982,49.59517568269846],[-119.76344708568628,49.59850636443492],[-119.74866455426034,49.598241224519015],[-119.74859502391807,49.59409088756154]],[[-119.64860125950553,49.517108650519944],[-119.64861575451788,49.50131314986056],[-119.63401508561685,49.50078189058735],[-119.63403211237478,49.50808362269004],[-119.63655688439471,49.508079140665565],[-119.63693018069388,49.51744466650745],[-119.64860125950553,49.517108650519944]]]]},"bbox":[-119.77731728230177,49.360737910775896,-119.59178070489695,49.59850636443492]},{"id":"5907805","type":"Feature","properties":{},"geometry":{"type":"Polygon","coordinates":[[[-119.7117719307254,49.07761425871185],[-119.71617432862912,49.07398395255751],[-119.71623232955854,49.07053736209469],[-119.71417761667904,49.06876707428361],[-119.70803114159925,49.06777866645051],[-119.70776521824583,49.066137959209016],[-119.71015132964443,49.06194365117748],[-119.71855940812739,49.055943457297445],[-119.71476924325354,49.049967563739926],[-119.70822053999709,49.048349659018974],[-119.71159922838751,49.04102777403614],[-119.70743023608904,49.03683484543419],[-119.71066291547353,49.03360057478252],[-119.71127174565424,49.03070656107068],[-119.70649054106767,49.02883935202565],[-119.6991241229846,49.030488671409735],[-119.70073952164454,49.02421497287875],[-119.69766513375652,49.01846685536574],[-119.70033053881453,49.016128353531215],[-119.70816832639814,49.01464855122973],[-119.70574052579472,49.010971263023166],[-119.70108320547646,49.00804875793413],[-119.70291533875674,49.004767352512616],[-119.70300448244781,49.000049940602004],[-119.73687969118629,49.00008374946362],[-119.73495187546713,49.05910317676649],[-119.73214262413646,49.05901187552454],[-119.72975434645254,49.0805930274007],[-119.71033333105852,49.07938457321913],[-119.7117719307254,49.07761425871185]]]},"bbox":[-119.73687969118629,49.000049940602004,-119.69766513375652,49.0805930274007]},{"id":"5907806","type":"Feature","properties":{},"geometry":{"type":"Polygon","coordinates":[[[-119.73571495862005,49.19119592196157],[-119.72645913390201,49.19289802732819],[-119.72638006106224,49.17475556507765],[-119.73770388871594,49.17499562772544],[-119.7376201761604,49.19090620524208],[-119.73571495862005,49.19119592196157]]]},"bbox":[-119.73770388871594,49.17475556507765,-119.72638006106224,49.19289802732819]},{"id":"5907807","type":"Feature","properties":{},"geometry":{"type":"Polygon","coordinates":[[[-120.077985928117,49.38009556143152],[-120.07794435535871,49.35953187508778],[-120.07841754393199,49.35691749232143],[-120.08075554201496,49.355638786672024],[-120.0785397828406,49.35478316785944],[-120.08059252954077,49.35134446032153],[-120.0789264783324,49.346067697998095],[-120.0671267450174,49.343085639300824],[-120.06684206737445,49.34821200275263],[-120.03942879717269,49.347891762577795],[-120.04108664597766,49.32258764951844],[-120.02997724250841,49.322385189178675],[-120.03061240539657,49.30922310435529],[-120.02906265825365,49.305354504203855],[-120.03283736995101,49.30609430817746],[-120.0316460786337,49.30268060645762],[-120.04497942681394,49.30246035162728],[-120.04549286928312,49.31786859117238],[-120.05936740752745,49.317887857137954],[-120.0596867264128,49.32659165920801],[-120.07060381043496,49.327230357789084],[-120.07046420712611,49.33592830681037],[-120.08083781339387,49.33645238587625],[-120.08150193770997,49.3433941153108],[-120.08987071416053,49.34333097324022],[-120.09023096764425,49.348592042120075],[-120.11131695487964,49.35039622456444],[-120.11167623155639,49.35831074784242],[-120.10026680138157,49.35977851443861],[-120.10056742373038,49.36666040210368],[-120.12270608047699,49.36629705715838],[-120.12247731479279,49.38960810560183],[-120.07800491693642,49.38948951897244],[-120.077985928117,49.38009556143152]]]},"bbox":[-120.12270608047699,49.30246035162728,-120.02906265825365,49.38960810560183]},{"id":"5907808","type":"Feature","properties":{},"geometry":{"type":"Polygon","coordinates":[[[-119.90724106387088,49.21391294160219],[-119.9161227322457,49.211425855727335],[-119.92298964496291,49.21306936309025],[-119.93182892559555,49.21876595359958],[-119.93203298718531,49.223020487055145],[-119.90736963444596,49.22300179014444],[-119.90724106387088,49.21391294160219]]]},"bbox":[-119.93203298718531,49.211425855727335,-119.90724106387088,49.223020487055145]},{"id":"5907809","type":"Feature","properties":{},"geometry":{"type":"Polygon","coordinates":[[[-120.03453413663897,49.27654925043917],[-120.03527772015035,49.27399425482125],[-120.0311064279644,49.27019876394478],[-120.03005681486628,49.26663535488079],[-120.01716032871074,49.25865545796841],[-120.01917552414852,49.25169115300922],[-120.01800681034265,49.24986955705908],[-120.00586761241327,49.24629906437356],[-120.00161908148434,49.23833770304938],[-119.98275493160698,49.23218944859832],[-119.9750729273386,49.225962774433214],[-119.96794434247582,49.22692126573932],[-119.96352430994979,49.22536036645045],[-119.95533244065174,49.218121056333445],[-119.95242242055681,49.21723376637313],[-119.9435873184623,49.21948265347978],[-119.93504970515517,49.21934015848771],[-119.9233926209388,49.21265496071855],[-119.91437396361806,49.21099433129528],[-119.91429359978817,49.208985714145385],[-119.92853443530595,49.20865153245737],[-119.9286469749593,49.21143324020915],[-119.9786611374701,49.21187348716837],[-119.97894182371174,49.199163395489634],[-120.02271291458257,49.19937552822865],[-120.02224431908967,49.24455776363955],[-120.08908995330958,49.244911406790955],[-120.08935115071105,49.273136126575785],[-120.04380874777118,49.27355338952374],[-120.044006474079,49.30246362131663],[-120.0316460786337,49.30268060645762],[-120.03446633203158,49.295089658446834],[-120.03359783051553,49.28871627212024],[-120.03663302888245,49.28352077279599],[-120.03480111878248,49.28173766446221],[-120.03453413663897,49.27654925043917]]]},"bbox":[-120.08935115071105,49.199163395489634,-119.91429359978817,49.30268060645762]},{"id":"5907850","type":"Feature","properties":{},"geometry":{"type":"Polygon","coordinates":[[[-120.2267232226658,49.40150115434956],[-120.22650092226199,49.400428330115226],[-120.23159599308767,49.401437126724815],[-120.23167217132072,49.406153842319775],[-120.22664873582828,49.405994203740484],[-120.2267232226658,49.40150115434956]]]},"bbox":[-120.23167217132072,49.400428330115226,-120.22650092226199,49.406153842319775]}],"bbox":[-121.10177332569593,49.00004765733321,-119.17503756005394,49.91201160895471]}