{"type":"FeatureCollection","features":[{"id":"5915001","type":"Feature","properties":{},"geometry":{"type":"Polygon","coordinates":[[[-122.65965218419402,49.197633763246586],[-122.62836919142366,49.208876513358476],[-122.60822928328298,49.210246595533235],[-122.60154920556401,49.208530390432124],[-122.59178190393192,49.20184519605318],[-122.58471990907583,49.191284084401225],[-122.5773172069725,49.185256008062574],[-122.5532099132341,49.17787710887948],[-122.53845729804331,49.17014649268662],[-122.5252317992922,49.16758290691661],[-122.51345111570852,49.16722689846786],[-122.46147846408985,49.171327064088985],[-122.45915453465066,49.00225644718205],[-122.47336119280209,49.00230220437414],[-122.47336345908536,49.00822103831575],[-122.47905694752698,49.008168750852455],[-122.4794373529603,49.002297856929744],[-122.68162863567628,49.00220808839895],[-122.67986211014329,49.005850050079815],[-122.68166437809377,49.01053941963793],[-122.67965808558075,49.01660839853283],[-122.68081296087804,49.039317602370254],[-122.68002580580567,49.08388030548621],[-122.66902019178933,49.083843803777185],[-122.66912297127239,49.08215586570648],[-122.64713663845401,49.082007313818956],[-122.64705032751657,49.084008571213346],[-122.64115095136448,49.08430669971948],[-122.64124141795624,49.08953880608626],[-122.63750798739251,49.08951425447392],[-122.63775463592586,49.09396543166163],[-122.64056594172196,49.093950125265266],[-122.64062687639735,49.09531305710557],[-122.6386063139387,49.09557752008024],[-122.63877068257149,49.104553704767156],[-122.64272971046603,49.10459539870166],[-122.6377339150039,49.10826744390413],[-122.64502061326804,49.11252307198132],[-122.64414235730366,49.11317221006196],[-122.64715955018646,49.11492635951636],[-122.6716814752172,49.115394475064726],[-122.67467191786866,49.114867132019434],[-122.67442464725224,49.11152682027642],[-122.67974097721297,49.11407516780548],[-122.6780355208365,49.16680242183622],[-122.67944069272494,49.17627720934693],[-122.67883718396413,49.18754986887408],[-122.66893739389442,49.19270981587197],[-122.66792100511502,49.19622640633177],[-122.65965218419402,49.197633763246586]],[[-122.65377643284184,49.196393364080706],[-122.65832075744149,49.194431944982846],[-122.65478543583659,49.19105186674752],[-122.64829732445857,49.193326224959215],[-122.65024660946034,49.198112754200004],[-122.65377643284184,49.196393364080706]],[[-122.57362674393431,49.17441925881204],[-122.57554041432091,49.172411896193395],[-122.54845863569092,49.168917471991364],[-122.55411552821695,49.17603717161619],[-122.57998502091414,49.18327637018443],[-122.57922014846189,49.177993961629106],[-122.57362674393431,49.17441925881204]]]},"bbox":[-122.68166437809377,49.00220808839895,-122.45915453465066,49.210246595533235]},{"id":"5915002","type":"Feature","properties":{},"geometry":{"type":"Polygon","coordinates":[[[-122.67524648793315,49.11190358117115],[-122.67467191786866,49.114867132019434],[-122.6716814752172,49.115394475064726],[-122.64715955018646,49.11492635951636],[-122.64414235730366,49.11317221006196],[-122.64502061326804,49.11252307198132],[-122.6377339150039,49.10826744390413],[-122.64272971046603,49.10459539870166],[-122.63877068257149,49.104553704767156],[-122.6386063139387,49.09557752008024],[-122.64062687639735,49.09531305710557],[-122.64056594172196,49.093950125265266],[-122.63775463592586,49.09396543166163],[-122.63750798739251,49.08951425447392],[-122.64124141795624,49.08953880608626],[-122.64115095136448,49.08430669971948],[-122.64705032751657,49.084008571213346],[-122.64713663845401,49.082007313818956],[-122.66912297127239,49.08215586570648],[-122.66902019178933,49.083843803777185],[-122.68002580580567,49.08388030548621],[-122.67992248751273,49.11370900920573],[-122.67524648793315,49.11190358117115]]]},"bbox":[-122.68002580580567,49.082007313818956,-122.63750798739251,49.115394475064726]},{"id":"5915004","type":"Feature","properties":{},"geometry":{"type":"MultiPolygon","coordinates":[[[[-122.88923952673872,49.08831155617298],[-122.89017937279262,49.08787465283442],[-122.89021565111663,49.0892086350709],[-122.8894297216479,49.08888837014185],[-122.88923952673872,49.08831155617298]]],[[[-122.68238877933908,49.186176270909925],[-122.67883718396413,49.18754986887408],[-122.67944069272494,49.17627720934693],[-122.6780355208365,49.16680242183622],[-122.68012618246239,49.108779409687344],[-122.67924851754809,49.08767840814238],[-122.68081296087804,49.039317602370254],[-122.67965808558075,49.01660839853283],[-122.68166437809377,49.01053941963793],[-122.67986211014329,49.005850050079815],[-122.68162863567628,49.00220808839895],[-122.75790735642211,49.00221678713906],[-122.77096223247202,49.01027195895725],[-122.7887608740531,49.015801904067885],[-122.77254423714443,49.011376486641275],[-122.7577561322476,49.005446976127004],[-122.75772828080878,49.01238076732932],[-122.75916326995517,49.015076608902625],[-122.76257130094554,49.01658280752839],[-122.77926811458279,49.01656259071971],[-122.77917710364501,49.03106558613095],[-122.84541310819534,49.031227803837155],[-122.84552715110097,49.024519755948184],[-122.8667295233185,49.02441156583603],[-122.87421493984496,49.028557356823036],[-122.88412565572409,49.042906262222836],[-122.88385372628125,49.04828555608849],[-122.88788483061597,49.05684507819655],[-122.87671674105434,49.0626985494463],[-122.87824174967997,49.05970487164337],[-122.8754001587255,49.05810976519921],[-122.87927574025186,49.056628557193015],[-122.87237824451589,49.05672116467714],[-122.86703372729608,49.05925057233743],[-122.86654913655597,49.061157567911614],[-122.86076672267504,49.062994765686994],[-122.8586306254847,49.072707855667794],[-122.8610935308292,49.078269453826756],[-122.85425799571966,49.07936747248219],[-122.84951054981899,49.08269865918542],[-122.8623682219951,49.087824459852634],[-122.86419403846276,49.086737765935915],[-122.86710294791922,49.089674456524115],[-122.89039278578535,49.091448513617784],[-122.88920514185503,49.09308465723607],[-122.89039117635696,49.10340809162887],[-122.89011005906012,49.177143054326336],[-122.92332576791016,49.177210258181155],[-122.91182722038171,49.194479204858254],[-122.89427200955772,49.20810740696059],[-122.88550404227811,49.21766104638452],[-122.88133401464752,49.219758763036516],[-122.86679659649951,49.22110726493786],[-122.80170035489772,49.21966027088225],[-122.79535588480424,49.21663320250151],[-122.77020558163889,49.2133812150739],[-122.75139305347297,49.21577173783272],[-122.7443790054715,49.214701211641625],[-122.73066970983362,49.21109798981609],[-122.72667119216857,49.20280360029304],[-122.7241899060583,49.19053550244278],[-122.71958339619326,49.186280001516465],[-122.70610099639664,49.18320509558454],[-122.68238877933908,49.186176270909925]]]]},"bbox":[-122.92332576791016,49.00220808839895,-122.6780355208365,49.22110726493786]},{"id":"5915007","type":"Feature","properties":{},"geometry":{"type":"Polygon","coordinates":[[[-122.77922948435311,49.020209788151895],[-122.77926811458279,49.01656259071971],[-122.7887608740531,49.015801904067885],[-122.82064403958427,49.024690665655434],[-122.84552715110097,49.024519755948184],[-122.84541310819534,49.031227803837155],[-122.77917710364501,49.03106558613095],[-122.77922948435311,49.020209788151895]]]},"bbox":[-122.84552715110097,49.015801904067885,-122.77917710364501,49.031227803837155]},{"id":"5915011","type":"Feature","properties":{},"geometry":{"type":"MultiPolygon","coordinates":[[[[-123.08505133316798,49.09516196931781],[-123.08643263821821,49.0941892733244],[-123.0866237266665,49.09417075306122],[-123.0841613453794,49.09576437207799],[-123.08505133316798,49.09516196931781]]],[[[-123.12681561532736,49.00322495748351],[-123.12438242000708,49.00369495984172],[-123.12393042178114,49.003669371163404],[-123.12814031953233,49.002602554350865],[-123.12681561532736,49.00322495748351]]],[[[-123.14293777057246,49.10642443458207],[-123.14279054513854,49.10626867469543],[-123.1479458195979,49.106612564101574],[-123.14778052318832,49.106737965314935],[-123.14293777057246,49.10642443458207]]],[[[-122.89017937279262,49.08787465283442],[-122.8931447246323,49.087083869788025],[-122.89541684783715,49.08785865396988],[-122.89038723438685,49.08922155432042],[-122.89017937279262,49.08787465283442]]],[[[-123.08512563358666,49.09838207415981],[-123.08238294422931,49.0965576743672],[-123.09252512515573,49.09263685282269],[-123.09460352717997,49.09048485345856],[-123.09429602718012,49.09402116524492],[-123.0912966325986,49.09432026936516],[-123.08512563358666,49.09838207415981]]],[[[-123.10489322653464,49.02356698973593],[-123.10391827112007,49.02326214888912],[-123.11831074375328,49.01444205542939],[-123.12627931607723,49.007516164206066],[-123.1326846543774,49.00453096919238],[-123.13102052124837,49.00597225657954],[-123.13297855993369,49.007265468830575],[-123.12303663804224,49.01192685506524],[-123.10215787316132,49.02660852346073],[-123.10593325436405,49.02351522175535],[-123.10489322653464,49.02356698973593]]],[[[-123.12235621953748,49.05017615112696],[-123.15225423278274,49.02818427150685],[-123.15666955407293,49.02276226110546],[-123.1526806243314,49.020050573835874],[-123.15163013943624,49.02080824797813],[-123.15822805036146,49.013692969170656],[-123.17201453703979,49.017982654016535],[-123.16671691687726,49.02474475992587],[-123.15865845806437,49.0244058632875],[-123.1431158334956,49.03752427547529],[-123.12380998816846,49.05103814661557],[-123.12235621953748,49.05017615112696]]],[[[-123.1862379409268,49.109731659019275],[-123.17309403624941,49.10842985425618],[-123.16335104725385,49.10416295548726],[-123.16992244975437,49.10263336837004],[-123.17004094128559,49.101355855094376],[-123.16109904507955,49.10242116786542],[-123.14823101798284,49.096717167465094],[-123.14934994597782,49.09555506388713],[-123.1452161488358,49.09600085999893],[-123.13017684039637,49.08648425243099],[-123.1301087358289,49.08100535452944],[-123.13744642420093,49.07516745680437],[-123.14466794674155,49.07282896324914],[-123.15541633361424,49.07266225308827],[-123.16348823174214,49.07517886429009],[-123.16503123372212,49.07756015959071],[-123.16971343468674,49.0776342576091],[-123.17080405548846,49.08020636902276],[-123.1792542428485,49.084097262235794],[-123.18038882226672,49.09475175825351],[-123.18514441965026,49.09569175837348],[-123.18837064329622,49.10130887139104],[-123.18332584139095,49.10373717082852],[-123.18685384414638,49.10573676359518],[-123.1862379409268,49.109731659019275]]],[[[-122.91286022781287,49.19331291012622],[-122.92332576791016,49.177210258181155],[-122.89011005906012,49.177143054326336],[-122.89039117635696,49.10340809162887],[-122.88920514185503,49.09308465723607],[-122.89039278578535,49.091448513617784],[-122.8988789380284,49.08888837222725],[-122.90257355141644,49.08414996428666],[-122.90864033788374,49.084631360664986],[-122.92472492875363,49.07921086536053],[-122.95928082311966,49.070843564071204],[-123.0117853242268,49.06248487175881],[-123.01852044744868,49.05987576935615],[-123.01977742644327,49.05665416437279],[-123.02062773443905,49.05836326771775],[-123.02339204522322,49.05875915126938],[-123.02309062260025,49.05655445950675],[-123.02482964237197,49.0567609681734],[-123.02637524725897,49.05423306964114],[-123.02887893989606,49.05506905689405],[-123.03098662900096,49.05391685933281],[-123.03079483948208,49.052207748429915],[-123.03506235132826,49.049184262765095],[-123.03420182759972,49.05145155825228],[-123.03942652149624,49.04906595557689],[-123.03942575523433,49.04673596580741],[-123.04593994301149,49.04723735699261],[-123.04559595874235,49.04541146737733],[-123.05057191415825,49.04055205740397],[-123.056538346764,49.02777545162896],[-123.04025172706434,49.0185252700338],[-123.0355125215168,49.009451664162626],[-123.03526569170508,49.00206799567311],[-123.09086303899093,49.00193432850193],[-123.09676273587058,49.017835974418794],[-123.09321575245943,49.01814794409296],[-123.0991583027739,49.02178050866864],[-123.10049684188608,49.02464066115058],[-123.09082881953881,49.02472319180783],[-123.09095919436963,49.03211024387255],[-123.07970191142121,49.03751639233748],[-123.07970240328736,49.0538814003304],[-123.09949616528296,49.052884053931216],[-123.09963587567294,49.05604783447339],[-123.12473317297092,49.05662317084354],[-123.12482032811675,49.05455710591304],[-123.13059711761983,49.05373928327051],[-123.15800725482913,49.064725171290576],[-123.15793145389793,49.06678456329619],[-123.15533394178658,49.06810196449831],[-123.13525883071091,49.07178786739055],[-123.12852374332533,49.07690506645332],[-123.12182092242176,49.08594446348428],[-123.10501723815608,49.086293448044835],[-123.09430043556898,49.08955917416469],[-123.08235293946518,49.095811352053765],[-123.08030372538951,49.098574356321315],[-123.08143074301786,49.101586552807454],[-123.08022695423251,49.10206505803997],[-123.08151433929645,49.10227016853694],[-123.08013213507881,49.10270315460946],[-123.07918135129862,49.10848825971871],[-123.08007443777535,49.110160361916776],[-123.08252802480217,49.10964615758279],[-123.08422974012473,49.111164373542564],[-123.07736893492118,49.113877457967455],[-123.0669686523442,49.1141082673707],[-123.06734733301842,49.11053775188678],[-123.07213694005678,49.10664825766623],[-123.07240681392814,49.10452475773443],[-123.07193024734966,49.10626225170729],[-123.06788063416796,49.10953796778428],[-123.06578883723867,49.113173964339616],[-123.06716064751338,49.11472066196052],[-123.06192615254919,49.114821756115504],[-123.06303714688987,49.115334449049314],[-123.05257884998767,49.126565772488256],[-123.05544325035947,49.12642905627278],[-123.06744925645224,49.11537716383203],[-123.08024974183226,49.11638556373533],[-123.05944613798549,49.12678797454047],[-123.04916843527133,49.12916785064475],[-123.0371970211061,49.142206456919055],[-123.01944445477572,49.147589967307695],[-123.0131224449064,49.147698158112135],[-123.0133025544681,49.14972196286286],[-123.0107506259161,49.149119573360814],[-123.01245053260139,49.148885952376475],[-123.01201104980498,49.14744616560858],[-123.00152314955413,49.14779786641068],[-122.99999991372863,49.14921075896381],[-122.99999992359423,49.15341979629745],[-122.98864081828532,49.15573780116292],[-122.98739759197315,49.159118911118185],[-122.983131485337,49.16320440523414],[-122.96612240530688,49.16775668989421],[-122.95763860700659,49.17484360060403],[-122.93815961523337,49.18160140570729],[-122.91997239968458,49.19468872452654],[-122.91219619892107,49.194062608440596],[-122.91286022781287,49.19331291012622]],[[-123.13055820578336,49.063972311728044],[-123.11958423957938,49.063646562236066],[-123.11939999809762,49.06956662740503],[-123.13047119022875,49.06998417979361],[-123.13055820578336,49.063972311728044]]]]},"bbox":[-123.18837064329622,49.00193432850193,-122.88920514185503,49.19468872452654]},{"id":"5915015","type":"Feature","properties":{},"geometry":{"type":"MultiPolygon","coordinates":[[[[-123.1004954484504,49.098090168648184],[-123.10086443141465,49.09826956461033],[-123.0983074432406,49.10025207283329],[-123.09856532796172,49.09937906446753],[-123.1004954484504,49.098090168648184]]],[[[-123.18312954450712,49.177058270118856],[-123.18499442237241,49.17679477077779],[-123.18518814940755,49.17718075602267],[-123.18411943890015,49.1776065578368],[-123.18312954450712,49.177058270118856]]],[[[-123.26593771761775,49.254824360476604],[-123.26770865257727,49.25424476654809],[-123.26581733949367,49.25781947532473],[-123.26355394688069,49.25899118677978],[-123.26589744884066,49.25720847141939],[-123.26593771761775,49.254824360476604]]],[[[-123.13424063146124,49.105523074914295],[-123.13785842420005,49.10550025325766],[-123.14293777057246,49.10642443458207],[-123.13391395530316,49.105990262198894],[-123.13424063146124,49.105523074914295]]],[[[-123.14100595315894,49.201054761722425],[-123.14461962370595,49.201967671636766],[-123.14879881599614,49.204273465164675],[-123.14765891708518,49.2042578620839],[-123.14100595315894,49.201054761722425]]],[[[-123.09774214033732,49.0913735501936],[-123.09882013216372,49.089285660834776],[-123.10239264049238,49.08864336788553],[-123.10013732338899,49.09058885604531],[-123.09774214033732,49.0913735501936]]],[[[-123.11132573741847,49.10191275125109],[-123.11807823833816,49.100934265180086],[-123.12266884609761,49.10164925848575],[-123.11243583014914,49.10241546858085],[-123.11132573741847,49.10191275125109]]],[[[-123.11818594928351,49.10041306831807],[-123.12431774729903,49.0982567677666],[-123.1228021389326,49.100173760041656],[-123.1260908407228,49.10110665659659],[-123.11818594928351,49.10041306831807]]],[[[-123.1859159480695,49.17710817240695],[-123.18919414873871,49.17691446193706],[-123.19257225082822,49.177996872440055],[-123.19106605343379,49.17880006743935],[-123.19000131534655,49.180276956848026],[-123.18539875412864,49.17844976551662],[-123.1859159480695,49.17710817240695]]],[[[-123.10553463776854,49.09124117376221],[-123.10408052091906,49.09019857099055],[-123.10516044915958,49.08882995429771],[-123.11299323652139,49.08779735216127],[-123.10553463776854,49.09124117376221]]],[[[-123.17131834482309,49.117851073638185],[-123.16791802756646,49.11796357358988],[-123.1573254313721,49.11389456238353],[-123.17555242384014,49.1177185680881],[-123.18946715704702,49.12270756914639],[-123.17131834482309,49.117851073638185]]],[[[-123.19123693316429,49.17884425987358],[-123.19364471762212,49.178381362559755],[-123.2129565285272,49.1832322622296],[-123.19889081325606,49.18317666206615],[-123.19136104262155,49.18067005858418],[-123.19123693316429,49.17884425987358]]],[[[-123.0969920499423,49.10681915500674],[-123.09341442034632,49.10662396073298],[-123.09669253260755,49.10162076134398],[-123.10040224142084,49.099907452500624],[-123.10895053018564,49.09956705084866],[-123.0969920499423,49.10681915500674]]],[[[-123.11772914631612,49.09595995428554],[-123.1127964308494,49.098115766712766],[-123.10082504556738,49.09925085394889],[-123.10792243469898,49.09336176978572],[-123.11673634047125,49.090087449455034],[-123.1188453359874,49.0902740732168],[-123.11661883483517,49.09239046440942],[-123.11900194912428,49.09272086800829],[-123.11780231869403,49.095223164128015],[-123.12230914953867,49.095154859263815],[-123.11772914631612,49.09595995428554]]],[[[-123.10096173800795,49.11192485632549],[-123.08724892622608,49.11464375417293],[-123.0931026410998,49.10859506496577],[-123.10969993180856,49.103956475825896],[-123.12202864287748,49.103295656574474],[-123.10096173800795,49.11192485632549]]],[[[-123.11598764299092,49.20369094762332],[-123.0939553262446,49.20379205672319],[-123.07517972438156,49.20787107273807],[-123.06787283090074,49.20507815272809],[-123.09040464070968,49.1993784668225],[-123.11723474087289,49.20306857488266],[-123.11598764299092,49.20369094762332]]],[[[-123.20266513241323,49.22036565773833],[-123.17793972619273,49.21420876100693],[-123.19352154196469,49.21345535861467],[-123.20000653966837,49.21466736888388],[-123.20139374028798,49.2115341723988],[-123.1993571280019,49.210386159052014],[-123.1834613250594,49.21140165481862],[-123.17404092346686,49.21433975742379],[-123.17036805331719,49.21288856409492],[-123.16942591730282,49.214086265134135],[-123.15973252283406,49.210511562361695],[-123.14667764365616,49.20139805032426],[-123.13517663083516,49.197777651805175],[-123.1429165231811,49.187271262042294],[-123.14302904519613,49.183870247357525],[-123.14599965155602,49.18139356779487],[-123.15589733119101,49.177881463881675],[-123.16939514710234,49.17737587349382],[-123.17996533285745,49.17852946445095],[-123.1912386457541,49.18422346651888],[-123.20995654686106,49.18745645613031],[-123.21100284026473,49.18850746070129],[-123.2094203485944,49.187556170024074],[-123.20952934894666,49.19026357045158],[-123.22033463902609,49.19149404993664],[-123.20932322764885,49.19055266434109],[-123.20860973523567,49.20026006526907],[-123.20318843188929,49.207168952679964],[-123.20154875421767,49.21586085872106],[-123.20270573355296,49.21647897649546],[-123.20509054138272,49.21554896686849],[-123.20460093315516,49.21685356392486],[-123.2117545359174,49.21676945008435],[-123.22161653966349,49.21409766582274],[-123.26305253333645,49.205590869036584],[-123.26370762379908,49.20483316864244],[-123.26368552123455,49.2058500689929],[-123.21467685696052,49.21599046429053],[-123.21456753780649,49.21948975666682],[-123.23079422447246,49.227238864482075],[-123.2800947463436,49.25754315983666],[-123.22771793462826,49.227110664333914],[-123.20266513241323,49.22036565773833]]],[[[-123.19651425405407,49.1754631708529],[-123.16425182932392,49.17378545773044],[-123.1538309441238,49.17524807469636],[-123.14147193213414,49.18133656450822],[-123.13481493468377,49.1909058754675],[-123.13325012490952,49.196071476502645],[-123.12983502013475,49.197010061429324],[-123.12954432767255,49.195454756159414],[-123.12009832684022,49.200250078762025],[-123.11364784655358,49.20052636015604],[-123.09059155071579,49.19681486049964],[-123.07423853539902,49.20168286861999],[-123.05867384338173,49.20321246959414],[-123.04141533330154,49.202491758397365],[-123.01998442641808,49.19722647280944],[-123.00661593511082,49.19279297327839],[-122.99452472933059,49.1849754768915],[-122.97911602079286,49.179225954695596],[-122.9672176297667,49.18107597168805],[-122.95903613099033,49.18665037641579],[-122.96795781985747,49.18223666799175],[-122.96530845824705,49.18522326744592],[-122.95815454005334,49.189097158178285],[-122.95690884108468,49.175171881404474],[-122.96612240530688,49.16775668989421],[-122.983131485337,49.16320440523414],[-122.98739759197315,49.159118911118185],[-122.98864081828532,49.15573780116292],[-122.99999992359423,49.15341979629745],[-122.99999994259517,49.15758506022021],[-123.03841094122748,49.14928475804543],[-123.04997882248993,49.14450365438472],[-123.07372673604307,49.125762555145386],[-123.07764663228784,49.1252654505453],[-123.07682313959278,49.124069169919636],[-123.08341205047323,49.12258086924312],[-123.08559523413247,49.12541215863259],[-123.08741761977201,49.12451206444223],[-123.0859898493572,49.12255235933189],[-123.08687715904468,49.12123786340531],[-123.09576963358492,49.11984497811994],[-123.12166284604656,49.11095216301942],[-123.13059394410557,49.109916762887764],[-123.14465572332232,49.110952167328584],[-123.15995242236862,49.11671595771324],[-123.1610937402857,49.117560970287386],[-123.15997555484093,49.11956726068113],[-123.16148483744769,49.12000585468423],[-123.16271255478966,49.118097464023904],[-123.16572963279337,49.11872265325813],[-123.1748111307659,49.12175906563143],[-123.17507695211577,49.12316195792264],[-123.20062224969898,49.12586365327377],[-123.19553863579625,49.126555771912955],[-123.197831927867,49.12710127064552],[-123.19570675348349,49.12733916627208],[-123.19706743669032,49.128019866713124],[-123.1955034294604,49.128041278510636],[-123.19425014677309,49.13299034907319],[-123.19706934614105,49.16640375455672],[-123.20042723622255,49.172792762976464],[-123.19651425405407,49.1754631708529]]]]},"bbox":[-123.2800947463436,49.08779735216127,-122.95690884108468,49.25899118677978]},{"id":"5915020","type":"Feature","properties":{},"geometry":{"type":"MultiPolygon","coordinates":[[[[-123.23989432636675,49.44394795467467],[-123.2400331128346,49.44393086081025],[-123.24007504046735,49.44410177219353],[-123.23999165417655,49.44407476013158],[-123.23989432636675,49.44394795467467]]],[[[-122.86618543940752,49.383997363179624],[-122.86648972956719,49.38404287555405],[-122.86639163233164,49.384501474461615],[-122.86617094152399,49.38444735867832],[-122.86618543940752,49.383997363179624]]],[[[-123.29122224400845,49.363145468736484],[-123.29157384895235,49.36316256362711],[-123.29130132366441,49.363595569167124],[-123.29105222492107,49.36347877369522],[-123.29122224400845,49.363145468736484]]],[[[-122.88171251895308,49.47044686882964],[-122.88180964573425,49.47035705026542],[-122.88260984707794,49.47045677224633],[-122.88234713907556,49.470879776710376],[-122.88171251895308,49.47044686882964]]],[[[-123.27506084386637,49.34077824903405],[-123.27592814584244,49.34085656591655],[-123.2760547488795,49.341216965487746],[-123.27520012373509,49.34120126232086],[-123.27506084386637,49.34077824903405]]],[[[-123.27286123614225,49.34139495386917],[-123.27337104220618,49.34161856609007],[-123.2731688452822,49.3424103624523],[-123.27279713861179,49.342205368400336],[-123.27286123614225,49.34139495386917]]],[[[-123.3067183797122,49.34001479508549],[-123.30669989033197,49.339268512441485],[-123.30752579944557,49.33945513831627],[-123.30732254063271,49.33978842328081],[-123.3067183797122,49.34001479508549]]],[[[-122.93641003542147,49.311430960873395],[-122.93731823544834,49.311584872406705],[-122.93661404476346,49.313140048954736],[-122.93585971671813,49.31256466477853],[-122.93641003542147,49.311430960873395]]],[[[-122.91091298023177,49.295613770401964],[-122.90855006355065,49.29435026151748],[-122.90885813670154,49.29389037680123],[-122.91207887192628,49.293354075649425],[-122.91091298023177,49.295613770401964]]],[[[-123.30388192178857,49.34219966891799],[-123.30621005567802,49.34035813609218],[-123.3077018813082,49.34093105079522],[-123.30685133934614,49.34592392447786],[-123.3042011076081,49.34493260961963],[-123.30388192178857,49.34219966891799]]],[[[-122.86310924847429,49.430264171488545],[-122.86528334044756,49.431957558958906],[-122.87037253002543,49.431946161015986],[-122.87070331249593,49.43772135940292],[-122.87480882981673,49.44446215759398],[-122.87355794688551,49.44803265613469],[-122.87080301853081,49.44695876480579],[-122.86256093276546,49.43420355785641],[-122.86310924847429,49.430264171488545]]],[[[-123.26292482836521,49.42709537315219],[-123.26147805659495,49.42229576114538],[-123.26674784805941,49.417696963230725],[-123.26795121170666,49.4208772577829],[-123.27104614585363,49.41939605270845],[-123.2729931420687,49.42222456548629],[-123.2758348280789,49.42247805954824],[-123.27497673398912,49.42440496359035],[-123.2768004325459,49.42518406610647],[-123.27366145495884,49.43119136800735],[-123.27107793626891,49.432635450703074],[-123.26758603015679,49.432041573705256],[-123.26292482836521,49.42709537315219]]],[[[-122.68230023839095,49.19880440479498],[-122.66792100511502,49.19622640633177],[-122.66845229217958,49.19331841697779],[-122.68407752400505,49.18566610381671],[-122.70070789674492,49.18339740805555],[-122.71308318738683,49.18394709905089],[-122.72110121424767,49.18711599200448],[-122.7241899060583,49.19053550244278],[-122.72667119216857,49.20280360029304],[-122.73066970983362,49.21109798981609],[-122.71330251456813,49.20907590639572],[-122.68230023839095,49.19880440479498]],[[-122.68933593736821,49.18598807484757],[-122.68926474180499,49.19145392549682],[-122.70080144433493,49.191494751046996],[-122.7010955824395,49.18473862432976],[-122.68933593736821,49.18598807484757]]],[[[-123.24970582408719,49.278508968783264],[-123.23941345331829,49.279924663755004],[-123.22376955263991,49.27808046146626],[-123.22473441112538,49.27267504769062],[-123.22193118650523,49.26873302717362],[-123.21959876039142,49.26897919500518],[-123.21956850588724,49.26723831165422],[-123.21504077541391,49.26736829059825],[-123.21538831792525,49.25851270137115],[-123.20321549313982,49.25826720800957],[-123.20292358655662,49.25669442247646],[-123.19654519780009,49.256523304541545],[-123.19676100031967,49.25024076759223],[-123.204606805041,49.24912777478659],[-123.19675278162337,49.24621999412673],[-123.19682212228335,49.238639490985136],[-123.19832943042935,49.23859046470358],[-123.1983980239969,49.23648989389903],[-123.19683570961259,49.23648079671896],[-123.19708119726101,49.23505231178036],[-123.20531401700578,49.23733854608711],[-123.20856628184534,49.23505272141781],[-123.22006818021747,49.239126365199624],[-123.22157442351269,49.2369989267396],[-123.25243783129532,49.250923473678085],[-123.25886092346427,49.259958660007335],[-123.26396787935943,49.2591404741414],[-123.26192612628077,49.26265897062008],[-123.26614362526368,49.26497896398857],[-123.26477121775434,49.26506306324145],[-123.26240822764926,49.27078126575253],[-123.24970582408719,49.278508968783264]]],[[[-122.95989712497327,49.548317942451646],[-122.92421431595469,49.54842971656082],[-122.92479791637403,49.55398741325462],[-122.94504470882316,49.5705427455166],[-122.93988820740502,49.571170253947045],[-122.87775138572917,49.57275794617919],[-122.807786001277,49.57229261573573],[-122.77988331522342,49.57427534039012],[-122.7000868000362,49.57355454417986],[-122.69272426355077,49.56884256264779],[-122.68314201081354,49.55347780402624],[-122.65542317509683,49.53964890066384],[-122.63878943484463,49.53923992496808],[-122.60814378638186,49.54170208228441],[-122.60802151156479,49.53980579055552],[-122.6045250018137,49.53760610408083],[-122.60229900576626,49.524465586418884],[-122.58168920978476,49.49057799038775],[-122.57285752320729,49.4858947054557],[-122.55856229562617,49.483055706496906],[-122.53295229550885,49.47252900060645],[-122.52722100104712,49.46535238975452],[-122.5271676893203,49.46021910227695],[-122.54260620544537,49.43186537994579],[-122.5554992066942,49.41594211172592],[-122.56314504856616,49.39143457245337],[-122.59110291237566,49.35860789758137],[-122.60781929085486,49.35135061299947],[-122.61266492154415,49.35064650113496],[-122.82340615131774,49.351625174636034],[-122.82489275321214,49.357089913426],[-122.8272717467741,49.359674994409446],[-122.83106667132836,49.35984631695432],[-122.83227861933523,49.36210941216313],[-122.83206558826734,49.364980251347546],[-122.82537481324933,49.375024805849364],[-122.82816438293995,49.37912681293904],[-122.83362676092759,49.38204645416311],[-122.86362859235636,49.38193251407796],[-122.86300233913516,49.38452466985655],[-122.86604582067862,49.38486976611125],[-122.86686154579232,49.389071552909826],[-122.87047043759394,49.38979527481015],[-122.87144922779774,49.39457277267943],[-122.86957394348816,49.4001655576072],[-122.86058643508063,49.4056328637603],[-122.85870303673585,49.408706951708],[-122.85866534728915,49.412178855327475],[-122.85666101525133,49.41423645607986],[-122.85848793996992,49.41636127102149],[-122.85697202274214,49.42083897508187],[-122.85804183574932,49.42272024970959],[-122.85393735020445,49.425800771046454],[-122.85458793784221,49.42981296757699],[-122.85315041042846,49.431052657199594],[-122.85587223767527,49.43376325967366],[-122.85397573402994,49.43645047720065],[-122.85621883861738,49.44260635257994],[-122.85905682596949,49.44402165431059],[-122.85900903827535,49.446018260395604],[-122.8618702461475,49.44908006594588],[-122.86325035302032,49.448892864303524],[-122.86239445760786,49.453902068408524],[-122.86655331427401,49.45693806493983],[-122.8716702383033,49.458086469212674],[-122.87343983774373,49.46167716298735],[-122.8772056328624,49.462868661152726],[-122.8794714450073,49.4675656610062],[-122.8806579167891,49.467225259422115],[-122.88033355179672,49.47027446837563],[-122.88202915487136,49.47115746780959],[-122.88458611902308,49.469595161694066],[-122.88447174830303,49.4710976680521],[-122.88789853086645,49.47004806159818],[-122.89015785166438,49.46511176168898],[-122.8863113349988,49.463876973763654],[-122.88676664975847,49.45811105432665],[-122.88178203373562,49.45364455554635],[-122.88119775273344,49.44975827178236],[-122.87667845242035,49.44727997062995],[-122.87947613472647,49.44305527598868],[-122.87318514300776,49.43217356439338],[-122.87586893765562,49.429370068351645],[-122.87402181799132,49.42360236291253],[-122.87896814604039,49.419721954649695],[-122.88230211786907,49.41438547970542],[-122.89934986329183,49.414545957191976],[-122.94884919846909,49.409393791735056],[-122.97060005764082,49.40859677263892],[-123.12153926533168,49.406198905095984],[-123.2432553636222,49.407683527399314],[-123.24316012779387,49.40994075380985],[-123.23452753884754,49.41763997424037],[-123.23513635559998,49.42133586085203],[-123.2330165561148,49.4249205657332],[-123.23362622684014,49.42830166205755],[-123.23641212657544,49.4310660634447],[-123.23666974015183,49.43612904940632],[-123.23909462545478,49.43834655350838],[-123.23889645177427,49.44879385082124],[-123.22898612103904,49.44864653355237],[-123.22869694592261,49.457221206836365],[-123.2304239870075,49.47031162513669],[-123.2330869945181,49.47048375824848],[-123.23328057276755,49.477077718345726],[-123.243606413994,49.476530350142575],[-123.24444669625727,49.48149528843586],[-123.10280206216223,49.4821966944168],[-123.10230746250488,49.547783573388465],[-122.95989712497327,49.548317942451646]]]]},"bbox":[-123.3077018813082,49.18339740805555,-122.5271676893203,49.57427534039012]},{"id":"5915022","type":"Feature","properties":{},"geometry":{"type":"MultiPolygon","coordinates":[[[[-123.17852264694325,49.216357864307874],[-123.18256145624191,49.21677376277637],[-123.18633043043587,49.218566859541994],[-123.18387202102893,49.218327556613765],[-123.17852264694325,49.216357864307874]]],[[[-123.14567513051826,49.31339927997378],[-123.1400334339228,49.31326256572306],[-123.13551613355409,49.307033061381205],[-123.12942622257967,49.302794568504446],[-123.12116642137137,49.29999746591504],[-123.1163660313565,49.300461752972765],[-123.11680094288133,49.298184449506365],[-123.12223951226883,49.295069657911924],[-123.1239733446612,49.295046848154286],[-123.1241589406532,49.29770016912745],[-123.12811467331467,49.295905661304644],[-123.130484525749,49.29762187463003],[-123.135145046265,49.29649245333626],[-123.13374765526869,49.29401866159414],[-123.12275945101926,49.29057056503195],[-123.09185943952754,49.28789024998844],[-123.09177892675294,49.28952667040308],[-123.0895229136628,49.28889856147006],[-123.08962663648943,49.28564286176155],[-123.08817042631391,49.285454858409906],[-123.0880907447866,49.28816226511466],[-123.08668822523555,49.28813667704947],[-123.08677883831952,49.28483537618231],[-123.08403093592626,49.286205357992884],[-123.08413692382045,49.28378566208713],[-123.08277592825813,49.28394806957154],[-123.08308082955882,49.2845775708628],[-123.08304273200669,49.286609859327534],[-123.08297026094952,49.28467576763624],[-123.08198215479177,49.28525256616201],[-123.08238183062919,49.28641336623928],[-123.08238546034292,49.28792446588036],[-123.08180372633758,49.286305065570716],[-123.08110533034922,49.28803267155369],[-123.07994582581304,49.28512876110386],[-123.07916871101834,49.28936575967719],[-123.07886206058355,49.286945966735075],[-123.07721363341176,49.287451577712226],[-123.0771610251187,49.28955516379862],[-123.06980223831536,49.2880041630826],[-123.06855191662224,49.28964205800171],[-123.06857673739323,49.28658426375986],[-123.06726932318242,49.286575661211906],[-123.06724623955745,49.28914784890231],[-123.0670243275969,49.287384653251586],[-123.06599392082782,49.28920337007377],[-123.06603303460209,49.287457262152564],[-123.06446564153187,49.28710836012314],[-123.06038563139224,49.289943971104144],[-123.06147273622712,49.29072585283655],[-123.0501978135195,49.29387046081157],[-123.03418684435366,49.290322752386906],[-123.02893442535266,49.2921144706698],[-123.03468282496911,49.291366763800106],[-123.02308593080616,49.29348598548112],[-123.02338532726786,49.20117281402265],[-123.04237974627132,49.205503972465046],[-123.06291855015938,49.205747566868006],[-123.07591083852432,49.208833848988164],[-123.09333944604926,49.205357374195515],[-123.11341104286628,49.20525906338041],[-123.13485394430816,49.19986555752856],[-123.14961404067795,49.20541565399205],[-123.1610050415159,49.21333425565347],[-123.1913439303233,49.220897487250554],[-123.19111878449716,49.227360449924355],[-123.19704918158794,49.23057596879197],[-123.19683570961259,49.23648079671896],[-123.1983980239969,49.23648989389903],[-123.19832943042935,49.23859046470358],[-123.19682212228335,49.238639490985136],[-123.19675278162337,49.24621999412673],[-123.204606805041,49.24912777478659],[-123.19676100031967,49.25024076759223],[-123.19654519780009,49.256523304541545],[-123.20292358655662,49.25669442247646],[-123.20321549313982,49.25826720800957],[-123.21538831792525,49.25851270137115],[-123.21504077541391,49.26736829059825],[-123.21956850588724,49.26723831165422],[-123.21959876039142,49.26897919500518],[-123.22193118650523,49.26873302717362],[-123.22473441112538,49.27267504769062],[-123.22376955263991,49.27808046146626],[-123.2134425561837,49.27698936972335],[-123.21112665552091,49.27533867092816],[-123.2020851223364,49.27648806976602],[-123.19456441839378,49.27271386430853],[-123.18820223042779,49.27364245300581],[-123.17235923514868,49.27171405537493],[-123.16369232687961,49.274119558707895],[-123.15561953442672,49.273636752227965],[-123.15233364059044,49.27781396685014],[-123.14412821205859,49.27889496014357],[-123.13946271922396,49.276616164279716],[-123.1389918397071,49.27104896604021],[-123.13717671311674,49.270295557939576],[-123.13704424999162,49.272607063761285],[-123.13545134489311,49.273185266241185],[-123.13185882987078,49.270895154136454],[-123.13066963844389,49.268387161176946],[-123.13370868297886,49.26892265716318],[-123.13400932471855,49.268482556354485],[-123.13150373304178,49.2673246509961],[-123.12176263503076,49.268666268172794],[-123.11910621338438,49.26768925675396],[-123.11876644199393,49.269362675173525],[-123.11446852514106,49.27130957132609],[-123.10295084648897,49.27248024885273],[-123.10438353455636,49.27307275114629],[-123.10357793055275,49.275548067541514],[-123.10677913745084,49.27558075203458],[-123.11250753293925,49.273020059439325],[-123.11918722455705,49.2727437641666],[-123.11991085229276,49.27086387136478],[-123.1258767155121,49.27027275927573],[-123.13617273127744,49.27573035939691],[-123.14400731808327,49.2843012602624],[-123.143772928354,49.28851116294781],[-123.1473938380507,49.289919765473684],[-123.15064094240839,49.2949799552666],[-123.15836802007964,49.298765560814076],[-123.15883074948837,49.30121946500723],[-123.15704434203236,49.302203552274506],[-123.15602052747592,49.308618171129766],[-123.15135352831807,49.31199785207831],[-123.14567513051826,49.31339927997378]]]]},"bbox":[-123.22473441112538,49.19986555752856,-123.02308593080616,49.31339927997378]},{"id":"5915025","type":"Feature","properties":{},"geometry":{"type":"Polygon","coordinates":[[[-122.99938444331214,49.29100097274389],[-122.98741563778589,49.295283948839554],[-122.96632262890019,49.28808367199377],[-122.92916043612708,49.29247435498547],[-122.92371504922517,49.29215615457502],[-122.91857602414159,49.289013257266355],[-122.91242741552783,49.29035806100491],[-122.90335394319602,49.28820075030893],[-122.89332835603192,49.291955575149856],[-122.89247350360976,49.29105160210311],[-122.89463852624341,49.28722537510277],[-122.89250590121176,49.238054151073335],[-122.89472942705657,49.23804916604656],[-122.89563309622334,49.23571463330362],[-122.95995134127621,49.20136758680552],[-122.9519267165456,49.195043304002596],[-122.95897614193193,49.192156375034095],[-122.97409285669602,49.181293868503936],[-122.98428782442834,49.18241186057344],[-122.99330315277908,49.18705336890325],[-123.00255301788798,49.19451056183689],[-123.02338532726786,49.20117281402265],[-123.02308593080616,49.29348598548112],[-122.99938444331214,49.29100097274389]]]},"bbox":[-123.02338532726786,49.181293868503936,-122.89247350360976,49.295283948839554]},{"id":"5915029","type":"Feature","properties":{},"geometry":{"type":"MultiPolygon","coordinates":[[[[-122.937845556525,49.199622067303],[-122.93279384210256,49.19982567051526],[-122.92848391942525,49.19818645993537],[-122.94044092418072,49.1986336717441],[-122.937845556525,49.199622067303]]],[[[-122.89420790114097,49.23735594491007],[-122.8924895344838,49.238051453024504],[-122.8899397270302,49.235953555487995],[-122.88130173091105,49.2347031762454],[-122.8751849603204,49.23122526881024],[-122.87731530189006,49.229109821397344],[-122.87594385325995,49.220208226839205],[-122.88550404227811,49.21766104638452],[-122.89427200955772,49.20810740696059],[-122.91219619892107,49.194062608440596],[-122.91997239968458,49.19468872452654],[-122.93815961523337,49.18160140570729],[-122.95690884108468,49.175171881404474],[-122.95647971663281,49.190202256022936],[-122.94451832278517,49.19691747033429],[-122.92110515031673,49.195590064646154],[-122.91803865202817,49.19794576273304],[-122.93498864664643,49.201023470822925],[-122.9519267165456,49.195043304002596],[-122.95995134127621,49.20136758680552],[-122.89420790114097,49.23735594491007]]]]},"bbox":[-122.95995134127621,49.175171881404474,-122.8751849603204,49.238051453024504]},{"id":"5915034","type":"Feature","properties":{},"geometry":{"type":"Polygon","coordinates":[[[-122.62100699033688,49.351355383444016],[-122.61818028193595,49.351273270149605],[-122.63941628877117,49.33907770354579],[-122.65178449156657,49.33499130048365],[-122.67558898561215,49.31663359634598],[-122.67804190693076,49.312412397024495],[-122.67748909398702,49.30711511178375],[-122.67140208239033,49.30148849590967],[-122.66010899207902,49.297981389425004],[-122.65897988906117,49.29445170199138],[-122.66165808108546,49.29207630316514],[-122.69299807945188,49.28423710046684],[-122.70449089509263,49.27638940713169],[-122.71360939166765,49.280102581580834],[-122.71428982108972,49.278531306339566],[-122.73376060983793,49.27852770582515],[-122.73415216718014,49.28575146503243],[-122.76162619356413,49.28584004352208],[-122.76157002168495,49.28931619505907],[-122.7671225353851,49.28927883092053],[-122.76725271471702,49.27836759775547],[-122.79048253746028,49.27806942164587],[-122.78998102372823,49.26326380625128],[-122.79135349215498,49.260890637275786],[-122.79731580960893,49.25926928501381],[-122.79797881486714,49.254291705735824],[-122.79561887653627,49.24845099348013],[-122.80231190552966,49.24613240776522],[-122.80206338626299,49.24321130244101],[-122.80687301203142,49.241404009035406],[-122.80624099367657,49.23671261136491],[-122.80011738079382,49.235738493377035],[-122.80349660847004,49.230149906777996],[-122.8064796145156,49.2279053052783],[-122.80472516986562,49.21933914984182],[-122.86679659649951,49.22110726493786],[-122.87594385325995,49.220208226839205],[-122.87731530189006,49.229109821397344],[-122.8751849603204,49.23122526881024],[-122.88130173091105,49.2347031762454],[-122.8899397270302,49.235953555487995],[-122.89250590121176,49.238054151073335],[-122.89342431642551,49.270293379468065],[-122.84779904727812,49.2709152777469],[-122.84631364865386,49.27099721047668],[-122.84662165099078,49.272694193231196],[-122.8237378489979,49.27334558463995],[-122.82379333470718,49.28049754604189],[-122.82116647431039,49.280570313517465],[-122.82094321081783,49.28193294215079],[-122.82109827796573,49.29465179071045],[-122.8228305351358,49.29494701383501],[-122.82316163189907,49.299278168802694],[-122.82232139181896,49.35162572611788],[-122.62100699033688,49.351355383444016]],[[-122.80600325603739,49.229298269105094],[-122.80446526752874,49.22988146147391],[-122.80330051247175,49.23124223236396],[-122.8070050458359,49.22979511325744],[-122.80600325603739,49.229298269105094]]]},"bbox":[-122.89342431642551,49.21933914984182,-122.61818028193595,49.35162572611788]},{"id":"5915036","type":"Feature","properties":{},"geometry":{"type":"MultiPolygon","coordinates":[[[[-122.92567612115077,49.32332595989345],[-122.92591004498536,49.32325335569229],[-122.92599173150812,49.323370155142754],[-122.9255098375748,49.323486949337585],[-122.92567612115077,49.32332595989345]]],[[[-122.9280608530297,49.320601459420224],[-122.92788073394291,49.32048465302183],[-122.92830821374977,49.3203408573713],[-122.92828092411011,49.32050327664834],[-122.9280608530297,49.320601459420224]]],[[[-122.88885402957864,49.35063257969231],[-122.88907783639645,49.35063236174832],[-122.88862214055719,49.35097417334148],[-122.88865092136514,49.35084745821417],[-122.88885402957864,49.35063257969231]]],[[[-122.89263871280394,49.34650645653828],[-122.89280315537107,49.34728116265762],[-122.8920852272608,49.347729863251324],[-122.89204634399525,49.347144454028744],[-122.89263871280394,49.34650645653828]]],[[[-122.91447454368353,49.33082017255356],[-122.91556305242696,49.330793163748794],[-122.91564452383014,49.33128877653551],[-122.9146658366798,49.33141405872209],[-122.91447454368353,49.33082017255356]]],[[[-122.93346043793173,49.31629605192973],[-122.93405142320196,49.317069455377485],[-122.93298975346951,49.31797806346269],[-122.93288164225106,49.3171321660172],[-122.93346043793173,49.31629605192973]]],[[[-122.90382783295229,49.341632767580336],[-122.90367875294255,49.340976271123125],[-122.90480814169416,49.340121670780775],[-122.90534443907387,49.34104884918535],[-122.90382783295229,49.341632767580336]]],[[[-122.89168642930424,49.3482510789307],[-122.89281194193,49.3490885669232],[-122.8905911330272,49.35090297527893],[-122.89038833526791,49.350111069013856],[-122.89168642930424,49.3482510789307]]],[[[-122.87766888885754,49.351601024530275],[-122.87756983824003,49.330159559539226],[-122.89592693443358,49.330172210016],[-122.89029704773613,49.33509007005837],[-122.88690943474684,49.33602216217885],[-122.89132082692545,49.33903076525178],[-122.89053411539896,49.34577616248836],[-122.88739483393402,49.35226776463422],[-122.88538374036125,49.35340315031167],[-122.88537034552844,49.35162741757225],[-122.87766888885754,49.351601024530275]]],[[[-122.91473803302945,49.32982126159064],[-122.91198323709612,49.33069177338808],[-122.90906883388813,49.3292863705306],[-122.9149758191524,49.32705096397243],[-122.91729372490312,49.32369756540757],[-122.91588301971406,49.31970267109609],[-122.92054460884462,49.31377815821323],[-122.91348134796172,49.31641775979484],[-122.90096143248542,49.32642508163673],[-122.89365892716701,49.32547629675884],[-122.89562841965483,49.322941378553466],[-122.88959699926878,49.31701489192028],[-122.88994791196933,49.31426669612676],[-122.89674513815818,49.31289949418895],[-122.90047211899112,49.31495445394791],[-122.90411896012222,49.31473634828225],[-122.91234749691428,49.3112221590088],[-122.92762830692966,49.310499256969585],[-122.92619663581118,49.31560816478648],[-122.92718264061314,49.31792916834721],[-122.93114783044595,49.31642057180826],[-122.93206832857807,49.317995467516106],[-122.91804513853704,49.327808953491775],[-122.91868855021433,49.329770154314566],[-122.91473803302945,49.32982126159064]]]]},"bbox":[-122.93405142320196,49.310499256969585,-122.87756983824003,49.35340315031167]},{"id":"5915038","type":"Feature","properties":{},"geometry":{"type":"Polygon","coordinates":[[[-122.86000666923009,49.38194666105783],[-122.83362676092759,49.38204645416311],[-122.82816438293995,49.37912681293904],[-122.82537481324933,49.375024805849364],[-122.83206558826734,49.364980251347546],[-122.83227861933523,49.36210941216313],[-122.83106667132836,49.35984631695432],[-122.82663356444625,49.35912124063564],[-122.82232139181896,49.35162572611788],[-122.82207409887367,49.32144943088483],[-122.8273307416743,49.314044018271595],[-122.83336129341683,49.31412864394272],[-122.83367194123923,49.30580886937866],[-122.83583820578076,49.305845516747816],[-122.83600822350402,49.29932423587359],[-122.8419699465737,49.299851901995325],[-122.84133435014749,49.30588182038035],[-122.84986333671992,49.30587311846929],[-122.85064606591273,49.308216537889614],[-122.85837020579582,49.30778318518998],[-122.86044795838738,49.305588048321944],[-122.87348320250388,49.30578534809786],[-122.87354559264094,49.31355285948179],[-122.87765926031153,49.31333950428686],[-122.87766713472412,49.315599136400046],[-122.86709772578394,49.31534972321094],[-122.86700365300017,49.32279544798722],[-122.85815980450123,49.32386963220373],[-122.8581041879459,49.32627736929006],[-122.85544371938116,49.32628700983893],[-122.85533880411815,49.32988579245002],[-122.87756983824003,49.330159559539226],[-122.87766888885754,49.351601024530275],[-122.88537034552844,49.35162741757225],[-122.88570942350633,49.353410742462295],[-122.88189052393189,49.35655287369873],[-122.87840481850643,49.36279186187863],[-122.8743487299818,49.365611964352716],[-122.8734091492158,49.37195236324999],[-122.86661814865552,49.37726066724483],[-122.86362859235636,49.38193251407796],[-122.86000666923009,49.38194666105783]]]},"bbox":[-122.88570942350633,49.29932423587359,-122.82207409887367,49.38204645416311]},{"id":"5915039","type":"Feature","properties":{},"geometry":{"type":"Polygon","coordinates":[[[-122.74685134263144,49.285738969423825],[-122.73352172692522,49.28549199430845],[-122.73376060983793,49.27852770582515],[-122.71428982108972,49.278531306339566],[-122.71360939166765,49.280102581580834],[-122.70449089509263,49.27638940713169],[-122.71846099319498,49.25660319450743],[-122.72347168051604,49.25186459746139],[-122.73494320808756,49.24458709386795],[-122.75618349398762,49.237958808411165],[-122.76738470602338,49.23031920173121],[-122.7681285970366,49.22733278888425],[-122.76433271172274,49.22646719459852],[-122.75603521880392,49.218277704245004],[-122.75139305347297,49.21577173783272],[-122.77020558163889,49.2133812150739],[-122.7791507470967,49.213939644790685],[-122.80472516986562,49.21933914984182],[-122.8064796145156,49.2279053052783],[-122.80011738079382,49.235738493377035],[-122.80624099367657,49.23671261136491],[-122.80687301203142,49.241404009035406],[-122.80179390022522,49.24372548237737],[-122.78627644560599,49.24373354509989],[-122.7868076923216,49.251829703083786],[-122.79382022233379,49.25253199430366],[-122.7968049058322,49.25112690727192],[-122.79797881486714,49.254291705735824],[-122.79707429597799,49.25964669251957],[-122.79135349215498,49.260890637275786],[-122.78998102372823,49.26326380625128],[-122.79048253746028,49.27806942164587],[-122.76725271471702,49.27836759775547],[-122.7671225353851,49.28927883092053],[-122.76157002168495,49.28931619505907],[-122.76162619356413,49.28584004352208],[-122.74685134263144,49.285738969423825]]]},"bbox":[-122.80687301203142,49.2133812150739,-122.70449089509263,49.28931619505907]},{"id":"5915043","type":"Feature","properties":{},"geometry":{"type":"MultiPolygon","coordinates":[[[[-122.90829584006829,49.293494564508066],[-122.90869524892481,49.29332356306237],[-122.90866544025576,49.293790754287144],[-122.90839135119566,49.29377366891911],[-122.90829584006829,49.293494564508066]]],[[[-122.85533880411815,49.32988579245002],[-122.85544371938116,49.32628700983893],[-122.8581041879459,49.32627736929006],[-122.85815980450123,49.32386963220373],[-122.86700365300017,49.32279544798722],[-122.86709772578394,49.31534972321094],[-122.87766713472412,49.315599136400046],[-122.87765926031153,49.31333950428686],[-122.87354559264094,49.31355285948179],[-122.87348320250388,49.30578534809786],[-122.86044795838738,49.305588048321944],[-122.85837020579582,49.30778318518998],[-122.85064606591273,49.308216537889614],[-122.84986333671992,49.30587311846929],[-122.84133435014749,49.30588182038035],[-122.8419699465737,49.299851901995325],[-122.83600822350402,49.29932423587359],[-122.83583820578076,49.305845516747816],[-122.83367194123923,49.30580886937866],[-122.83336129341683,49.31412864394272],[-122.8273307416743,49.314044018271595],[-122.82207409887367,49.32144943088483],[-122.82316163189907,49.299278168802694],[-122.8228305351358,49.29494701383501],[-122.82109827796573,49.29465179071045],[-122.82094321081783,49.28193294215079],[-122.82116647431039,49.280570313517465],[-122.82379333470718,49.28049754604189],[-122.8242424862936,49.27294268749672],[-122.84662165099078,49.272694193231196],[-122.84631364865386,49.27099721047668],[-122.84779904727812,49.2709152777469],[-122.89342431642551,49.270293379468065],[-122.89463852624341,49.28722537510277],[-122.89247350360976,49.29105160210311],[-122.89332835603192,49.291955575149856],[-122.87350465234849,49.29219286466396],[-122.86899673881496,49.29069464832762],[-122.85914621848386,49.2824524689881],[-122.8625184529705,49.28139516439883],[-122.85932153288991,49.27905256993475],[-122.85812534851222,49.27918605577482],[-122.85835252602435,49.28118335959131],[-122.85367962713562,49.28046676597973],[-122.853620228574,49.28179795969608],[-122.85132924945327,49.28011305928161],[-122.85055435500551,49.28188396046756],[-122.84545982339034,49.27991626252498],[-122.83845302064066,49.2825155687453],[-122.8360229398485,49.281189555008396],[-122.83487192349043,49.28408475912926],[-122.83894763639334,49.28662696881127],[-122.83925511971732,49.28499017152184],[-122.84319883991044,49.28617396747778],[-122.8418880390035,49.28727856046951],[-122.84350684379257,49.28854016556247],[-122.85231343787419,49.29115124823658],[-122.8656353262975,49.29819285908115],[-122.86790645096335,49.297394871453704],[-122.87192443585778,49.30178907765669],[-122.8848704122948,49.30107416080993],[-122.88689561659754,49.2992768602279],[-122.8999710276765,49.295619064063196],[-122.90855006355065,49.29435026151748],[-122.91091298023177,49.295613770401964],[-122.91220162181688,49.293335268494545],[-122.91850125094453,49.29324097170235],[-122.92268894271109,49.29754354663474],[-122.92736354594294,49.29798717409769],[-122.92602703868776,49.299920457048565],[-122.92923964064525,49.3044828598467],[-122.92762830692966,49.310499256969585],[-122.91234749691428,49.3112221590088],[-122.90411896012222,49.31473634828225],[-122.90047211899112,49.31495445394791],[-122.89674513815818,49.31289949418895],[-122.89003552102321,49.314130590191354],[-122.88959699926878,49.31701489192028],[-122.89562841965483,49.322941378553466],[-122.89365892716701,49.32547629675884],[-122.90096143248542,49.32642508163673],[-122.89592693443358,49.330172210016],[-122.85533880411815,49.32988579245002]]]]},"bbox":[-122.92923964064525,49.270293379468065,-122.82094321081783,49.330172210016]},{"id":"5915046","type":"Feature","properties":{},"geometry":{"type":"MultiPolygon","coordinates":[[[[-122.91919262742515,49.3415444535694],[-122.91979674973335,49.34176095928414],[-122.91979631944213,49.34209425627383],[-122.91906744053887,49.342111351439485],[-122.91919262742515,49.3415444535694]]],[[[-122.94061362999442,49.316471265184724],[-122.94181093162858,49.3165439510755],[-122.94198992606775,49.316929874919424],[-122.94097272381647,49.31704666005129],[-122.94061362999442,49.316471265184724]]],[[[-122.98232131890623,49.40883140018152],[-122.94884919846909,49.409393791735056],[-122.89934986329183,49.414545957191976],[-122.88230211786907,49.41438547970542],[-122.88253033400882,49.41174705412721],[-122.88494814185718,49.40946477018332],[-122.88351502557718,49.403274759868246],[-122.88697622601941,49.39684666621212],[-122.8863079125098,49.39390466253642],[-122.88226452983923,49.39032057711513],[-122.88294843905501,49.386714158949275],[-122.87955852297237,49.38072925593222],[-122.88391171265586,49.38100325921892],[-122.89158412017323,49.37529006583503],[-122.88933202723022,49.37270647882819],[-122.89045104439816,49.37068356228532],[-122.88908041795271,49.367974655268235],[-122.89353391603495,49.35953256310837],[-122.89883502990524,49.35983416806993],[-122.9042642326337,49.35809366378856],[-122.91298964622169,49.34531855437638],[-122.9252784366102,49.34027196510206],[-122.93514413050319,49.33286606404151],[-122.94526224907939,49.33136005799948],[-122.94895343923714,49.32934677236889],[-122.94747083332493,49.325693970319506],[-122.93730104001064,49.325113450064],[-122.93681082223539,49.3216049696123],[-122.93964915170655,49.31890796504303],[-122.94439724312885,49.31801095483185],[-122.94461863272548,49.31613997269719],[-122.9485688152133,49.315710063896205],[-122.94849681319842,49.30492475954402],[-122.95595744417591,49.300574262622575],[-122.9614430505493,49.30331086020993],[-122.96924275194579,49.30313316426355],[-122.96893925306617,49.31258298198287],[-122.99119620317173,49.312869316756846],[-122.99127833050039,49.30789546837569],[-122.99958733095069,49.307904759177255],[-123.00046693999545,49.304369763815615],[-123.0025044451934,49.30407216018933],[-123.00305282856509,49.30235456744041],[-123.00671295172766,49.30222916363303],[-123.00785334633031,49.30003304871185],[-123.00927152314773,49.30206685604765],[-123.00878811243545,49.30010566168828],[-123.00669923611686,49.29891785468073],[-123.0016913413504,49.29947615834402],[-122.99994595553918,49.298100368273964],[-123.00825204269083,49.296768750838396],[-123.00928542576995,49.30021396809585],[-123.01046672826821,49.299197075322795],[-123.01100471925726,49.30064546513231],[-123.01319122320619,49.30051875467513],[-123.01323243324336,49.29778426322056],[-123.0169995583795,49.29860316851406],[-123.01854033380859,49.29655085287088],[-123.01942061976021,49.298620270690726],[-123.01940615790397,49.29646116523876],[-123.02027482403622,49.3000316565396],[-123.02104305339545,49.29662346078084],[-123.02339924138819,49.30327884773265],[-123.02504841595102,49.30165945920886],[-123.0248360523036,49.30356253561919],[-123.02973168520222,49.30455400995849],[-123.02999753122252,49.29711626953242],[-123.03866807924014,49.29822741377019],[-123.03815007463706,49.3132668035548],[-123.0548017120865,49.31347071222327],[-123.05468061313772,49.320720796353655],[-123.04094083723803,49.320666941910986],[-123.04063569736388,49.32700041587413],[-123.05324689591805,49.327077883114704],[-123.05302900217417,49.33556950693893],[-123.09137344925763,49.33572950283597],[-123.09143403777637,49.33072896982127],[-123.10204454421967,49.331035982967215],[-123.10283863288379,49.310691877538794],[-123.10302562537863,49.31403877155052],[-123.10686323803482,49.31399036707265],[-123.10736594257055,49.31072455154119],[-123.11012854833683,49.30996546842647],[-123.11343334125931,49.31098806082394],[-123.11253173308297,49.31384927599435],[-123.1164111276733,49.313846458937356],[-123.11460963186636,49.308531355861575],[-123.125996213523,49.31285260079522],[-123.12013161637637,49.318485105784916],[-123.12008367515557,49.32395719538744],[-123.12436529146335,49.3249187058037],[-123.12432249217325,49.33086008992865],[-123.11827696496968,49.331016909633384],[-123.11784758706627,49.332141790266846],[-123.11720218090632,49.3595036326686],[-123.11848694453148,49.37673312046698],[-123.12360923410372,49.379626406543856],[-123.12380625687743,49.406199269551436],[-122.98232131890623,49.40883140018152]],[[-123.02945647712892,49.307001720673156],[-123.02952986456854,49.30567020763054],[-123.02793610212949,49.30809084117295],[-123.02650360781354,49.30666970066381],[-123.02113477489873,49.3067958747541],[-123.02154394582818,49.30961227215341],[-123.01814375057508,49.311813261447945],[-123.02441711318438,49.31252667537078],[-123.02561300772751,49.311057459785395],[-123.02333717468352,49.31057898919862],[-123.02364674955615,49.30878215792232],[-123.026933201518,49.30864841977811],[-123.02900393818086,49.31134117538387],[-123.02945647712892,49.307001720673156]]]]},"bbox":[-123.125996213523,49.29646116523876,-122.87955852297237,49.414545957191976]},{"id":"5915051","type":"Feature","properties":{},"geometry":{"type":"Polygon","coordinates":[[[-123.0782934824975,49.33564740302565],[-123.05302900217417,49.33556950693893],[-123.05324689591805,49.327077883114704],[-123.04063569736388,49.32700041587413],[-123.04094083723803,49.320666941910986],[-123.05468061313772,49.320720796353655],[-123.0548017120865,49.31347071222327],[-123.03815007463706,49.3132668035548],[-123.03866807924014,49.29822741377019],[-123.03877573481418,49.3003150692108],[-123.0399166534182,49.29984646519164],[-123.03920185231402,49.30242856631211],[-123.04157935466891,49.29950466729973],[-123.04189702997586,49.30106136030651],[-123.04880343008855,49.3022177572375],[-123.04598612795309,49.303829977020456],[-123.04748463913789,49.3042971598385],[-123.05034614437398,49.302909949394156],[-123.0560963576783,49.304670265595874],[-123.05587885615252,49.306056070721176],[-123.0702521412947,49.3049237601287],[-123.08094841149615,49.31018765718603],[-123.08411301922351,49.309321766493795],[-123.08419704403708,49.3108242592037],[-123.08721303989701,49.31238807481462],[-123.08566291417485,49.31374019148189],[-123.0858007782891,49.318391508127064],[-123.08154438457784,49.31777130108672],[-123.08426640498601,49.31895080601967],[-123.09157750380498,49.31905149434202],[-123.09177649849373,49.31328943225537],[-123.10181172933038,49.31326537233933],[-123.10204454421967,49.331035982967215],[-123.09143403777637,49.33072896982127],[-123.09137344925763,49.33572950283597],[-123.0782934824975,49.33564740302565]]]},"bbox":[-123.10204454421967,49.29822741377019,-123.03815007463706,49.33572950283597]},{"id":"5915055","type":"Feature","properties":{},"geometry":{"type":"MultiPolygon","coordinates":[[[[-123.27462612667047,49.376669756495154],[-123.27484603148481,49.37660567511251],[-123.27490483445773,49.376920450758305],[-123.27473952677316,49.37693037046355],[-123.27462612667047,49.376669756495154]]],[[[-123.27319941639254,49.38025305607152],[-123.27343504699174,49.38015336517203],[-123.27362683590684,49.38025165748459],[-123.27335433236946,49.380630475100546],[-123.27319941639254,49.38025305607152]]],[[[-123.14099570165634,49.32055732682328],[-123.14054719830646,49.32039344071198],[-123.14193843431408,49.32043765485591],[-123.14148484072008,49.32047475452477],[-123.14099570165634,49.32055732682328]]],[[[-123.27642491635564,49.35335976533196],[-123.27704582612624,49.35337537629536],[-123.27721192380936,49.353708655796325],[-123.2764842480717,49.35392516092045],[-123.27642491635564,49.35335976533196]]],[[[-123.27884002783414,49.35422567335773],[-123.27936574155844,49.354611552808386],[-123.27867782283204,49.35487366271677],[-123.27855212091713,49.35443355936868],[-123.27884002783414,49.35422567335773]]],[[[-123.2922183457147,49.36963705490337],[-123.29271653327986,49.37004147460254],[-123.29145622966539,49.37094306091089],[-123.29157493184414,49.37022377211325],[-123.2922183457147,49.36963705490337]]],[[[-123.14558225378565,49.31929976687392],[-123.14752383322364,49.32023266435721],[-123.14858783776847,49.32125665180354],[-123.14784323175456,49.32107855988293],[-123.14558225378565,49.31929976687392]]],[[[-123.27200534176872,49.35327994808049],[-123.27211085715382,49.35265906756115],[-123.27557822901665,49.35212067951048],[-123.27416473745322,49.35533507408152],[-123.27200534176872,49.35327994808049]]],[[[-123.13443284183134,49.31770325376837],[-123.13740185144569,49.31708796001068],[-123.13673894397682,49.3211065830253],[-123.13438075670224,49.31999671841338],[-123.13558722679035,49.31870817833576],[-123.13443284183134,49.31770325376837]]],[[[-123.23884098061635,49.40798214236348],[-123.12380625687743,49.406199269551436],[-123.12360923410372,49.379626406543856],[-123.11848694453148,49.37673312046698],[-123.11711635004994,49.36366656499587],[-123.11811680009113,49.33117899735196],[-123.12432249217325,49.33086008992865],[-123.12436529146335,49.3249187058037],[-123.14355913045951,49.32884429650805],[-123.1479891273706,49.322926888765444],[-123.14633961108763,49.32235394206544],[-123.14847775493071,49.32160836173927],[-123.15325434579206,49.32662166256905],[-123.16960651789964,49.327299563563045],[-123.17695844264115,49.33189407081122],[-123.19448052704026,49.335283652765206],[-123.19867445441714,49.33799396193959],[-123.20349354892721,49.33802955669677],[-123.20609014779295,49.34034676781265],[-123.21245435150145,49.341036058343775],[-123.21946224041982,49.33818047476503],[-123.22911162991464,49.34127387930778],[-123.2378259411387,49.33827877411135],[-123.24895711573755,49.34038806327378],[-123.25081383687917,49.33714507105598],[-123.25530872542919,49.33848526038975],[-123.25407811676016,49.33498886087211],[-123.25716252076867,49.332570556823846],[-123.26128193754393,49.33306616965422],[-123.26150223582869,49.33084295488392],[-123.26479994418636,49.32978337140225],[-123.2667890181809,49.33076896335866],[-123.26861833495815,49.33334536340775],[-123.26802665802559,49.335739363199274],[-123.26979473256145,49.33698556540702],[-123.2687481325903,49.33959756750473],[-123.26977233567575,49.34046635166607],[-123.26717854499788,49.344448468461],[-123.27240012295991,49.347540463450045],[-123.26973172972352,49.348185559241514],[-123.26990044811001,49.35123336672548],[-123.2680958369732,49.353504949918275],[-123.27121994296128,49.353218748987686],[-123.27145104516413,49.355215454745455],[-123.26822393174183,49.35685046377964],[-123.27002083861089,49.357998364081496],[-123.27639204083258,49.35493345847358],[-123.28076063089665,49.35769356782348],[-123.28434064904752,49.35773917180564],[-123.28256094511757,49.36201606891566],[-123.28674953143151,49.36226677588299],[-123.2876159236802,49.36467507289589],[-123.2844957558065,49.367983570152525],[-123.2845327359808,49.37214786441835],[-123.28905875041761,49.371048362379554],[-123.29354432752409,49.372656372963434],[-123.28996266304563,49.37701866891569],[-123.28816133958225,49.37518007474091],[-123.2750901288774,49.380780072720256],[-123.27532744589004,49.376263860442954],[-123.27203912847196,49.37472427457543],[-123.2674463504459,49.38106775716993],[-123.25873523960072,49.388247172326686],[-123.25794994023416,49.391018657060044],[-123.25193864025023,49.39564735129483],[-123.25158631972475,49.39976755887114],[-123.24530304293458,49.402668659727595],[-123.2432553636222,49.407683527399314],[-123.23884098061635,49.40798214236348]]]]},"bbox":[-123.29354432752409,49.31708796001068,-123.11711635004994,49.40798214236348]},{"id":"5915062","type":"Feature","properties":{},"geometry":{"type":"MultiPolygon","coordinates":[[[[-123.37857323322233,49.4024977718698],[-123.378725743474,49.402452266224685],[-123.37882202147125,49.40254196428658],[-123.3786151174257,49.402641658794835],[-123.37857323322233,49.4024977718698]]],[[[-123.32808923190672,49.382484876689524],[-123.32825503534264,49.38234955754517],[-123.32841954384372,49.3824577490045],[-123.32825565983292,49.382655765546986],[-123.32808923190672,49.382484876689524]]],[[[-123.31212631484746,49.41579276385842],[-123.31236004381724,49.41577426097876],[-123.31230633930399,49.41601787165938],[-123.31205725050579,49.41600927061013],[-123.31212631484746,49.41579276385842]]],[[[-123.32868123771068,49.371702958456915],[-123.3289390305546,49.37157106439537],[-123.32914653498156,49.37163375168375],[-123.32847353576732,49.37195137551011],[-123.32868123771068,49.371702958456915]]],[[[-123.35486414012034,49.34107305082222],[-123.35510052776549,49.341352267786576],[-123.35478612541887,49.34151457326318],[-123.35466045535667,49.341380671304336],[-123.35486414012034,49.34107305082222]]],[[[-123.37814753626425,49.410639566347015],[-123.37859663568716,49.4108721569697],[-123.37778563854877,49.41113566693784],[-123.37796274300491,49.410792371446774],[-123.37814753626425,49.410639566347015]]],[[[-123.42459584928872,49.356013071463565],[-123.42445314677141,49.355491769883464],[-123.42512872113038,49.35559715496824],[-123.42496592606157,49.35586776341482],[-123.42459584928872,49.356013071463565]]],[[[-123.37723282452741,49.4036898545571],[-123.37760372964723,49.40365285529869],[-123.37788382524447,49.40407436304292],[-123.37724924475594,49.40423814727798],[-123.37723282452741,49.4036898545571]]],[[[-123.30815363015306,49.417782464885065],[-123.30971974368714,49.416986261880666],[-123.31035672806766,49.41748905496756],[-123.30906933295313,49.418552963192056],[-123.30815363015306,49.417782464885065]]],[[[-123.38038232842705,49.41177505860421],[-123.37907875653771,49.41090636556468],[-123.3797763197551,49.408412570275225],[-123.38499683520259,49.40594866933204],[-123.38730841329219,49.40718206039248],[-123.38556492841312,49.409976368152954],[-123.38038232842705,49.41177505860421]]],[[[-123.3604870414448,49.41332327026009],[-123.34636953143983,49.415433871662664],[-123.3236549363181,49.41409657225805],[-123.32060023687056,49.41507647834381],[-123.32157653072487,49.416811066991734],[-123.32038994591719,49.41878366567918],[-123.31753993559461,49.41746906200999],[-123.31594293576104,49.41999276231324],[-123.313874837826,49.417785268654725],[-123.31059133877343,49.4172896654986],[-123.31356124657118,49.41606765191541],[-123.31489895977883,49.41401396731416],[-123.30854972434123,49.41069267246081],[-123.31097502250586,49.40385075937449],[-123.31943944200643,49.3999242534382],[-123.32309142731212,49.395506370561854],[-123.32242992290315,49.39333156856632],[-123.31811433968318,49.39107566867411],[-123.31911052988795,49.38742115832344],[-123.3333209296667,49.38596987556021],[-123.33264544494938,49.38382076040884],[-123.33421431897759,49.381477857558714],[-123.32655313668161,49.38139246632711],[-123.33361884314685,49.37916786997583],[-123.33413233749806,49.3777179576597],[-123.32237153214614,49.380243068483225],[-123.32120054305483,49.37618126870218],[-123.3268196464012,49.37603026174075],[-123.32848895437483,49.37226615882957],[-123.33303192016463,49.36954445883851],[-123.33252415288725,49.36190076141949],[-123.33997224920603,49.35148116832796],[-123.34559815472896,49.34663315820226],[-123.34688622206487,49.3476187686684],[-123.3554621340426,49.34370785002161],[-123.35730944792925,49.34215405508065],[-123.35525022581399,49.3411172759005],[-123.35626592426784,49.33884705606948],[-123.35956743255926,49.33838705426198],[-123.35848965115123,49.337824471282985],[-123.36247484166196,49.335085673475945],[-123.36486982200377,49.33684175814697],[-123.373448444692,49.3356183709419],[-123.37352034340252,49.33414285297178],[-123.37749164229601,49.335109872759595],[-123.37896725343384,49.33364865765658],[-123.3829512438071,49.334480357199006],[-123.38254874438064,49.33575937564913],[-123.39244695081152,49.334205555763354],[-123.42091872865103,49.335095671945275],[-123.43123945081021,49.339365463658226],[-123.43160753572415,49.34226087884989],[-123.42879693751661,49.343583956739984],[-123.4297664502427,49.34739516421159],[-123.41885932463909,49.35193266824133],[-123.42230925058048,49.3576408665742],[-123.42576751695289,49.35776336063957],[-123.42330784679869,49.3648416557241],[-123.43066582542713,49.36508525779757],[-123.4276751368583,49.37125775810749],[-123.41693595214352,49.37676516078533],[-123.40917225685945,49.38429496314712],[-123.40033244602265,49.38828416933969],[-123.38807804374295,49.399867252504535],[-123.37667142453431,49.40254057613779],[-123.37650765298318,49.40445606558952],[-123.3727825407894,49.405970067428896],[-123.36429402431564,49.40620506505239],[-123.36257062188326,49.4117238706978],[-123.3604870414448,49.41332327026009]]]]},"bbox":[-123.43160753572415,49.33364865765658,-123.30815363015306,49.41999276231324]},{"id":"5915065","type":"Feature","properties":{},"geometry":{"type":"Polygon","coordinates":[[[-123.24284806819232,49.47673675820242],[-123.23328057276755,49.477077718345726],[-123.2330869945181,49.47048375824848],[-123.2304239870075,49.47031162513669],[-123.22898612103904,49.44864653355237],[-123.23889645177427,49.44879385082124],[-123.24130663033583,49.45050366614422],[-123.23906362553191,49.45454697497082],[-123.2412191352263,49.45820286102795],[-123.2395811309121,49.46176766273167],[-123.24138554415377,49.46672966926594],[-123.24047303722656,49.46916077586966],[-123.24603151943397,49.47097376003257],[-123.24284806819232,49.47673675820242]]]},"bbox":[-123.24603151943397,49.44864653355237,-123.22898612103904,49.477077718345726]},{"id":"5915070","type":"Feature","properties":{},"geometry":{"type":"Polygon","coordinates":[[[-122.60948599568687,49.35100715714588],[-122.60329515725493,49.35312529567933],[-122.57539780195435,49.352431715830726],[-122.59303157747831,49.338578270284835],[-122.59328793526856,49.32833155608427],[-122.59568168640604,49.32830259822097],[-122.59783028841163,49.324762311673844],[-122.60054689443582,49.32475359928886],[-122.60117518112816,49.27055099984126],[-122.61227917503028,49.270168307752776],[-122.61170881645408,49.264281647004914],[-122.60122740547159,49.26418878289291],[-122.60059006139785,49.257111020335564],[-122.62243062241852,49.25682669364382],[-122.62226068648226,49.249839117870685],[-122.64474272387433,49.249378354604616],[-122.64477260239362,49.242264996711626],[-122.65585969573732,49.24226791564493],[-122.65673423689333,49.23209992553014],[-122.6644018995547,49.23198266411027],[-122.66572619135395,49.22233246605113],[-122.66416288828655,49.221247119260994],[-122.66895074401342,49.22127701593951],[-122.66920404511443,49.20957236876735],[-122.67175284936688,49.205785857276496],[-122.67832116454967,49.205583139070846],[-122.67825972315777,49.20031479672353],[-122.66818430282385,49.199695175014824],[-122.66792100511502,49.19622640633177],[-122.68648519292097,49.199753008399995],[-122.71330251456813,49.20907590639572],[-122.73197649217445,49.21125631524709],[-122.75290138922426,49.21615309160404],[-122.76433271172274,49.22646719459852],[-122.7681285970366,49.22733278888425],[-122.76647499227622,49.23115071427169],[-122.75618349398762,49.237958808411165],[-122.73494320808756,49.24458709386795],[-122.72347168051604,49.25186459746139],[-122.71846099319498,49.25660319450743],[-122.70449089509263,49.27638940713169],[-122.69764331982375,49.282201906327025],[-122.68744219538536,49.28617399985264],[-122.66049829514641,49.29262709080414],[-122.65897988906117,49.29445170199138],[-122.66010899207902,49.297981389425004],[-122.66960288372194,49.300629592665885],[-122.6762603237893,49.305101305580614],[-122.67817581730931,49.31142160294416],[-122.67558898561215,49.31663359634598],[-122.65178449156657,49.33499130048365],[-122.63941628877117,49.33907770354579],[-122.62058279926481,49.35084311326887],[-122.60948599568687,49.35100715714588]]]},"bbox":[-122.7681285970366,49.19622640633177,-122.57539780195435,49.35312529567933]},{"id":"5915075","type":"Feature","properties":{},"geometry":{"type":"Polygon","coordinates":[[[-122.52086675556545,49.35312489637173],[-122.40996697312964,49.35297918514722],[-122.4091434674736,49.26426971733578],[-122.4242856321778,49.26407878697531],[-122.42378878637564,49.19110276047288],[-122.42521237250119,49.18015813327923],[-122.4219239080968,49.17669163810926],[-122.42580430065993,49.16883060544787],[-122.45105578741726,49.17194130267944],[-122.51345111570852,49.16722689846786],[-122.5252317992922,49.16758290691661],[-122.53845729804331,49.17014649268662],[-122.5532099132341,49.17787710887948],[-122.5773172069725,49.185256008062574],[-122.58471990907583,49.191284084401225],[-122.59178190393192,49.20184519605318],[-122.60154920556401,49.208530390432124],[-122.60822928328298,49.210246595533235],[-122.62836919142366,49.208876513358476],[-122.66215549968334,49.19683050492183],[-122.66792100511502,49.19622640633177],[-122.66818430282385,49.199695175014824],[-122.66964283411768,49.2005235578558],[-122.66904406600845,49.20594324338237],[-122.67175284936688,49.205785857276496],[-122.66880929497843,49.21133447932599],[-122.66895074401342,49.22127701593951],[-122.66416288828655,49.221247119260994],[-122.66572619135395,49.22233246605113],[-122.6644018995547,49.23198266411027],[-122.65673423689333,49.23209992553014],[-122.65585969573732,49.24226791564493],[-122.64477260239362,49.242264996711626],[-122.64474272387433,49.249378354604616],[-122.62226068648226,49.249839117870685],[-122.62243062241852,49.25682669364382],[-122.60059006139785,49.257111020335564],[-122.60122740547159,49.26418878289291],[-122.61170881645408,49.264281647004914],[-122.61227917503028,49.270168307752776],[-122.60117518112816,49.27055099984126],[-122.60054689443582,49.32475359928886],[-122.59783028841163,49.324762311673844],[-122.59568168640604,49.32830259822097],[-122.59328793526856,49.32833155608427],[-122.59303157747831,49.338578270284835],[-122.57539780195435,49.352431715830726],[-122.52086675556545,49.35312489637173]],[[-122.46547601506936,49.17668749864645],[-122.46625920696098,49.17276643265001],[-122.45506754674653,49.173580306652745],[-122.45522962361373,49.17778249834024],[-122.46547601506936,49.17668749864645]]]},"bbox":[-122.67175284936688,49.16722689846786,-122.4091434674736,49.35312489637173]},{"id":"5915801","type":"Feature","properties":{},"geometry":{"type":"Polygon","coordinates":[[[-122.7577567444258,49.00545010473803],[-122.76001939626995,49.005408280872366],[-122.77254423714443,49.011376486641275],[-122.7888968155359,49.01656731428274],[-122.76257130094554,49.01658280752839],[-122.75790940852251,49.013176659511444],[-122.7577567444258,49.00545010473803]]]},"bbox":[-122.7888968155359,49.005408280872366,-122.7577567444258,49.01658280752839]},{"id":"5915802","type":"Feature","properties":{},"geometry":{"type":"Polygon","coordinates":[[[-123.13003263446195,49.054681003180235],[-123.12482032811675,49.05455710591304],[-123.12473317297092,49.05662317084354],[-123.10994730378579,49.05639360454371],[-123.09963587567294,49.05604783447339],[-123.09949616528296,49.052884053931216],[-123.07970240328736,49.0538814003304],[-123.07970191142121,49.03751639233748],[-123.09095919436963,49.03211024387255],[-123.09082881953881,49.02472319180783],[-123.10049684188608,49.02464066115058],[-123.0991583027739,49.02178050866864],[-123.09312562408032,49.01791961189077],[-123.09676273587058,49.017835974418794],[-123.10117702208183,49.02243756226617],[-123.10593325436405,49.02351522175535],[-123.1022500424108,49.026112828100416],[-123.10110024211255,49.03234155214286],[-123.0989688265029,49.03350365454407],[-123.09810934702415,49.035097357609196],[-123.09849665700976,49.03698586479599],[-123.09940045931383,49.03759686516459],[-123.09831563860139,49.03519566563141],[-123.09905064997086,49.03367456483225],[-123.10011764001707,49.0335307477435],[-123.09920373704796,49.034826767962635],[-123.1085464412046,49.03989125322441],[-123.11246292260384,49.047650357827536],[-123.1218741607115,49.049890309660846],[-123.13059711761983,49.05373928327051],[-123.13003263446195,49.054681003180235]]]},"bbox":[-123.13059711761983,49.017835974418794,-123.07970191142121,49.05662317084354]},{"id":"5915803","type":"Feature","properties":{},"geometry":{"type":"Polygon","coordinates":[[[-123.20939738471355,49.235455128777325],[-123.20531401700578,49.23733854608711],[-123.19708119726101,49.23505231178036],[-123.19704918158794,49.23057596879197],[-123.19111878449716,49.227360449924355],[-123.1913439303233,49.220897487250554],[-123.20178223178375,49.22252616277824],[-123.20983974703731,49.23130926880276],[-123.22157442351269,49.2369989267396],[-123.22006818021747,49.239126365199624],[-123.20939738471355,49.235455128777325]]]},"bbox":[-123.22157442351269,49.220897487250554,-123.19111878449716,49.239126365199624]},{"id":"5915804","type":"Feature","properties":{},"geometry":{"type":"Polygon","coordinates":[[[-122.79382022233379,49.25253199430366],[-122.7868076923216,49.251829703083786],[-122.78627644560599,49.24373354509989],[-122.80179390022522,49.24372548237737],[-122.80290078849275,49.245572702842004],[-122.79561887653627,49.24845099348013],[-122.7968049058322,49.25112690727192],[-122.79382022233379,49.25253199430366]]]},"bbox":[-122.80290078849275,49.24372548237737,-122.78627644560599,49.25253199430366]},{"id":"5915805","type":"Feature","properties":{},"geometry":{"type":"Polygon","coordinates":[[[-122.80446526752874,49.22988146147391],[-122.80600325603739,49.229298269105094],[-122.8070050458359,49.22979511325744],[-122.80330051247175,49.23124223236396],[-122.80446526752874,49.22988146147391]]]},"bbox":[-122.8070050458359,49.229298269105094,-122.80330051247175,49.23124223236396]},{"id":"5915806","type":"Feature","properties":{},"geometry":{"type":"Polygon","coordinates":[[[-122.98111950727647,49.312653576829085],[-122.96893925306617,49.31258298198287],[-122.96924275194579,49.30313316426355],[-122.98017672584662,49.30737235522113],[-122.99127833050039,49.30789546837569],[-122.99119620317173,49.312869316756846],[-122.98111950727647,49.312653576829085]]]},"bbox":[-122.99127833050039,49.30313316426355,-122.96893925306617,49.312869316756846]},{"id":"5915807","type":"Feature","properties":{},"geometry":{"type":"Polygon","coordinates":[[[-123.08880730199844,49.31907419858734],[-123.08426640498601,49.31895080601967],[-123.08154438457784,49.31777130108672],[-123.0858007782891,49.318391508127064],[-123.08566291417485,49.31374019148189],[-123.08720704125979,49.31243977916697],[-123.09007983366334,49.314813473526414],[-123.09136973236879,49.312915075721314],[-123.09157750380498,49.31905149434202],[-123.08880730199844,49.31907419858734]]]},"bbox":[-123.09157750380498,49.31243977916697,-123.08154438457784,49.31907419858734]},{"id":"5915808","type":"Feature","properties":{},"geometry":{"type":"Polygon","coordinates":[[[-123.13758681850612,49.326991824602736],[-123.12008367515557,49.32395719538744],[-123.12013161637637,49.318485105784916],[-123.12755194730896,49.31261025485406],[-123.13307894793617,49.31587886252383],[-123.13249164638228,49.31796666985583],[-123.13558722679035,49.31870817833576],[-123.13438075670224,49.31999671841338],[-123.1479891273706,49.322926888765444],[-123.14355913045951,49.32884429650805],[-123.13758681850612,49.326991824602736]]]},"bbox":[-123.1479891273706,49.31261025485406,-123.12008367515557,49.32884429650805]},{"id":"5915809","type":"Feature","properties":{},"geometry":{"type":"Polygon","coordinates":[[[-122.68935475756456,49.186644684118946],[-122.7010955824395,49.18473862432976],[-122.70080144433493,49.191494751046996],[-122.68926474180499,49.19145392549682],[-122.68935475756456,49.186644684118946]]]},"bbox":[-122.7010955824395,49.18473862432976,-122.68926474180499,49.191494751046996]},{"id":"5915810","type":"Feature","properties":{},"geometry":{"type":"Polygon","coordinates":[[[-123.11958423957938,49.063646562236066],[-123.13055820578336,49.063972311728044],[-123.13047119022875,49.06998417979361],[-123.11939999809762,49.06956662740503],[-123.11958423957938,49.063646562236066]]]},"bbox":[-123.13055820578336,49.063646562236066,-123.11939999809762,49.06998417979361]},{"id":"5915811","type":"Feature","properties":{},"geometry":{"type":"MultiPolygon","coordinates":[[[[-123.02569434476464,49.302441346300824],[-123.02280552712033,49.2990147562685],[-123.02379484881979,49.29624466840646],[-123.02498993892864,49.296369962235296],[-123.02537671592951,49.29941926619531],[-123.02675152609922,49.29827695654155],[-123.02698641998052,49.301524157509554],[-123.02995293681406,49.29961974758909],[-123.02973168520222,49.30455400995849],[-123.0248360523036,49.30356253561919],[-123.02569434476464,49.302441346300824]]],[[[-123.026933201518,49.30864841977811],[-123.02364674955615,49.30878215792232],[-123.02333717468352,49.31057898919862],[-123.02561300772751,49.311057459785395],[-123.02441711318438,49.31252667537078],[-123.01814375057508,49.311813261447945],[-123.02154394582818,49.30961227215341],[-123.02113477489873,49.3067958747541],[-123.02650360781354,49.30666970066381],[-123.02793610212949,49.30809084117295],[-123.02952986456854,49.30567020763054],[-123.02915273399609,49.311249970444294],[-123.026933201518,49.30864841977811]]]]},"bbox":[-123.02995293681406,49.29624466840646,-123.01814375057508,49.31252667537078]},{"id":"5915813","type":"Feature","properties":{},"geometry":{"type":"Polygon","coordinates":[[[-122.65024660946034,49.198112754200004],[-122.64829732445857,49.193326224959215],[-122.65478543583659,49.19105186674752],[-122.65832075744149,49.194431944982846],[-122.65024660946034,49.198112754200004]]]},"bbox":[-122.65832075744149,49.19105186674752,-122.64829732445857,49.198112754200004]},{"id":"5915816","type":"Feature","properties":{},"geometry":{"type":"Polygon","coordinates":[[[-122.56951882510948,49.17973867929346],[-122.55313122514205,49.17554716775102],[-122.54845863569092,49.168917471991364],[-122.57554041432091,49.172411896193395],[-122.57317641850955,49.17456654907231],[-122.57922014846189,49.177993961629106],[-122.57998502091414,49.18327637018443],[-122.56951882510948,49.17973867929346]]]},"bbox":[-122.57998502091414,49.168917471991364,-122.54845863569092,49.18327637018443]},{"id":"5915825","type":"Feature","properties":{},"geometry":{"type":"Polygon","coordinates":[[[-122.4733613057501,49.002416474317975],[-122.4794373529603,49.002297856929744],[-122.47905694752698,49.008168750852455],[-122.47336345908536,49.00822103831575],[-122.4733613057501,49.002416474317975]]]},"bbox":[-122.4794373529603,49.002297856929744,-122.4733613057501,49.00822103831575]},{"id":"5915830","type":"Feature","properties":{},"geometry":{"type":"Polygon","coordinates":[[[-122.66950919074264,49.200738790833014],[-122.6704856243544,49.19956365718164],[-122.67812251036283,49.2001961032606],[-122.67832116454967,49.205583139070846],[-122.66904406600845,49.20594324338237],[-122.66950919074264,49.200738790833014]]]},"bbox":[-122.67832116454967,49.19956365718164,-122.66904406600845,49.20594324338237]},{"id":"5915840","type":"Feature","properties":{},"geometry":{"type":"Polygon","coordinates":[[[-122.46608860438116,49.17735258283155],[-122.45522962361373,49.17778249834024],[-122.45506754674653,49.173580306652745],[-122.46625920696098,49.17276643265001],[-122.46608860438116,49.17735258283155]]]},"bbox":[-122.46625920696098,49.17276643265001,-122.45506754674653,49.17778249834024]}],"bbox":[-123.43160753572415,49.00193432850193,-122.4091434674736,49.57427534039012]}