{"type":"FeatureCollection","features":[{"id":"5926005","type":"Feature","properties":{},"geometry":{"type":"Polygon","coordinates":[[[-124.90986664228116,49.726542232432514],[-124.89131301471159,49.72691637907829],[-124.88514813519237,49.72218156772508],[-124.88654342858906,49.71916365559025],[-124.87815824483359,49.70894636369477],[-124.87202545329048,49.70639275646399],[-124.86240245626001,49.7075463609936],[-124.8742265246491,49.705201995420396],[-124.87109220308123,49.704885299486186],[-124.86540300925583,49.70117104778041],[-124.86322866405227,49.70291274438656],[-124.8651664901312,49.70423189639072],[-124.86134040265576,49.70480214622517],[-124.85975733635007,49.70109325914351],[-124.86447382365239,49.694262761668476],[-124.87454763223592,49.689035862534105],[-124.8793515567377,49.68419740369021],[-124.88319624128165,49.68601351627383],[-124.8748647899091,49.68904386479509],[-124.87916574840304,49.68927174162275],[-124.87964083173601,49.691269760435176],[-124.8705605696691,49.69184353879561],[-124.8691164507244,49.69359851434812],[-124.87159688105501,49.69409709160955],[-124.86751741280445,49.69586051283305],[-124.876767681752,49.7017545391751],[-124.8802638968937,49.70118785470282],[-124.87966210129589,49.70247429795353],[-124.88555090548303,49.70679896309355],[-124.89006850004007,49.70239228820266],[-124.89976365880995,49.70407445268881],[-124.90284843383492,49.70295359618397],[-124.90371895367376,49.70476043729749],[-124.9061576134716,49.70518329118389],[-124.90947884136752,49.70454445626653],[-124.90928105353062,49.6925592129072],[-124.89822526320448,49.692658323867064],[-124.89803835447185,49.68795194593746],[-124.89390949769913,49.684197495229135],[-124.89736591458583,49.68238689840636],[-124.8975197805097,49.674528134748435],[-124.90218060952718,49.67458421305436],[-124.90197943624858,49.67831761664207],[-124.9064611176581,49.680030806752335],[-124.90641473697941,49.68198058198048],[-124.90860264472468,49.68201599178987],[-124.90893040654223,49.67462680959821],[-124.90500333032342,49.67460206802489],[-124.90489108302796,49.67343988286812],[-124.9089668001829,49.67385168813246],[-124.90922267506433,49.66945947904483],[-124.91237203526826,49.66851016569187],[-124.92332363406796,49.669615371569655],[-124.92599252976738,49.67157655534066],[-124.9270572294349,49.66942736654786],[-124.93051123948622,49.671258968994145],[-124.92951073059108,49.672552070972564],[-124.93731255400444,49.67151385907153],[-124.95022564333284,49.6740201682346],[-124.94978792009621,49.682460958161606],[-124.95810058281927,49.68586735791346],[-124.94521362121479,49.69293899102716],[-124.94591444818137,49.693713835868465],[-124.9383640369836,49.69204575732389],[-124.93790734516556,49.68933792504532],[-124.93252349372217,49.68970944296497],[-124.93286389674992,49.68825612908458],[-124.93069679449962,49.68820521444968],[-124.93023641848502,49.68483942404174],[-124.92372534933698,49.68580105036879],[-124.92448171514715,49.68806261584729],[-124.92163542497141,49.68800968989856],[-124.92124035956067,49.69738044105957],[-124.92565335887949,49.69733125020493],[-124.9258378503522,49.69466189761424],[-124.93453429092186,49.69484019264806],[-124.9342389941205,49.70196669290286],[-124.92885859626996,49.70098242704121],[-124.92014039652712,49.703132254785636],[-124.9200589329955,49.71187650765581],[-124.91665619282182,49.71177889101739],[-124.91445340272747,49.71495479359637],[-124.9089314815351,49.71502289985293],[-124.90886702378621,49.718323503869044],[-124.91344679259026,49.72498049997429],[-124.90986664228116,49.726542232432514]]]},"bbox":[-124.95810058281927,49.66851016569187,-124.85975733635007,49.72691637907829]},{"id":"5926010","type":"Feature","properties":{},"geometry":{"type":"Polygon","coordinates":[[[-124.96081546340682,49.74072676852286],[-124.95532679475441,49.74060229436799],[-124.9554490034792,49.736939888978334],[-124.9440569021822,49.737139841595656],[-124.94386120246601,49.7409200546375],[-124.93568490206341,49.74093351174492],[-124.93341958724488,49.73953226982461],[-124.93313970805445,49.733771743607946],[-124.94478516021111,49.73386798125501],[-124.94452889770879,49.729982575028544],[-124.93326747270099,49.729727789259876],[-124.93394169947327,49.70955792394917],[-124.93992051706715,49.70966527612905],[-124.93992146003488,49.705833581979846],[-124.94387230962776,49.706106515026704],[-124.94521362121479,49.69293899102716],[-124.95269746689696,49.68873678313345],[-124.96020189688316,49.68946349128147],[-124.96414978508832,49.687986699585124],[-124.97228108697331,49.69516298143315],[-124.98923461756824,49.6871786569377],[-124.98482741560245,49.6847395515456],[-124.97864852938298,49.68441566013549],[-124.98194450552607,49.682630938780164],[-124.9763001196612,49.679877136073195],[-124.97836994303347,49.678060961347995],[-124.9790395245368,49.673039165006585],[-124.9721797442144,49.66791207500669],[-124.96958552463924,49.66236895632182],[-124.96232290290966,49.657426091102096],[-124.96450129241002,49.656701908012835],[-124.96306186918585,49.653854207745496],[-124.95926034686698,49.65153990176825],[-124.96310431088988,49.652656242283925],[-124.96316436216674,49.647465296860084],[-124.95918614808754,49.64724367236514],[-124.96714646872987,49.64722375700933],[-124.96721633766883,49.64963161226913],[-124.98163132809736,49.64986670129758],[-124.98181338961905,49.65476841466901],[-124.98630786423409,49.6544805576924],[-124.98615739435026,49.65722669879742],[-124.99328299849806,49.65731530641499],[-124.99861753328067,49.65986341056322],[-124.99805077213485,49.66091664389363],[-125.00518555086788,49.66660905292733],[-125.0118179222748,49.66316919712496],[-125.00947588508666,49.66214667046961],[-125.0117817150888,49.66041441975706],[-125.02045550567627,49.666320846033905],[-125.01134384928596,49.67139011110098],[-125.0178363473637,49.67637334428679],[-125.02290552796279,49.67360111355102],[-125.02110060649828,49.67208987591326],[-125.02340648156363,49.67092189732431],[-125.02515897657199,49.67246585451496],[-125.02757720230765,49.671737059796314],[-125.02908217332967,49.67343877435523],[-125.02736159279253,49.67430306807344],[-125.02457834883464,49.67288516288764],[-125.01796530872001,49.67647223907317],[-125.02278239527082,49.68015340517912],[-125.02707290194756,49.67774420885734],[-125.03260008127255,49.68206300355952],[-125.0266488784111,49.68299227175944],[-125.0301619930346,49.68490141859798],[-125.02961388702205,49.68608349882119],[-125.00383720469952,49.69254369981063],[-124.999281008067,49.699500898732396],[-124.99742361484728,49.699604893041524],[-124.99492984706353,49.69578141655752],[-124.99197682485216,49.69747319841178],[-124.99200014186802,49.69985680433895],[-124.9939944367443,49.70151372288799],[-124.99758610580625,49.700452698366945],[-124.99742271195416,49.70409829929094],[-125.00106690945847,49.70259010942285],[-125.00906540994093,49.70466228981394],[-125.01304248347543,49.70762685228821],[-124.99464669252829,49.71593956931531],[-124.99739508275286,49.718093502430875],[-124.99949066728873,49.71705584544498],[-125.00573371262057,49.72252287340243],[-124.99981059328222,49.72535292652907],[-124.99327352348455,49.71970090512044],[-124.99327439882035,49.71634205390455],[-124.99000157257454,49.716039298354524],[-124.99017723425592,49.717316426352625],[-124.98609893676323,49.71827102701415],[-124.98729590029328,49.719613671259886],[-124.9796019614005,49.72360412660037],[-124.96909522187485,49.72452110564585],[-124.9709625030674,49.728323113598286],[-124.97797861938596,49.733833012815104],[-124.96598320508744,49.74072453534062],[-124.96081546340682,49.74072676852286]]]},"bbox":[-125.03260008127255,49.64722375700933,-124.93313970805445,49.74093351174492]},{"id":"5926014","type":"Feature","properties":{},"geometry":{"type":"Polygon","coordinates":[[[-125.07443387438747,49.656621677265264],[-125.06910452258381,49.65459634421134],[-125.02587724973279,49.65381715100431],[-125.01735089633131,49.64725231664567],[-125.00963497987537,49.65136609585313],[-125.01001700139511,49.65336480304659],[-125.00393753206484,49.653941652035314],[-125.00338068050075,49.64834927859498],[-125.00757380809293,49.64808147728078],[-125.00253571764416,49.63970400654869],[-125.00263469532597,49.63213209421882],[-124.99766216599542,49.63263242858804],[-124.99737989809226,49.626833176130006],[-124.99425212063424,49.62538729187517],[-124.99419098890634,49.61208968630313],[-125.04266194225013,49.61220247172862],[-125.04164392235808,49.602054280985925],[-125.03214843557372,49.59954832544833],[-125.02887549438843,49.60014810172264],[-125.0293827505155,49.5981523236144],[-125.0268912963099,49.597432878275434],[-125.03541797900458,49.59688085742964],[-125.04115594834725,49.60100099470576],[-125.06208709301747,49.600190787591636],[-125.06051412289028,49.59912595407014],[-125.06137743933051,49.59833337611591],[-125.07464949325866,49.60132083402875],[-125.08071909562399,49.59851889596541],[-125.08689881883116,49.59788321933103],[-125.09252936674498,49.59302402891865],[-125.0915466204669,49.590551729690915],[-125.08472611369709,49.59192732766804],[-125.08440021055532,49.589919424513205],[-125.09455866027604,49.5881045298998],[-125.09731493752307,49.58898070017053],[-125.0981478157246,49.594516282151034],[-125.09295465989632,49.59457082094971],[-125.0881481203796,49.59891572047955],[-125.08719545858177,49.6087540017396],[-125.07532809416534,49.60632918321115],[-125.06669747661034,49.60638898377828],[-125.06673260654746,49.60842895734277],[-125.057099179262,49.608624739603464],[-125.05594400104795,49.610415961885955],[-125.05629744560822,49.614555865906816],[-125.06737950680518,49.616352957541764],[-125.0677610074572,49.62488351403833],[-125.08078669336729,49.62568140693201],[-125.08032890702893,49.64662964542268],[-125.0932213699423,49.64682988877826],[-125.09341140201387,49.65084059377438],[-125.08991909049728,49.654673283483994],[-125.07904942130708,49.657329174938674],[-125.07443387438747,49.656621677265264]]]},"bbox":[-125.0981478157246,49.5881045298998,-124.99419098890634,49.657329174938674]},{"id":"5926021","type":"Feature","properties":{},"geometry":{"type":"MultiPolygon","coordinates":[[[[-124.65465303259145,49.48970495379292],[-124.65486255087745,49.48975627297267],[-124.6546206540465,49.489984172269246],[-124.65453603718265,49.48989586501894],[-124.65465303259145,49.48970495379292]]],[[[-124.66009985979923,49.48784637101191],[-124.66039212800521,49.48792327490206],[-124.66052495026325,49.48816397213631],[-124.66020324512544,49.488060069930576],[-124.66009985979923,49.48784637101191]]],[[[-124.75839075006891,49.46289707432567],[-124.7584718276987,49.462860061843344],[-124.75895125149954,49.462761770653756],[-124.75862376191725,49.46321757183843],[-124.75839075006891,49.46289707432567]]],[[[-124.78086343475684,49.467554268579256],[-124.78131573430387,49.46746595862685],[-124.78238105401566,49.46753145779307],[-124.78215015671975,49.46766106282556],[-124.78086343475684,49.467554268579256]]],[[[-124.5829349231815,49.51981846249661],[-124.58236674548053,49.51974436806984],[-124.58362404031591,49.51973585782298],[-124.58361174138255,49.51979995844421],[-124.5829349231815,49.51981846249661]]],[[[-124.6453506406863,49.48409926598066],[-124.64538414978614,49.48381016645658],[-124.64623935157302,49.48383435201736],[-124.6457005435215,49.48418335010218],[-124.6453506406863,49.48409926598066]]],[[[-124.66396265712623,49.48938317110962],[-124.66461823560797,49.489535470409926],[-124.66475733321982,49.48998278041868],[-124.66437435476189,49.490096671394085],[-124.66396265712623,49.48938317110962]]],[[[-124.68387734417801,49.47818317203514],[-124.68450713799446,49.47802935566745],[-124.68498665580361,49.4787058693008],[-124.68445015472587,49.47879556072855],[-124.68387734417801,49.47818317203514]]],[[[-124.88723262972336,49.59549387228919],[-124.88635916556838,49.595048066500844],[-124.88899314807068,49.59593246890234],[-124.88888734909796,49.59603365801255],[-124.88723262972336,49.59549387228919]]],[[[-124.68404985986452,49.471550566157674],[-124.68508675170587,49.47194935220693],[-124.68562733048367,49.47244496114496],[-124.68389635539306,49.47230825561949],[-124.68404985986452,49.471550566157674]]],[[[-124.64871005211573,49.484167668263666],[-124.64799963986479,49.484394170257296],[-124.64680903244714,49.48388855846164],[-124.64817974421291,49.4835993495103],[-124.64964051444623,49.48434286093297],[-124.64871005211573,49.484167668263666]]],[[[-124.85943505304155,49.62976606071699],[-124.85855645887787,49.629978272024566],[-124.86058044334746,49.62934306682969],[-124.86252323179247,49.629805855187016],[-124.86094674033424,49.63167585261273],[-124.86168245687541,49.62989137196639],[-124.85943505304155,49.62976606071699]]],[[[-124.57549743542272,49.51667235244394],[-124.57839835822848,49.51751406107534],[-124.57897326016533,49.518172072226164],[-124.57740484556402,49.51842707045342],[-124.57549743542272,49.51667235244394]]],[[[-124.78626243175246,49.46647325719763],[-124.78472584811273,49.46637074859151],[-124.78172624308985,49.46659716447515],[-124.78791612969096,49.46602467036924],[-124.78626243175246,49.46647325719763]]],[[[-124.85830783313656,49.62747157323298],[-124.85710204148513,49.62852556330994],[-124.85478623347028,49.626971762369195],[-124.85987044318097,49.62739326275581],[-124.85830783313656,49.62747157323298]]],[[[-124.85026512596755,49.626817857186246],[-124.8463333428359,49.62352654954434],[-124.84575524296265,49.62140306014388],[-124.84417674177242,49.62105985773649],[-124.84633935802074,49.621123959356076],[-124.84985763978887,49.62631227392354],[-124.85350364674758,49.62566996124884],[-124.85026512596755,49.626817857186246]]],[[[-124.85252993739304,49.621555473774976],[-124.84793444942594,49.618274064614276],[-124.8409723548839,49.61575895990534],[-124.8570996178171,49.61792936345553],[-124.85252993739304,49.621555473774976]]],[[[-124.6893479340738,49.54964425518474],[-124.68046613424312,49.55139056267816],[-124.66744364509468,49.55113115839232],[-124.66384464788985,49.54612787004246],[-124.65906154451349,49.54571055911125],[-124.65336764167216,49.5413211707417],[-124.64747072947478,49.5402088669756],[-124.64200454846107,49.541690056899704],[-124.63807343045673,49.53820077682494],[-124.62520712820663,49.53705136943504],[-124.61489003271436,49.52974806704465],[-124.61128205360417,49.53009555528359],[-124.60671093722263,49.52561647097254],[-124.60321173969545,49.52636557485555],[-124.6043402279372,49.52872546365338],[-124.60164802845077,49.52925666046778],[-124.59755853938319,49.52504955251798],[-124.5885316480335,49.52108176426843],[-124.58423935445937,49.51656126157116],[-124.59070771777807,49.517912861101735],[-124.60653175554776,49.5163348709158],[-124.62108251974644,49.52139505958773],[-124.63080352644549,49.52872405983601],[-124.63474025367465,49.52783245702372],[-124.64022382415487,49.52484876905237],[-124.63706745055326,49.52174545362834],[-124.64086982888095,49.52264406241481],[-124.64361413529807,49.51963757688255],[-124.63970693542733,49.514330975432046],[-124.63097332102271,49.50971365847943],[-124.63844534637589,49.505525048962035],[-124.63311764135574,49.5002754708768],[-124.6391075351587,49.5013692544496],[-124.64574184476712,49.497793068793825],[-124.65350091887296,49.49648566222813],[-124.6602743353546,49.492197381135995],[-124.66982295106787,49.49193385862933],[-124.67747984881346,49.497004070857365],[-124.67509264409107,49.49703966436608],[-124.67661144046939,49.499878169316425],[-124.69602754378673,49.50656615124045],[-124.70386303952266,49.51102117038353],[-124.70496073358507,49.51322576848833],[-124.71092372540386,49.51190556557089],[-124.70707494311208,49.51404897728651],[-124.70447735508557,49.51876597285741],[-124.71020881706696,49.53333426028845],[-124.71313643093481,49.53527966250844],[-124.70570593422272,49.54297185732637],[-124.69744804664796,49.54600827225661],[-124.69191473257031,49.54992055451129],[-124.6893479340738,49.54964425518474]]],[[[-124.8264345496648,49.59944606110162],[-124.82057246284612,49.591064566140034],[-124.81314815970278,49.58824886462417],[-124.80828914096341,49.58365575436077],[-124.79307643693414,49.578918875621085],[-124.77696244346912,49.569883670346165],[-124.75580685846617,49.54111605937591],[-124.75534502389779,49.532117968028516],[-124.74631234190268,49.52217127713476],[-124.74515154276335,49.51868906577357],[-124.74160575968028,49.51651286691871],[-124.73985985406308,49.51205936349005],[-124.73091013508466,49.50709315356122],[-124.73074455003001,49.50239895303471],[-124.70968584445058,49.493383765848456],[-124.70838552937694,49.494114377156805],[-124.70296142271461,49.491072267088356],[-124.69342865158248,49.488918853371125],[-124.68539683869,49.4789977702994],[-124.68508124704077,49.474656763356634],[-124.70625332598807,49.47812475950111],[-124.72202934811722,49.484304349397185],[-124.73470484349957,49.48235177452987],[-124.75655035021093,49.4893802518169],[-124.76093713229699,49.49311885885749],[-124.76154784798027,49.49740997299628],[-124.77201162572496,49.50644377054892],[-124.81508165587663,49.531098158024356],[-124.83031245417848,49.53814376447587],[-124.84751683365948,49.55632095355733],[-124.84404605451114,49.556699755305],[-124.8443989327309,49.558330574060044],[-124.8430049470262,49.55843446015422],[-124.84287505219612,49.57296425612127],[-124.83995075433111,49.578353462295404],[-124.84335995420426,49.58510845678408],[-124.83945124061806,49.58675486705105],[-124.83731522481399,49.58552867134652],[-124.83859203205348,49.58968308054532],[-124.83605112980722,49.590892268222795],[-124.83594973819623,49.59298155604595],[-124.83775073588403,49.59561487096601],[-124.83086146202945,49.60161656563545],[-124.83537165320732,49.606330665046734],[-124.84473465613996,49.60906937141693],[-124.82954984538675,49.6061340605618],[-124.8264345496648,49.59944606110162]]],[[[-124.98628362425777,49.65492304199329],[-124.98181338961905,49.65476841466901],[-124.98163132809736,49.64986670129758],[-124.96721633766883,49.64963161226913],[-124.96714646872987,49.64722375700933],[-124.95918614808754,49.64724367236514],[-124.96316436216674,49.647465296860084],[-124.96310431088988,49.652656242283925],[-124.95926034686698,49.65153990176825],[-124.96306186918585,49.653854207745496],[-124.96450129241002,49.656701908012835],[-124.96232290290966,49.657426091102096],[-124.95524534230121,49.653077459996325],[-124.95033252864758,49.652539159899455],[-124.95210415259338,49.65180847563562],[-124.93841852062732,49.644895358057894],[-124.93168314440398,49.64450517540124],[-124.93299353571881,49.645032167760164],[-124.93186304129452,49.64693056478861],[-124.92760255464515,49.64570575887726],[-124.92962583021554,49.645356874025005],[-124.92998993657977,49.644083568451215],[-124.92501813427354,49.64513745490155],[-124.92443114548048,49.642898673635365],[-124.92592344955672,49.64212676611659],[-124.92336394507977,49.64324046910047],[-124.92258872581206,49.642182258076105],[-124.92258365633903,49.63469806109198],[-124.91724436139545,49.63272697145961],[-124.90919712585648,49.62567286300364],[-124.9054441442715,49.61889786521303],[-124.9057722336917,49.61664337621848],[-124.89461273907253,49.603440956626606],[-124.89091275213349,49.6018643643684],[-124.89175953675512,49.60122195745526],[-124.88986004754237,49.60010115998467],[-124.89047854400421,49.59851605398288],[-124.888542440499,49.59463506863346],[-124.88075744218295,49.5933760569749],[-124.8836125610904,49.58807656216787],[-124.88312764780366,49.585557168916395],[-124.88646093793818,49.58661817522431],[-124.88577874948463,49.583993353966356],[-124.88402883764097,49.58418416967913],[-124.88548924098512,49.58362017954665],[-124.88448555655363,49.58130726991583],[-124.87862593739318,49.570652780591196],[-124.87638194483269,49.56911465363934],[-124.87185404372867,49.559212054240156],[-124.87233023104564,49.55578687252278],[-124.8642336360581,49.543575762493575],[-124.8616209442278,49.5425103571671],[-124.85909875618182,49.53614706866825],[-124.84936364033089,49.52611916898585],[-124.84736173044149,49.52617897733478],[-124.84826323215309,49.52515636043762],[-124.84513923700334,49.522598568431455],[-124.83331123243953,49.52332626022794],[-124.83078763672754,49.52159446004127],[-124.82885184252584,49.51641606456294],[-124.83028234618527,49.51397357335041],[-124.83509834653087,49.51345656259403],[-124.82460094929684,49.50388017059624],[-124.81923963253853,49.503065471284124],[-124.82023425885484,49.50161997019848],[-124.81844504277781,49.499533471984215],[-124.81838283645912,49.495998567922626],[-124.81306712905389,49.49638876387464],[-124.8079509173802,49.498896862254504],[-124.80902834491349,49.50261407619462],[-124.80743102851244,49.50574157115964],[-124.79264012992941,49.49790276765242],[-124.79064464281974,49.49164615832863],[-124.7973119345902,49.49458287117682],[-124.79923255210967,49.49351905692893],[-124.79684943618146,49.4925120549895],[-124.79596352650654,49.485329867301914],[-124.79726285213155,49.48537256716262],[-124.7970534446581,49.483019749950365],[-124.7997930352156,49.48016985364797],[-124.79058504235442,49.47415115451534],[-124.79181383134116,49.4737723799504],[-124.79056495072508,49.47246916144162],[-124.79405455202837,49.47083136650185],[-124.7926526486539,49.46723806777183],[-124.79373343954936,49.4643156525677],[-124.79155455256378,49.46364765840662],[-124.7918233294098,49.461897266310345],[-124.78715434906378,49.461826056075544],[-124.78848353101439,49.459647060242915],[-124.78043905253209,49.45968976125065],[-124.78092933321986,49.460987280903126],[-124.77921811501461,49.46065255955465],[-124.78023203614352,49.462697665616524],[-124.78599353171288,49.46212237687653],[-124.77699863640079,49.46873776263345],[-124.76262225094008,49.46507186581754],[-124.7621862391753,49.46328877075607],[-124.75938363081424,49.46361066957175],[-124.75951994974318,49.46242144969569],[-124.75708324454966,49.461460055154525],[-124.75910775092217,49.45748795069137],[-124.75870935372153,49.455569557608],[-124.75776782870372,49.45668187635463],[-124.75666170281154,49.45566334136058],[-124.75675572734568,49.44062403605695],[-124.7334542461927,49.439579452519],[-124.73357320262915,49.404744250981516],[-124.8231406602879,49.404898154327185],[-124.82324564727782,49.4194306201303],[-124.85656044375148,49.41962318919049],[-124.85673494197896,49.42582020949678],[-124.85929180087766,49.42591180793625],[-124.85934462108436,49.43308701386847],[-124.90335082395848,49.432402787069776],[-124.91238544855257,49.42795379754952],[-124.92557910710075,49.43035249810645],[-124.9466833128538,49.43130979327654],[-124.94846486245513,49.433345497483835],[-124.97083560759907,49.43351325947914],[-124.97094173034489,49.44249817642293],[-124.97533163735392,49.44250317266124],[-124.97532993170513,49.445651798674625],[-124.98215138447954,49.445624671507844],[-124.98242082040288,49.45321002011092],[-124.99125682018598,49.45191654044433],[-124.99152559450738,49.45323134906148],[-125.00061929209656,49.45324642160383],[-124.99515828235056,49.45530021913764],[-124.99518864310018,49.457097203171216],[-125.00985553510844,49.459135330995984],[-125.01033442962562,49.46310369826589],[-125.01572008219773,49.46475755033706],[-125.01574186587902,49.46685918562334],[-125.01315766272974,49.46721428775188],[-125.0132887624433,49.47054052676508],[-125.01612236937328,49.47061224223112],[-125.01607354702519,49.47238889869767],[-125.02175226792276,49.47242338844674],[-125.02201319561654,49.47626360508548],[-125.02434003875088,49.47624306370623],[-125.02463059626591,49.481338282615454],[-125.01987274572986,49.4815432582666],[-125.01998975385499,49.486563206361446],[-125.02213381568579,49.486819533800166],[-125.02250708065392,49.49237605604244],[-125.02572276343784,49.492516520398105],[-125.02568402339503,49.49393801044428],[-125.03674738733672,49.493906894992904],[-125.03696025871476,49.49064993206004],[-125.03501686715121,49.49051732351251],[-125.03491868538217,49.48703035804839],[-125.0368656779477,49.48694054030355],[-125.03705844244251,49.48534917157805],[-125.04254275287903,49.48528046611422],[-125.04278143512128,49.48374110188677],[-125.04563827359263,49.483594672390254],[-125.0457728272349,49.48181747655945],[-125.05264977235771,49.481513710391184],[-125.0527218565619,49.477617656549256],[-125.06905560579196,49.47758345839169],[-125.06893533877711,49.47902104245011],[-125.07201964613968,49.47911719994947],[-125.07185541935513,49.480989068793605],[-125.07457193457843,49.48115367163372],[-125.07457410220616,49.48418189327798],[-125.07772936368387,49.48459999473389],[-125.07795217552774,49.48799840194569],[-125.08274048656978,49.48808172539378],[-125.08280287717315,49.491540406060075],[-125.0931589300419,49.49343108540499],[-125.09279889077011,49.502213015727015],[-125.1021169706757,49.50230738835149],[-125.10230915456351,49.5039707327209],[-125.10717847794298,49.504011542598796],[-125.10850948901076,49.514790351669774],[-125.11470371816868,49.51474851010507],[-125.1148814541817,49.51897616050491],[-125.12086819092926,49.51982735205547],[-125.12105085443335,49.522280986443555],[-125.12376724429453,49.52240592732317],[-125.12379043715337,49.525794591013494],[-125.11950888738109,49.52594592777579],[-125.11947928880676,49.5291466683642],[-125.11426790069763,49.529199504876395],[-125.11752693274398,49.53219056692887],[-125.11125066527254,49.53634929235235],[-125.11956674263557,49.53628265244129],[-125.11995500398531,49.53810439342724],[-125.12403469700163,49.53804561851525],[-125.12416673682682,49.54018337599991],[-125.13269608333184,49.54116444291278],[-125.13292151744264,49.54304814079461],[-125.14392699962433,49.54210679729081],[-125.14308567242864,49.54622689284842],[-125.13949559314315,49.54936172170122],[-125.14099352637433,49.55359433466879],[-125.15176987903583,49.553731347722646],[-125.15463071825603,49.558064538707534],[-125.16422676758094,49.557994783154264],[-125.16116748408491,49.563397320330886],[-125.15172768880524,49.56535414607178],[-125.15297802665307,49.5694991009292],[-125.1489106705037,49.56965537729618],[-125.14886188477449,49.57097138819223],[-125.13442814966261,49.571417702116165],[-125.13398900410765,49.57446432557205],[-125.12723799600784,49.57471969184457],[-125.12670505206125,49.5727343850862],[-125.11494231467259,49.5731420855535],[-125.11628526880162,49.57677903526396],[-125.11145502952849,49.57700691191321],[-125.11122251265802,49.57873529597509],[-125.10533799284792,49.57976624261575],[-125.10827011337123,49.58293775159031],[-125.10832107933989,49.585878030841734],[-125.11580200685101,49.58527185403665],[-125.11569309270075,49.59001739076238],[-125.11995570681111,49.590082565149686],[-125.11982415352252,49.59186506624504],[-125.12254493308379,49.59179677190802],[-125.12250825196975,49.5936835426342],[-125.1251943056081,49.59370008429355],[-125.12532236486018,49.59552673756418],[-125.13085921874648,49.59549515293083],[-125.13084501387155,49.60446419004079],[-125.11036730677525,49.604130436152495],[-125.11004055023793,49.607712070358254],[-125.0872911618828,49.607080284254636],[-125.08695782707514,49.60302418737341],[-125.08944525129985,49.596521007313804],[-125.09295465989632,49.59457082094971],[-125.0981478157246,49.594516282151034],[-125.09794055862952,49.58940232139708],[-125.09455866027604,49.5881045298998],[-125.08440021055532,49.589919424513205],[-125.08472611369709,49.59192732766804],[-125.0915466204669,49.590551729690915],[-125.09252936674498,49.59302402891865],[-125.08689881883116,49.59788321933103],[-125.08071909562399,49.59851889596541],[-125.07464949325866,49.60132083402875],[-125.06137743933051,49.59833337611591],[-125.06051412289028,49.59912595407014],[-125.06208709301747,49.600190787591636],[-125.04115594834725,49.60100099470576],[-125.03541797900458,49.59688085742964],[-125.0268912963099,49.597432878275434],[-125.0293827505155,49.5981523236144],[-125.02887549438843,49.60014810172264],[-125.03214843557372,49.59954832544833],[-125.04164392235808,49.602054280985925],[-125.04266194225013,49.61220247172862],[-124.99419098890634,49.61208968630313],[-124.99425212063424,49.62538729187517],[-124.99737989809226,49.626833176130006],[-124.99766216599542,49.63263242858804],[-125.00263469532597,49.63213209421882],[-125.00253571764416,49.63970400654869],[-125.00757380809293,49.64808147728078],[-125.00338068050075,49.64834927859498],[-125.00393753206484,49.653941652035314],[-125.01001700139511,49.65336480304659],[-125.00847004015407,49.664897071310115],[-125.00518555086788,49.66660905292733],[-124.99805077213485,49.66091664389363],[-124.99861753328067,49.65986341056322],[-124.99328299849806,49.65731530641499],[-124.98615739435026,49.65722669879742],[-124.98628362425777,49.65492304199329]]]]},"bbox":[-125.16422676758094,49.404744250981516,-124.57549743542272,49.66660905292733]},{"id":"5926022","type":"Feature","properties":{},"geometry":{"type":"MultiPolygon","coordinates":[[[[-124.9736578319337,49.68011035368856],[-124.97425035708252,49.680037766352754],[-124.97552253642077,49.68029555395658],[-124.97427655505807,49.680333969375226],[-124.9736578319337,49.68011035368856]]],[[[-124.96064732996088,49.67578937337005],[-124.96625124102724,49.67695436894565],[-124.96981232823691,49.67861065936571],[-124.96352134698012,49.676955756719835],[-124.96064732996088,49.67578937337005]]],[[[-124.86534409141724,49.70624419471868],[-124.86308892624562,49.70738785190768],[-124.86133382331724,49.70480069777455],[-124.8651664901312,49.70423189639072],[-124.86322866405227,49.70291274438656],[-124.86540300925583,49.70117104778041],[-124.87109220308123,49.704885299486186],[-124.8742265246491,49.705201995420396],[-124.86534409141724,49.70624419471868]]],[[[-124.97448050467064,49.694430179868704],[-124.97148707569234,49.69473959737586],[-124.96414978508832,49.687986699585124],[-124.96020189688316,49.68946349128147],[-124.95269746689696,49.68873678313345],[-124.95810058281927,49.68586735791346],[-124.95640173118706,49.68438726815005],[-124.9608333652146,49.681603982244575],[-124.96105829666837,49.67798917458349],[-124.97360462736941,49.68122696087709],[-124.97546564376597,49.6805449773002],[-124.9763001196612,49.679877136073195],[-124.98194450552607,49.682630938780164],[-124.97864852938298,49.68441566013549],[-124.98482741560245,49.6847395515456],[-124.98923461756824,49.6871786569377],[-124.97448050467064,49.694430179868704]]],[[[-124.90284843383492,49.70295359618397],[-124.89976365880995,49.70407445268881],[-124.89006850004007,49.70239228820266],[-124.88555090548303,49.70679896309355],[-124.87966210129589,49.70247429795353],[-124.8802638968937,49.70118785470282],[-124.876767681752,49.7017545391751],[-124.86751741280445,49.69586051283305],[-124.87159688105501,49.69409709160955],[-124.8691164507244,49.69359851434812],[-124.8705605696691,49.69184353879561],[-124.87964083173601,49.691269760435176],[-124.87916574840304,49.68927174162275],[-124.8748647899091,49.68904386479509],[-124.88319624128165,49.68601351627383],[-124.8793515567377,49.68419740369021],[-124.88569223331324,49.676387579539316],[-124.89686504941697,49.66964676472907],[-124.90439364542335,49.66259685662844],[-124.91481475945206,49.66153446147953],[-124.92097416052998,49.65924576774227],[-124.92513523003295,49.660040469810696],[-124.92616524167605,49.66120255641592],[-124.9239544543104,49.66245306860486],[-124.9160756542364,49.66190896215479],[-124.91524333561588,49.66396556054775],[-124.90462914125065,49.662979953641276],[-124.90067824090653,49.66648927728299],[-124.90311884610828,49.66898586795232],[-124.90922267506433,49.66945947904483],[-124.9089668001829,49.67385168813246],[-124.90489108302796,49.67343988286812],[-124.90500333032342,49.67460206802489],[-124.90893040654223,49.67462680959821],[-124.90860264472468,49.68201599178987],[-124.90641473697941,49.68198058198048],[-124.9064611176581,49.680030806752335],[-124.90197943624858,49.67831761664207],[-124.90218060952718,49.67458421305436],[-124.8975197805097,49.674528134748435],[-124.89736591458583,49.68238689840636],[-124.89390949769913,49.684197495229135],[-124.89803835447185,49.68795194593746],[-124.89822526320448,49.692658323867064],[-124.90928105353062,49.6925592129072],[-124.90947884136752,49.70454445626653],[-124.90371895367376,49.70476043729749],[-124.90284843383492,49.70295359618397]]],[[[-125.04692471716044,49.77864960232266],[-125.04021939983718,49.78164969502123],[-125.02675422460452,49.780294804754526],[-125.00626613698482,49.79390898098864],[-124.99324433189632,49.78778206978],[-124.98484582817167,49.780811960477415],[-124.9825627298449,49.77699226638994],[-124.97347594838264,49.774519750451724],[-124.97127484505219,49.767874476968984],[-124.96337414153359,49.76137006374712],[-124.95025192572126,49.75927076920687],[-124.94061913073656,49.74927716513429],[-124.92834443293499,49.74015366923799],[-124.92683125029035,49.7397918703951],[-124.92516702917344,49.74124176495801],[-124.92351314486326,49.741493853262206],[-124.92482385830151,49.74026615920213],[-124.92311424594081,49.73912536849044],[-124.91314393932034,49.73973206573709],[-124.91115833001788,49.73689507447803],[-124.90603744818911,49.73547655777924],[-124.90172803333968,49.731391868774516],[-124.89131301471159,49.72691637907829],[-124.91138918438193,49.726568750065546],[-124.91183629171236,49.72494649810571],[-124.91344679259026,49.72498049997429],[-124.90886702378621,49.718323503869044],[-124.9089314815351,49.71502289985293],[-124.91445340272747,49.71495479359637],[-124.91665619282182,49.71177889101739],[-124.9200589329955,49.71187650765581],[-124.92014039652712,49.703132254785636],[-124.92885859626996,49.70098242704121],[-124.9342389941205,49.70196669290286],[-124.93453429092186,49.69484019264806],[-124.9258378503522,49.69466189761424],[-124.92565335887949,49.69733125020493],[-124.92124035956067,49.69738044105957],[-124.92163542497141,49.68800968989856],[-124.92448171514715,49.68806261584729],[-124.92372534933698,49.68580105036879],[-124.92674101422166,49.685847147847234],[-124.92708595576438,49.68467697700271],[-124.93023641848502,49.68483942404174],[-124.93069679449962,49.68820521444968],[-124.93286389674992,49.68825612908458],[-124.93252349372217,49.68970944296497],[-124.93790734516556,49.68933792504532],[-124.9383640369836,49.69204575732389],[-124.94538184764052,49.69370193109253],[-124.94387230962776,49.706106515026704],[-124.93992146003488,49.705833581979846],[-124.93992051706715,49.70966527612905],[-124.93394169947327,49.70955792394917],[-124.93326747270099,49.729727789259876],[-124.94452889770879,49.729982575028544],[-124.94478516021111,49.73386798125501],[-124.93313970805445,49.733771743607946],[-124.93301427530359,49.73876827963354],[-124.93568490206341,49.74093351174492],[-124.94386120246601,49.7409200546375],[-124.9440569021822,49.737139841595656],[-124.9554490034792,49.736939888978334],[-124.95532679475441,49.74060229436799],[-124.96598320508744,49.74072453534062],[-124.97797861938596,49.733833012815104],[-124.9709625030674,49.728323113598286],[-124.96909522187485,49.72452110564585],[-124.9796019614005,49.72360412660037],[-124.98729590029328,49.719613671259886],[-124.98609893676323,49.71827102701415],[-124.99072481248928,49.71597129343634],[-124.99327439882035,49.71634205390455],[-124.99327352348455,49.71970090512044],[-124.99637598209735,49.72263782135069],[-124.99981059328222,49.72535292652907],[-125.00130042269929,49.72485300866725],[-125.00573371262057,49.72252287340243],[-124.99949066728873,49.71705584544498],[-124.99739508275286,49.718093502430875],[-124.99464669252829,49.71593956931531],[-125.01304248347543,49.70762685228821],[-125.01445622006415,49.710028700262235],[-125.0123594991762,49.717319201126294],[-125.0178145980743,49.714562014503656],[-125.02306579072278,49.718884393992376],[-125.01968740952412,49.72146078643362],[-125.02649264166546,49.72396352124395],[-125.0185233085381,49.72619652186651],[-125.01055454456377,49.73102876815435],[-125.01329275279805,49.73278906875813],[-125.01552271885633,49.74042425890788],[-125.02026544287139,49.748013868181026],[-125.01892823657795,49.750195776804574],[-125.02445053569899,49.755146270809696],[-125.02429275336057,49.75770417412598],[-125.02630004620397,49.75887345042972],[-125.02718244482618,49.76204235909106],[-125.03749865867734,49.76467706027275],[-125.04329995873223,49.770520671897295],[-125.0478375946572,49.771462691054154],[-125.0502524093384,49.777628007061416],[-125.04692471716044,49.77864960232266]]]]},"bbox":[-125.0502524093384,49.65924576774227,-124.86133382331724,49.79390898098864]},{"id":"5926024","type":"Feature","properties":{},"geometry":{"type":"Polygon","coordinates":[[[-125.32933180961346,49.919765895618625],[-125.32372802859871,49.91974031744693],[-125.30982972431151,49.91317563463222],[-125.30730125658367,49.90939636781901],[-125.31130557075937,49.90562476285201],[-125.30890413353619,49.90289558930352],[-125.29750163327294,49.89512377200404],[-125.28539075686223,49.89043280441015],[-125.27783391812625,49.8829668173899],[-125.27443359934132,49.8836056138876],[-125.27443622195868,49.885150902403716],[-125.26470521920568,49.88644025439956],[-125.2670809981199,49.8901996886038],[-125.26407061909846,49.89613300028987],[-125.26136790531805,49.89402798717357],[-125.25663560254048,49.89694049764506],[-125.23754709932226,49.892729086288796],[-125.23618391104843,49.89366480058033],[-125.23693108834907,49.895865199597175],[-125.23423790524592,49.89481129229911],[-125.22684509883105,49.8968109145612],[-125.22403079255024,49.89579970955102],[-125.22712461462426,49.892969808909314],[-125.22473550863529,49.8909517092581],[-125.22521628240456,49.88807910141898],[-125.21943550590102,49.887949483977565],[-125.21527970948618,49.883880497413536],[-125.21257040262024,49.88704648969147],[-125.20682170407483,49.88704940924932],[-125.20483572249628,49.88856760601874],[-125.20196560476144,49.88667620743968],[-125.19769951341713,49.88669759118888],[-125.19581198265206,49.88347179598512],[-125.18766918183077,49.88280100401694],[-125.18723909906461,49.880441006331175],[-125.18462710090571,49.878554004026796],[-125.18223951799226,49.879610704790736],[-125.18006951320628,49.875856492694204],[-125.1734142948955,49.8748253966541],[-125.16958621360806,49.87145139135901],[-125.1633921005238,49.870233696238195],[-125.161451103981,49.8650410978366],[-125.15439200282835,49.86534220521228],[-125.14531318354685,49.870003002180056],[-125.1428525000548,49.86849590503014],[-125.13608758953634,49.86969249457632],[-125.13178068930537,49.867821099475975],[-125.11603803227518,49.87247794199195],[-125.11414411689388,49.871535559851175],[-125.11671284267797,49.87174917873197],[-125.11861982734635,49.870787766195065],[-125.11580652649448,49.871361763451745],[-125.11473312755939,49.863366263848576],[-125.1108041382734,49.85945256474358],[-125.10076132814633,49.855659873150586],[-125.10054373563142,49.85354915442586],[-125.09648144162409,49.85291257892957],[-125.09301484277621,49.84960266611536],[-125.07811544009066,49.84672155347653],[-125.06381285285043,49.83944807174452],[-125.05436972295514,49.82899296672006],[-125.04320763097772,49.82249717846183],[-125.03344992127273,49.81991646501836],[-125.00682357581628,49.79403860791191],[-125.02675422460452,49.780294804754526],[-125.04021939983718,49.78164969502123],[-125.0502524093384,49.777628007061416],[-125.0478375946572,49.771462691054154],[-125.04329995873223,49.770520671897295],[-125.03749865867734,49.76467706027275],[-125.02718244482618,49.76204235909106],[-125.02630004620397,49.75887345042972],[-125.02429275336057,49.75770417412598],[-125.02445053569899,49.755146270809696],[-125.01892823657795,49.750195776804574],[-125.02026544287139,49.748013868181026],[-125.01552271885633,49.74042425890788],[-125.01329275279805,49.73278906875813],[-125.01055454456377,49.73102876815435],[-125.0185233085381,49.72619652186651],[-125.02649264166546,49.72396352124395],[-125.01968740952412,49.72146078643362],[-125.02298059015537,49.71866229983753],[-125.01752320386082,49.71452489938752],[-125.0123594991762,49.717319201126294],[-125.01445622006415,49.710028700262235],[-125.0134284893788,49.70801201332295],[-125.00906540994093,49.70466228981394],[-124.99929025091514,49.702545975901224],[-125.015145698047,49.69462214017082],[-125.0105493869037,49.690770188179485],[-125.0199634861369,49.68769709907009],[-125.02680138468662,49.68744639515506],[-125.0301619930346,49.68490141859798],[-125.0266488784111,49.68299227175944],[-125.03260008127255,49.68206300355952],[-125.02707290194756,49.67774420885734],[-125.02278239527082,49.68015340517912],[-125.01796530872001,49.67647223907317],[-125.02457834883464,49.67288516288764],[-125.02736159279253,49.67430306807344],[-125.02908217332967,49.67343877435523],[-125.02712754518119,49.67139448767875],[-125.02110060649828,49.67208987591326],[-125.02290552796279,49.67360111355102],[-125.0178363473637,49.67637334428679],[-125.01134384928596,49.67139011110098],[-125.02045550567627,49.666320846033905],[-125.0117817150888,49.66041441975706],[-125.00947588508666,49.66214667046961],[-125.0118179222748,49.66316919712496],[-125.00847004015407,49.664897071310115],[-125.00963497987537,49.65136609585313],[-125.01735089633131,49.64725231664567],[-125.02587724973279,49.65381715100431],[-125.06910452258381,49.65459634421134],[-125.07904942130708,49.657329174938674],[-125.08877811747453,49.655240920100816],[-125.09264999497044,49.65238780371789],[-125.0932213699423,49.64682988877826],[-125.08032890702893,49.64662964542268],[-125.08078669336729,49.62568140693201],[-125.0677610074572,49.62488351403833],[-125.06737950680518,49.616352957541764],[-125.05629744560822,49.614555865906816],[-125.05594400104795,49.610415961885955],[-125.057099179262,49.608624739603464],[-125.06673260654746,49.60842895734277],[-125.06669747661034,49.60638898377828],[-125.07532809416534,49.60632918321115],[-125.08719545858177,49.6087540017396],[-125.0872911618828,49.607080284254636],[-125.11004055023793,49.607712070358254],[-125.11036730677525,49.604130436152495],[-125.13084501387155,49.60446419004079],[-125.13085921874648,49.59549515293083],[-125.12532236486018,49.59552673756418],[-125.1251943056081,49.59370008429355],[-125.12250825196975,49.5936835426342],[-125.12254493308379,49.59179677190802],[-125.11982415352252,49.59186506624504],[-125.11995570681111,49.590082565149686],[-125.11569309270075,49.59001739076238],[-125.11580200685101,49.58527185403665],[-125.10832107933989,49.585878030841734],[-125.10827011337123,49.58293775159031],[-125.10533799284792,49.57976624261575],[-125.11122251265802,49.57873529597509],[-125.11145502952849,49.57700691191321],[-125.11628526880162,49.57677903526396],[-125.11494231467259,49.5731420855535],[-125.12670505206125,49.5727343850862],[-125.12723799600784,49.57471969184457],[-125.13398900410765,49.57446432557205],[-125.13442814966261,49.571417702116165],[-125.14886188477449,49.57097138819223],[-125.1489106705037,49.56965537729618],[-125.15297802665307,49.5694991009292],[-125.15172768880524,49.56535414607178],[-125.16116748408491,49.563397320330886],[-125.1612335583411,49.561353681565784],[-125.16420460650113,49.55958932634389],[-125.16422676758094,49.557994783154264],[-125.15463071825603,49.558064538707534],[-125.15176987903583,49.553731347722646],[-125.14099352637433,49.55359433466879],[-125.13949559314315,49.54936172170122],[-125.14308567242864,49.54622689284842],[-125.14392699962433,49.54210679729081],[-125.13292151744264,49.54304814079461],[-125.13269608333184,49.54116444291278],[-125.12416673682682,49.54018337599991],[-125.12403469700163,49.53804561851525],[-125.11995500398531,49.53810439342724],[-125.11956674263557,49.53628265244129],[-125.11125066527254,49.53634929235235],[-125.11752693274398,49.53219056692887],[-125.11426790069763,49.529199504876395],[-125.11947928880676,49.5291466683642],[-125.11950888738109,49.52594592777579],[-125.12379043715337,49.525794591013494],[-125.12376724429453,49.52240592732317],[-125.12105085443335,49.522280986443555],[-125.12086819092926,49.51982735205547],[-125.1148814541817,49.51897616050491],[-125.11470643796349,49.51481257682858],[-125.12631342124783,49.51516149839931],[-125.12625267413108,49.518575025831005],[-125.13089010594223,49.51853633857817],[-125.13099602811452,49.52202601285208],[-125.13653320646289,49.521936790193934],[-125.13682911750351,49.52509154114783],[-125.14045729921722,49.52539146212669],[-125.14053833932269,49.5288742501917],[-125.1491473315735,49.52879320831695],[-125.14905438689883,49.52165626004937],[-125.1409198808501,49.52066438300162],[-125.1411649070873,49.511690748322],[-125.12860063549392,49.51197503578593],[-125.12877300894083,49.51037189324654],[-125.13412585323296,49.51034150102693],[-125.1341791899151,49.50335402277612],[-125.14106606354373,49.50337700441853],[-125.14103277035305,49.50493871878798],[-125.16162554957663,49.508108937874],[-125.16174429648935,49.50984474908656],[-125.17319892026508,49.51015106277166],[-125.17346804334414,49.50052349512123],[-125.17103903269154,49.500490363800814],[-125.170886866038,49.49737565568965],[-125.16651427024298,49.49721049245839],[-125.1666151485446,49.4917152017087],[-125.16884152355286,49.49052773888394],[-125.17664455141313,49.491909766995434],[-125.18731745379955,49.49019883258373],[-125.19836037127371,49.49450898347424],[-125.21998234897104,49.49047762373183],[-125.23395370704515,49.49103256523671],[-125.51374419487999,49.7102111617859],[-125.51500017848835,49.71542722873424],[-125.49619270107505,49.724971365990875],[-125.49501144551289,49.73429767900384],[-125.49128780673256,49.74080975264111],[-125.52189957832762,49.75457227290015],[-125.52831494983319,49.756264862864164],[-125.54589139497857,49.7553484002314],[-125.54808832592818,49.7625761776334],[-125.5451202650186,49.76866998807808],[-125.55307219894848,49.78518961935941],[-125.53551812475125,49.79661036086294],[-125.51154485590352,49.802963708672536],[-125.51000227829712,49.815669729582076],[-125.50617319640453,49.81652082326533],[-125.502315848842,49.827010146983156],[-125.49697632268038,49.82855344864955],[-125.49332039086781,49.83671268442805],[-125.48635263585068,49.8373948943037],[-125.48570589835201,49.827473546608566],[-125.42315120253184,49.828855505562935],[-125.4232957868849,49.836108193748785],[-125.38829436766119,49.83623129889666],[-125.388308964738,49.83978122081123],[-125.38276249784371,49.83972250415489],[-125.38278956695987,49.84816080934877],[-125.4025567579613,49.84828857842597],[-125.40343322732205,49.874478801507976],[-125.35599680613389,49.87450628754754],[-125.3550173332199,49.878661270617485],[-125.35784293080852,49.88397343366328],[-125.35736491205412,49.887403809133836],[-125.3589848513791,49.89108034060524],[-125.35337335321879,49.90217736730052],[-125.35361012080746,49.90901760688091],[-125.32933180961346,49.919765895618625]]]},"bbox":[-125.55307219894848,49.49019883258373,-124.99929025091514,49.919765895618625]},{"id":"5926801","type":"Feature","properties":{},"geometry":{"type":"Polygon","coordinates":[[[-124.95017759854925,49.67463431344738],[-124.95721084456075,49.67789007069215],[-124.96105829666837,49.67798917458349],[-124.9608333652146,49.681603982244575],[-124.95640173118706,49.68438726815005],[-124.94978792009621,49.682460958161606],[-124.95017759854925,49.67463431344738]]]},"bbox":[-124.96105829666837,49.67463431344738,-124.94978792009621,49.68438726815005]},{"id":"5926802","type":"Feature","properties":{},"geometry":{"type":"Polygon","coordinates":[[[-124.99753363376455,49.700403005939094],[-124.9939944367443,49.70151372288799],[-124.99200014186802,49.69985680433895],[-124.99197682485216,49.69747319841178],[-124.99492984706353,49.69578141655752],[-124.99742361484728,49.699604893041524],[-124.999281008067,49.699500898732396],[-125.00338710286098,49.69274879266367],[-125.0105493869037,49.690770188179485],[-125.015145698047,49.69462214017082],[-124.9978644086907,49.704129607270765],[-124.99753363376455,49.700403005939094]]]},"bbox":[-125.015145698047,49.690770188179485,-124.99197682485216,49.704129607270765]}],"bbox":[-125.55307219894848,49.404744250981516,-124.57549743542272,49.919765895618625]}