{"type":"FeatureCollection","features":[{"id":"5935010","type":"Feature","properties":{},"geometry":{"type":"Polygon","coordinates":[[[-119.39542064501853,50.023214927563274],[-119.39543294594577,50.02191455164589],[-119.3920018373343,50.021862489839954],[-119.39201827786788,50.02472265323791],[-119.38530520997787,50.02486746190298],[-119.38535331247981,50.02009118515315],[-119.37465322347371,50.01999469054297],[-119.37582554706233,49.97706787023746],[-119.36656373457524,49.97733071543756],[-119.36597242040662,49.973302039521954],[-119.36380337497255,49.973139905899686],[-119.36324203515912,49.96845826988527],[-119.37555719429984,49.97044598551894],[-119.37590956577273,49.960305928384045],[-119.36887199482341,49.96036021557928],[-119.36933118851263,49.94467970029858],[-119.36410109748361,49.93990149167284],[-119.37753149107755,49.940003197981675],[-119.37799210162412,49.93562901539835],[-119.37547785728101,49.93540033330814],[-119.37551758486548,49.931270405617894],[-119.3820673790403,49.93120557768963],[-119.38241291815255,49.9290698916806],[-119.37124122568257,49.929459450393296],[-119.37024236453227,49.92301990480853],[-119.37220094080355,49.921840534508334],[-119.36418060975251,49.92167113820111],[-119.36420293472167,49.92012858729869],[-119.3529678779414,49.920284422952285],[-119.35184990049062,49.91806112971851],[-119.33126149365141,49.918083429753345],[-119.33075318813208,49.87471082277654],[-119.3200773565293,49.874546658229],[-119.31995739638288,49.8528008396874],[-119.34229700573566,49.85287964264883],[-119.34209080126111,49.83146697078806],[-119.35396729324546,49.831245792630675],[-119.35411739144675,49.824508183485825],[-119.40961293422404,49.82303017624191],[-119.40976148748945,49.81626210611119],[-119.42135682674363,49.81637488146741],[-119.42135907994128,49.80885753105048],[-119.44436785548719,49.80812833810409],[-119.4440171746449,49.79393333246652],[-119.45544195378577,49.79395652318835],[-119.45549581973911,49.78833529681747],[-119.51284482256227,49.78899453401962],[-119.51254498204321,49.781292352428935],[-119.54488319066287,49.78099342961821],[-119.54496629858036,49.77412142990875],[-119.58884436325252,49.77340274396943],[-119.58977112969032,49.80147075485643],[-119.56454951237649,49.810007298552435],[-119.53234349315792,49.82854150485201],[-119.52218399585455,49.83686621071869],[-119.51703783014106,49.84541644816807],[-119.51149574267777,49.8787445483379],[-119.51410204932239,49.892772087909925],[-119.51864151300802,49.900522961838924],[-119.51827449271363,49.903977101613805],[-119.51489821566182,49.90995429434924],[-119.48451281044454,49.940937508786476],[-119.48167899290728,49.9476752048642],[-119.47898409149641,49.96671807588005],[-119.47046994163293,49.9807163188476],[-119.46289518720826,50.00436034301797],[-119.4463967690166,50.00594088942036],[-119.40288223691188,50.00540458133813],[-119.403928241478,49.99738874755751],[-119.39790872423731,50.00040364917239],[-119.4001941145718,50.005106459549545],[-119.39091382775608,50.00285185899466],[-119.38736742988041,50.000603070437066],[-119.38886584613519,49.99616212152483],[-119.38548071057771,49.99670200305225],[-119.38428928477755,50.005737254686544],[-119.39047552543802,50.00602504627111],[-119.39163022855462,50.0075860364118],[-119.3916978038268,50.02014000610902],[-119.39914063169792,50.02011463417174],[-119.39911849742629,50.022538311238044],[-119.39541350478294,50.02598126996966],[-119.39542064501853,50.023214927563274]]]},"bbox":[-119.58977112969032,49.77340274396943,-119.31995739638288,50.02598126996966]},{"id":"5935012","type":"Feature","properties":{},"geometry":{"type":"Polygon","coordinates":[[[-119.14534753475147,50.14835637175223],[-119.14125469609672,50.1388523392404],[-119.1409960610131,50.11926973585507],[-119.1501113143489,50.105829202357384],[-119.16528887291719,50.0932897688017],[-119.1695220048269,50.0856161506683],[-119.17296376838695,50.077099121286025],[-119.16705250911453,50.0700948415616],[-119.17768974773756,50.059723545916114],[-119.17742334006432,50.05598866240631],[-119.17338962845021,50.049743202834335],[-119.16048382199779,50.048200863096675],[-119.15057177912118,50.048900467971215],[-119.14334882401266,50.04495151202652],[-119.12959787233275,50.046125578391994],[-119.10546348712556,50.04531586049218],[-119.09677536994982,50.05208455404603],[-119.09403012668892,50.052612123254],[-119.08221708352542,50.04609672234747],[-119.0723592217459,50.04602686663828],[-119.07110857514466,50.04212974059147],[-119.0643060752794,50.037050227358044],[-119.0462173466337,50.04168599944109],[-119.03041622350433,50.04078241924124],[-118.99787975775567,50.04768235964071],[-118.98691923441231,50.048039543020344],[-118.98203719622254,50.04537550740411],[-118.97767239218477,50.04517873323646],[-118.95823145653559,50.0476307759344],[-118.94687217625464,50.05703549342725],[-118.93888834980854,50.04997137475038],[-118.92330719931438,50.04284405329735],[-118.91697106555223,50.044432274031124],[-118.91290360193388,50.052473174802586],[-118.90779178722052,50.0539061513565],[-118.8991791725616,50.054841687312894],[-118.88946046586749,50.05105953103065],[-118.87917300240866,50.05337571516988],[-118.86889732166871,50.052790096914016],[-118.86426194820632,50.04259427181401],[-118.85908957096025,50.03653038437732],[-118.83503390963601,50.035765330463825],[-118.82878911420676,50.02705859115635],[-118.82308220801042,50.0224474952087],[-118.81459985631764,50.02583750466662],[-118.80988513068323,50.02183867920897],[-118.81655804683862,50.00735589763857],[-118.82211627049142,50.004473480649814],[-118.82274210833724,49.99996711440428],[-118.8088634511391,49.98947847776323],[-118.7975574090316,49.98766180869588],[-118.80209538991404,49.980988212136644],[-118.80099273816923,49.96655056552839],[-118.8050237220668,49.96460110507792],[-118.80803768868545,49.95561448144443],[-118.82617885175056,49.95240366714802],[-118.8523283582071,49.957901918062525],[-118.85845027605545,49.95690151267729],[-118.85792439822636,49.95149577570039],[-118.8645093263153,49.9412331225958],[-118.87488884579709,49.94054334825088],[-118.87922511129875,49.93742996990476],[-118.89329258632714,49.93752389675391],[-118.90379048281493,49.931845768604376],[-118.91096008413311,49.92076643694466],[-118.90283103053005,49.9192395081351],[-118.9023542876049,49.91566787535818],[-118.90731570669635,49.906664669672],[-118.91460112222565,49.902991672034005],[-118.92304814176669,49.90610054734266],[-118.93485997076,49.91566296602294],[-118.94231799377881,49.913949413523596],[-118.96421631896995,49.90367991779759],[-118.96892890888515,49.89564700814425],[-118.9768378826177,49.89286861163945],[-118.97571224449618,49.884378798907846],[-118.97675655257451,49.87865727584994],[-119.00758753032741,49.85975014405421],[-119.01122773982964,49.851977945103584],[-119.01485892719614,49.85412554656171],[-119.02217993805701,49.852232554827125],[-119.02481300921893,49.84589201526683],[-119.05417501799343,49.81576475763745],[-119.065498767854,49.798213741562535],[-119.08553121543846,49.799093530093614],[-119.09963882501147,49.79322364773175],[-119.11572152955752,49.79094718997694],[-119.12205800855173,49.795550215953675],[-119.1336119122747,49.79934634942128],[-119.15385029089585,49.79951502826364],[-119.15167848938268,49.79265427819369],[-119.1527306624581,49.76400540450179],[-119.16401273859643,49.7638630666831],[-119.16374501950878,49.75783022508585],[-119.18535483217566,49.75822712655454],[-119.20160140985641,49.753629091582596],[-119.19840622409997,49.74695612726255],[-119.19977976860929,49.74213791039518],[-119.20686180356488,49.73725406064974],[-119.22018079526562,49.73924047913334],[-119.22855429097648,49.73515284744404],[-119.26293656005778,49.74478184543756],[-119.26911724863746,49.73931872451645],[-119.27182000713279,49.73021398309605],[-119.28658815256819,49.72630979925612],[-119.2956800699822,49.715192936856916],[-119.3230858334502,49.69812964790572],[-119.32586647006598,49.69706527667315],[-119.33182337870915,49.69845473023953],[-119.3398983680984,49.69488532169374],[-119.34784639859838,49.693645319851214],[-119.34793019380628,49.69226779753467],[-119.36156730319917,49.686681936491254],[-119.36927073214088,49.679673626711846],[-119.37276599845768,49.67864725992056],[-119.4055210397438,49.6840509544799],[-119.4182623945247,49.68065972519627],[-119.42277411212066,49.67527462217537],[-119.42703348088702,49.67538799248848],[-119.43475224839973,49.685790865707496],[-119.44678108803689,49.6912556337217],[-119.44799597900011,49.70037324540083],[-119.4538986546869,49.70227846921166],[-119.45628817458045,49.71859105894967],[-119.45876379569954,49.725470079710625],[-119.48030641733533,49.74470891100883],[-119.4858974773619,49.74639297572117],[-119.50130051888746,49.730465812205175],[-119.51081529574893,49.72537966023443],[-119.51539033086553,49.727903983478555],[-119.5173623050215,49.734052256981215],[-119.51931462476735,49.74130271404753],[-119.51902101443235,49.752903279684105],[-119.55631926363134,49.75314119725111],[-119.55662401952523,49.76018602594345],[-119.66098669363876,49.75900515364663],[-119.69708950614634,49.76073836640434],[-119.69745586040732,49.77516161916299],[-119.69007581127721,49.778092189514744],[-119.58977112969032,49.80147075485643],[-119.58884436325252,49.77340274396943],[-119.54496629858036,49.77412142990875],[-119.54488319066287,49.78099342961821],[-119.51254498204321,49.781292352428935],[-119.51284482256227,49.78899453401962],[-119.45549581973911,49.78833529681747],[-119.45544195378577,49.79395652318835],[-119.4440171746449,49.79393333246652],[-119.44436785548719,49.80812833810409],[-119.42135907994128,49.80885753105048],[-119.42135682674363,49.81637488146741],[-119.40976148748945,49.81626210611119],[-119.40961293422404,49.82303017624191],[-119.35411739144675,49.824508183485825],[-119.35396729324546,49.831245792630675],[-119.34209080126111,49.83146697078806],[-119.34229700573566,49.85287964264883],[-119.31995739638288,49.8528008396874],[-119.3200773565293,49.874546658229],[-119.33075318813208,49.87471082277654],[-119.33126149365141,49.918083429753345],[-119.35184990049062,49.91806112971851],[-119.3529678779414,49.920284422952285],[-119.36420293472167,49.92012858729869],[-119.36418060975251,49.92167113820111],[-119.37220094080355,49.921840534508334],[-119.37024236453227,49.92301990480853],[-119.37124122568257,49.929459450393296],[-119.38241291815255,49.9290698916806],[-119.3820673790403,49.93120557768963],[-119.37551758486548,49.931270405617894],[-119.37547785728101,49.93540033330814],[-119.37799210162412,49.93562901539835],[-119.37753149107755,49.940003197981675],[-119.36410109748361,49.93990149167284],[-119.36933118851263,49.94467970029858],[-119.36887199482341,49.96036021557928],[-119.37590956577273,49.960305928384045],[-119.37555719429984,49.97044598551894],[-119.36324203515912,49.96845826988527],[-119.36380337497255,49.973139905899686],[-119.36597242040662,49.973302039521954],[-119.36656373457524,49.97733071543756],[-119.37582554706233,49.97706787023746],[-119.37552530306228,50.00505412975598],[-119.35183485187252,50.00466027448541],[-119.35236166945101,50.01186487802161],[-119.32937646963452,50.01203014510073],[-119.32959652420041,50.01609469227611],[-119.2885108987385,50.01569692671203],[-119.28914975688286,50.026822509320745],[-119.3059008068566,50.02702978938662],[-119.30541803026308,50.03391950407888],[-119.31773480951819,50.034084985955786],[-119.31718050408008,50.06648413553782],[-119.33918290553936,50.066693300510266],[-119.33804018390603,50.09230845104954],[-119.32791126901958,50.09269341483998],[-119.32789685358931,50.11345001099776],[-119.33757548030722,50.1133798193396],[-119.33752188922288,50.12048156041103],[-119.34333215268202,50.12126041295342],[-119.34336493304887,50.128636543899574],[-119.34812668060468,50.12844348539987],[-119.34877122734102,50.14996706315793],[-119.34750089762066,50.15130516058285],[-119.14610802258059,50.15124756548613],[-119.14534753475147,50.14835637175223]]]},"bbox":[-119.69745586040732,49.67527462217537,-118.7975574090316,50.15130516058285]},{"id":"5935016","type":"Feature","properties":{},"geometry":{"type":"Polygon","coordinates":[[[-119.32791902216925,50.098550519657806],[-119.32791126901958,50.09269341483998],[-119.33804018390603,50.09230845104954],[-119.33918290553936,50.066693300510266],[-119.31718050408008,50.06648413553782],[-119.31773480951819,50.034084985955786],[-119.30541803026308,50.03391950407888],[-119.3059008068566,50.02702978938662],[-119.28914975688286,50.026822509320745],[-119.2885108987385,50.01569692671203],[-119.32959652420041,50.01609469227611],[-119.32937646963452,50.01203014510073],[-119.35236166945101,50.01186487802161],[-119.35183485187252,50.00466027448541],[-119.37552530306228,50.00505412975598],[-119.37465322347371,50.01999469054297],[-119.38535331247981,50.02009118515315],[-119.38530520997787,50.02486746190298],[-119.39201827786788,50.02472265323791],[-119.3920018373343,50.021862489839954],[-119.39543294594577,50.02191455164589],[-119.39541350478294,50.02598126996966],[-119.39911849742629,50.022538311238044],[-119.39914063169792,50.02011463417174],[-119.40352704398568,50.020082804499765],[-119.40288223691188,50.00540458133813],[-119.4463967690166,50.00594088942036],[-119.46680496612076,50.00426909995492],[-119.4661081064125,50.01768561128773],[-119.47026961284865,50.03339160526671],[-119.47382015075041,50.040641312212465],[-119.46978023422858,50.04892290919012],[-119.47276126805893,50.05618394170365],[-119.47068839967208,50.06448090429327],[-119.47255750768063,50.08289470978375],[-119.4759096354844,50.08830371213033],[-119.47259275594827,50.10807796862016],[-119.47647474623217,50.127405313744816],[-119.47367071104547,50.1315780960117],[-119.47282450547418,50.1376077005657],[-119.47558311863055,50.145799523068206],[-119.47431653582093,50.14995300605312],[-119.34750089762066,50.15130516058285],[-119.34923771499929,50.14899515758865],[-119.34812668060468,50.12844348539987],[-119.34336493304887,50.128636543899574],[-119.34333215268202,50.12126041295342],[-119.33752188922288,50.12048156041103],[-119.33757548030722,50.1133798193396],[-119.32789685358931,50.11345001099776],[-119.32791902216925,50.098550519657806]]]},"bbox":[-119.47647474623217,50.00426909995492,-119.2885108987385,50.15130516058285]},{"id":"5935018","type":"Feature","properties":{},"geometry":{"type":"Polygon","coordinates":[[[-119.72966966065815,49.79755967945156],[-119.72915442023275,49.79516840558381],[-119.72104113711073,49.795175557453994],[-119.7205550935702,49.802392806447735],[-119.68658379885368,49.802030958964004],[-119.68658558782738,49.80564731634593],[-119.66434986248716,49.805685955124886],[-119.66413476790574,49.80096175468578],[-119.66229946064179,49.799440814583825],[-119.67449136047898,49.79599349514537],[-119.69797454259826,49.792619265699464],[-119.70977054647419,49.781778364928826],[-119.71465072414153,49.77982584935886],[-119.72826027664816,49.77991058991626],[-119.73241214994249,49.77348802978082],[-119.74372936123936,49.76449788790432],[-119.75637618775002,49.750316618016775],[-119.75795785612078,49.74216165860814],[-119.75980157089464,49.74011840099862],[-119.76766271032982,49.73992919548429],[-119.76690583361855,49.74579979709133],[-119.77596285175052,49.745171691788926],[-119.77636565454702,49.748890976007814],[-119.79902062021465,49.7489309376071],[-119.80063723998242,49.752916808446344],[-119.80533842294636,49.7527377984719],[-119.80573337402964,49.75482509010039],[-119.80036402633998,49.755397251526496],[-119.8011638022858,49.75891915369825],[-119.7878298256853,49.75907893217924],[-119.78742772814877,49.76270475311721],[-119.7824054430532,49.76295397068848],[-119.78214437569275,49.766326720257055],[-119.76567052881678,49.76653512105889],[-119.76545524383063,49.77356132842581],[-119.74849938531639,49.77380668585198],[-119.74771780015419,49.78080689509561],[-119.74398018530023,49.782086616396654],[-119.74516439780977,49.784614952978544],[-119.73660020405762,49.78559845884237],[-119.73666275162509,49.78821697087257],[-119.73468880957745,49.78818523060691],[-119.73462209438452,49.792109388539664],[-119.73671007990139,49.79203950299638],[-119.73665920509805,49.79517766644206],[-119.73368619180371,49.79517407541246],[-119.73452123035325,49.797830687952214],[-119.73959111117618,49.800637577996724],[-119.7383527895321,49.801513809433686],[-119.72966966065815,49.79755967945156]]]},"bbox":[-119.80573337402964,49.73992919548429,-119.66229946064179,49.805685955124886]},{"id":"5935020","type":"Feature","properties":{},"geometry":{"type":"Polygon","coordinates":[[[-119.68481250185276,50.23256411168133],[-119.48370087110652,50.23528597002652],[-119.47168098698315,50.234892681589464],[-119.47081573709023,50.23152119552313],[-119.45948306648897,50.231237644524434],[-119.46217670558329,50.203878925965],[-119.4696103636446,50.191034427192335],[-119.46528481690333,50.18835509542838],[-119.47174821987245,50.18217820253072],[-119.4752973866696,50.175051228277816],[-119.47431653582093,50.14995300605312],[-119.47558311863055,50.145799523068206],[-119.47282450547418,50.1376077005657],[-119.47367071104547,50.1315780960117],[-119.47647474623217,50.127405313744816],[-119.47259275594827,50.10807796862016],[-119.4759096354844,50.08830371213033],[-119.47255750768063,50.08289470978375],[-119.47068839967208,50.06448090429327],[-119.47276126805893,50.05618394170365],[-119.46978023422858,50.04892290919012],[-119.47382015075041,50.040641312212465],[-119.47026961284865,50.03339160526671],[-119.4661081064125,50.01768561128773],[-119.46680496612076,50.00426909995492],[-119.46289518720826,50.00436034301797],[-119.47046994163293,49.9807163188476],[-119.47898409149641,49.96671807588005],[-119.48167899290728,49.9476752048642],[-119.48451281044454,49.940937508786476],[-119.50698170854213,49.91795228454504],[-119.5219316909363,49.921814003353],[-119.52186456947311,49.92455248261458],[-119.53053579374433,49.92455555631315],[-119.5306165654055,49.93416943530484],[-119.53345468977847,49.93416590495904],[-119.5334470988447,49.93981112078021],[-119.59739875051196,49.938606803022545],[-119.59860242511877,49.94158445343713],[-119.60369126328101,49.945239468201954],[-119.60322558941527,49.942056431530894],[-119.60792560151704,49.93765981542001],[-119.62219244581156,49.938039619766734],[-119.61870572882202,49.93595046495806],[-119.61817944522612,49.933200668486144],[-119.62660196496078,49.92891702166054],[-119.61969753764568,49.92577182748293],[-119.62007903416584,49.9209954437712],[-119.61734026868993,49.914580381968804],[-119.62012479761383,49.91384277076442],[-119.62252045907414,49.909164736865726],[-119.63307941195082,49.91254161717769],[-119.6363403091448,49.90928728512989],[-119.63547522522704,49.907467526954456],[-119.63785568592071,49.90456166760033],[-119.615913347256,49.898087330661106],[-119.61469672940251,49.89577733381385],[-119.61544039328297,49.89115322112511],[-119.62186011071492,49.88775939753261],[-119.61763753267252,49.88379902084507],[-119.62799447508077,49.88418753155575],[-119.63413246377901,49.88197686554653],[-119.64289077912386,49.883054859564616],[-119.64762132997298,49.88121966149442],[-119.65641004898204,49.883537335037886],[-119.66114815795662,49.88611837852315],[-119.66276039213906,49.88943104293539],[-119.66275027003226,49.879851917630596],[-119.67459837561522,49.87353253039279],[-119.7141755516682,49.85879923870359],[-119.72492715673548,49.85909141383968],[-119.72589870442945,49.80569099739006],[-119.7091874679043,49.80570563672313],[-119.70914817664043,49.80382190036606],[-119.70672401035536,49.802553767724156],[-119.7205550935702,49.802392806447735],[-119.72104113711073,49.795175557453994],[-119.72915442023275,49.79516840558381],[-119.72966966065815,49.79755967945156],[-119.7383527895321,49.801513809433686],[-119.73959111117618,49.800637577996724],[-119.73452123035325,49.797830687952214],[-119.73368619180371,49.79517407541246],[-119.73665920509805,49.79517766644206],[-119.73671007990139,49.79203950299638],[-119.73462209438452,49.792109388539664],[-119.73468880957745,49.78818523060691],[-119.73666275162509,49.78821697087257],[-119.73660020405762,49.78559845884237],[-119.74516439780977,49.784614952978544],[-119.74398018530023,49.782086616396654],[-119.74771780015419,49.78080689509561],[-119.74849938531639,49.77380668585198],[-119.76545524383063,49.77356132842581],[-119.76567052881678,49.76653512105889],[-119.78214437569275,49.766326720257055],[-119.7824054430532,49.76295397068848],[-119.78742772814877,49.76270475311721],[-119.7878298256853,49.75907893217924],[-119.8011638022858,49.75891915369825],[-119.80036402633998,49.755397251526496],[-119.80573337402964,49.75482509010039],[-119.80533842294636,49.7527377984719],[-119.80063723998242,49.752916808446344],[-119.79902062021465,49.7489309376071],[-119.77636565454702,49.748890976007814],[-119.77596285175052,49.745171691788926],[-119.76690583361855,49.74579979709133],[-119.76766271032982,49.73992919548429],[-119.75980157089464,49.74011840099862],[-119.75795785612078,49.74216165860814],[-119.75637618775002,49.750316618016775],[-119.74372936123936,49.76449788790432],[-119.73241214994249,49.77348802978082],[-119.72826027664816,49.77991058991626],[-119.71465072414153,49.77982584935886],[-119.70977054647419,49.781778364928826],[-119.69797454259826,49.792619265699464],[-119.67449136047898,49.79599349514537],[-119.66229946064179,49.799440814583825],[-119.64828082412939,49.78783070247922],[-119.69007581127721,49.778092189514744],[-119.71955191159172,49.76524900348947],[-119.73694980341847,49.74336309501816],[-119.74196730210588,49.731498707709676],[-119.74063790349106,49.72303290299034],[-119.72866460630196,49.7120629582033],[-119.83590596582944,49.712625813236464],[-119.83699338073643,49.76565883305844],[-119.97988986602994,49.76645125361508],[-119.97867402180826,49.77668296879305],[-119.98442221610372,49.781339149762665],[-119.98432026269886,49.78963278071113],[-119.97755111179396,49.79332135031434],[-119.9780860819432,49.801888730365],[-119.9670072969884,49.81220896115795],[-119.96879220239356,49.81958524525875],[-119.98364286742277,49.83022587460994],[-119.99164524964083,49.833884140387795],[-120.01346656092105,49.83940675720727],[-120.0170525229079,49.8447169178004],[-120.03890738711938,49.856585357794394],[-120.05482668522895,49.85561647681979],[-120.05223677003919,49.864787988521385],[-120.0568079706535,49.86831718643698],[-120.05582034743054,49.870419186275036],[-120.05322893108466,49.87299536070681],[-120.04101171321818,49.87746320804327],[-120.034055860443,49.88494347315588],[-120.03630863922847,49.88784877853728],[-120.0361797394015,49.89066305491647],[-120.0276400431482,49.894684751511036],[-120.02684084807011,49.9039018632084],[-120.02952679167858,49.91189011770103],[-120.02208780754532,49.91389461399057],[-120.01287802011066,49.92026915774501],[-120.00348761977428,49.92128625303088],[-119.99717610246572,49.92811050735463],[-119.97748612583004,49.931406314587534],[-119.95803718819532,49.9208704779241],[-119.94346994755955,49.91840295032744],[-119.94714759392134,49.92306557494129],[-119.94385754428988,49.92903097626053],[-119.9357664849633,49.936464929458985],[-119.92738699402692,49.936866259347774],[-119.9155541870717,49.95066118000767],[-119.89449722601985,49.95884566800968],[-119.89308444730703,49.963881768520785],[-119.89549995203878,49.96578893066953],[-119.88278617889068,49.96744497292389],[-119.8765354047702,49.96590141508915],[-119.86204526285665,49.969196339782904],[-119.85535623086915,49.9740621558027],[-119.84566351194923,49.97619369824642],[-119.84065562529653,49.98048394230061],[-119.83228513057139,49.98051641393467],[-119.828267977867,49.98303214464202],[-119.83682058257826,49.99043932679558],[-119.8306116498416,49.99064894215739],[-119.82768690974592,49.99742921413942],[-119.81855087890219,50.00060286036265],[-119.80053805889382,50.017241168172276],[-119.8038717897519,50.024908608402505],[-119.81042668873391,50.02753635825443],[-119.81140751061355,50.02921642486198],[-119.81010751366414,50.030927234383405],[-119.79659962254597,50.03863022689295],[-119.76910767286658,50.04315125630468],[-119.76194016650267,50.04760820612832],[-119.76022514793486,50.05571101641017],[-119.7576419039033,50.0588315776944],[-119.76687537346535,50.06362419620203],[-119.76637991160355,50.06642805978466],[-119.76214564296201,50.06970959796996],[-119.76151982824543,50.07303040927825],[-119.76704560631526,50.079597858749196],[-119.76462945657335,50.085102182095895],[-119.75501057467287,50.08882075161436],[-119.7471705213697,50.08969562689649],[-119.74172095176935,50.09314667609966],[-119.74633736757959,50.096695216406694],[-119.74178485451432,50.10102919603028],[-119.74302874436431,50.103454003944336],[-119.7411307525132,50.11604688869165],[-119.74275236360276,50.11934633916954],[-119.7486319288683,50.12498633074721],[-119.7543540549341,50.12160684715776],[-119.76506197084917,50.12331677681433],[-119.77720625868886,50.119972879696356],[-119.78173100655553,50.12832773694792],[-119.78064860273103,50.13178392515195],[-119.77705053137137,50.13319619907205],[-119.78027257710222,50.14046184801487],[-119.77965493880737,50.147733069426415],[-119.79859895968103,50.149769905716546],[-119.80224488108408,50.152298599168816],[-119.80352783118035,50.16064776054313],[-119.81312346953868,50.17685236256861],[-119.81714507692017,50.17778432787648],[-119.81756426784354,50.18046368636565],[-119.82788699819221,50.17982431636542],[-119.83188429097773,50.181423382234556],[-119.83283679268666,50.18377682604055],[-119.81966432635276,50.18825249328076],[-119.81480854718608,50.19285495892717],[-119.80804646252213,50.195556870665904],[-119.80524091152401,50.20366581725787],[-119.78048167855376,50.20577591067294],[-119.76577987582085,50.20333798697307],[-119.76816593761589,50.216538593105355],[-119.76603820963561,50.22618818293018],[-119.76171522930964,50.23094983457997],[-119.76180443001546,50.232820986076106],[-119.68481250185276,50.23256411168133]]]},"bbox":[-120.0568079706535,49.7120629582033,-119.45948306648897,50.23528597002652]},{"id":"5935029","type":"Feature","properties":{},"geometry":{"type":"MultiPolygon","coordinates":[[[[-119.62227900545207,49.82785796837784],[-119.6222304392359,49.82617414406952],[-119.6248089544257,49.82629313239514],[-119.62484956070764,49.82802710067546],[-119.62227900545207,49.82785796837784]]],[[[-119.60028065125094,49.943256023097625],[-119.59739875051196,49.938606803022545],[-119.5334470988447,49.93981112078021],[-119.53345468977847,49.93416590495904],[-119.5306165654055,49.93416943530484],[-119.53053579374433,49.92455555631315],[-119.52186456947311,49.92455248261458],[-119.5219316909363,49.921814003353],[-119.50698170854213,49.91795228454504],[-119.51489821566182,49.90995429434924],[-119.51827449271363,49.903977101613805],[-119.51864151300802,49.900522961838924],[-119.51410204932239,49.892772087909925],[-119.51149574267777,49.8787445483379],[-119.5154530058761,49.85093588963679],[-119.52218399585455,49.83686621071869],[-119.53234349315792,49.82854150485201],[-119.57393841430003,49.8059333968192],[-119.64828082412939,49.78783070247922],[-119.66413476790574,49.80096175468578],[-119.66434986248716,49.805685955124886],[-119.68658558782738,49.80564731634593],[-119.68658379885368,49.802030958964004],[-119.70483181210703,49.80206048185348],[-119.70914817664043,49.80382190036606],[-119.7091874679043,49.80570563672313],[-119.72589870442945,49.80569099739006],[-119.72492715673548,49.85909141383968],[-119.7141755516682,49.85879923870359],[-119.67459837561522,49.87353253039279],[-119.66275027003226,49.879851917630596],[-119.66276039213906,49.88943104293539],[-119.66114815795662,49.88611837852315],[-119.65641004898204,49.883537335037886],[-119.64762132997298,49.88121966149442],[-119.64289077912386,49.883054859564616],[-119.63413246377901,49.88197686554653],[-119.62799447508077,49.88418753155575],[-119.61763753267252,49.88379902084507],[-119.62186011071492,49.88775939753261],[-119.61544039328297,49.89115322112511],[-119.61469672940251,49.89577733381385],[-119.615913347256,49.898087330661106],[-119.62221135504171,49.90071068481474],[-119.63062278780926,49.90163153123162],[-119.63230916449591,49.90377921818176],[-119.63772765329833,49.90508871637298],[-119.63547522522704,49.907467526954456],[-119.6363403091448,49.90928728512989],[-119.63307941195082,49.91254161717769],[-119.62252045907414,49.909164736865726],[-119.62012479761383,49.91384277076442],[-119.61734026868993,49.914580381968804],[-119.62007903416584,49.9209954437712],[-119.61969753764568,49.92577182748293],[-119.62660196496078,49.92891702166054],[-119.61817944522612,49.933200668486144],[-119.61870572882202,49.93595046495806],[-119.62219244581156,49.938039619766734],[-119.60922402249085,49.937239188386094],[-119.60322558941527,49.942056431530894],[-119.60369126328101,49.945239468201954],[-119.60028065125094,49.943256023097625]],[[-119.54692211790032,49.87323581392676],[-119.55114525353454,49.873246305753035],[-119.55320064568271,49.87215294455682],[-119.55030817588332,49.87204761475242],[-119.54692211790032,49.87323581392676]],[[-119.62009628546706,49.82835969736154],[-119.62126458482933,49.829765256029106],[-119.62537388449708,49.82868360535059],[-119.62529936391766,49.824505544589016],[-119.61788791228285,49.823993109514966],[-119.61778228649892,49.82677699667096],[-119.62009628546706,49.82835969736154]],[[-119.54651250015496,49.87713759825998],[-119.5465448893266,49.87357578824897],[-119.5453881393835,49.874855039058595],[-119.54327859037357,49.87480975427563],[-119.54290585372864,49.87309498356308],[-119.5292757117899,49.8732217627864],[-119.52451492163445,49.87722957498034],[-119.52032453103136,49.87748306276446],[-119.52276114709632,49.878328967816685],[-119.5241765263449,49.88598127184511],[-119.52608664201465,49.888124769153215],[-119.53880101952727,49.89481846499752],[-119.54635226260575,49.89474266728152],[-119.54651250015496,49.87713759825998]],[[-119.59633863350656,49.85665697802079],[-119.60076152810078,49.85668700319985],[-119.60028331419666,49.84783751550397],[-119.62519415878644,49.84792860398381],[-119.62539429255887,49.8313871916736],[-119.62421540786083,49.83051648626072],[-119.62539400787401,49.82961930631655],[-119.62074247058233,49.83139226317709],[-119.6091874469476,49.83141906494676],[-119.60904903525562,49.82522639105403],[-119.61374528087917,49.82453619479042],[-119.61401110734953,49.82416924316435],[-119.60819613921664,49.82438706715191],[-119.598914423396,49.82210227956061],[-119.59901552241655,49.82776319370151],[-119.59319096282141,49.82779869887312],[-119.59337556506831,49.83069192552422],[-119.5888951105328,49.83068137513485],[-119.58926393471492,49.85691271408519],[-119.59633863350656,49.85665697802079]]]]},"bbox":[-119.72589870442945,49.78783070247922,-119.50698170854213,49.945239468201954]},{"id":"5935801","type":"Feature","properties":{},"geometry":{"type":"Polygon","coordinates":[[[-119.39128004829118,50.00787337171436],[-119.39047552543802,50.00602504627111],[-119.38428928477755,50.005737254686544],[-119.38548071057771,49.99670200305225],[-119.38886584613519,49.99616212152483],[-119.38736742988041,50.000603070437066],[-119.39091382775608,50.00285185899466],[-119.4001941145718,50.005106459549545],[-119.39790872423731,50.00040364917239],[-119.403928241478,49.99738874755751],[-119.40352704398568,50.020082804499765],[-119.3916978038268,50.02014000610902],[-119.39128004829118,50.00787337171436]]]},"bbox":[-119.403928241478,49.99616212152483,-119.38428928477755,50.02014000610902]},{"id":"5935802","type":"Feature","properties":{},"geometry":{"type":"MultiPolygon","coordinates":[[[[-119.62113251353308,49.82960638011358],[-119.61778228649892,49.82677699667096],[-119.61788791228285,49.823993109514966],[-119.62529936391766,49.824505544589016],[-119.62537388449708,49.82868360535059],[-119.62113251353308,49.82960638011358]],[[-119.6248089544257,49.82629313239514],[-119.6222304392359,49.82617414406952],[-119.62227900545207,49.82785796837784],[-119.62484956070764,49.82802710067546],[-119.6248089544257,49.82629313239514]]],[[[-119.58902615510688,49.851925503555876],[-119.58876168165075,49.831075360026084],[-119.59337556506831,49.83069192552422],[-119.59319096282141,49.82779869887312],[-119.59901552241655,49.82776319370151],[-119.598914423396,49.82210227956061],[-119.60819613921664,49.82438706715191],[-119.61401110734953,49.82416924316435],[-119.60904903525562,49.82522639105403],[-119.6091874469476,49.83141906494676],[-119.62074247058233,49.83139226317709],[-119.62539400787401,49.82961930631655],[-119.62421540786083,49.83051648626072],[-119.62539429255887,49.8313871916736],[-119.62519415878644,49.84792860398381],[-119.60028331419666,49.84783751550397],[-119.60076152810078,49.85668700319985],[-119.58926393471492,49.85691271408519],[-119.58902615510688,49.851925503555876]]]]},"bbox":[-119.62539429255887,49.82210227956061,-119.58876168165075,49.85691271408519]},{"id":"5935803","type":"Feature","properties":{},"geometry":{"type":"MultiPolygon","coordinates":[[[[-119.55114525353454,49.873246305753035],[-119.54692211790032,49.87323581392676],[-119.54690613733081,49.87309029350893],[-119.55320064568271,49.87215294455682],[-119.55114525353454,49.873246305753035]]],[[[-119.53138491043914,49.8904105543038],[-119.52457782272981,49.886996771918106],[-119.52284161002181,49.87850706227183],[-119.52032453103136,49.87748306276446],[-119.52451492163445,49.87722957498034],[-119.5292757117899,49.8732217627864],[-119.54290585372864,49.87309498356308],[-119.54327859037357,49.87480975427563],[-119.5453881393835,49.874855039058595],[-119.5465448893266,49.87357578824897],[-119.54635226260575,49.89474266728152],[-119.53880101952727,49.89481846499752],[-119.53138491043914,49.8904105543038]]]]},"bbox":[-119.55320064568271,49.87215294455682,-119.52032453103136,49.89481846499752]}],"bbox":[-120.0568079706535,49.67527462217537,-118.7975574090316,50.23528597002652]}