{"type":"FeatureCollection","features":[{"id":"5937005","type":"Feature","properties":{},"geometry":{"type":"Polygon","coordinates":[[[-118.96495632987572,50.25322024978545],[-118.96215264092848,50.25295928645957],[-118.96187353331251,50.257033525390405],[-118.95962908122206,50.25684749032886],[-118.95964700728236,50.253450025360436],[-118.95763253145692,50.25235410536551],[-118.94884852818853,50.25287573848415],[-118.94863962981445,50.24927688204297],[-118.95112935629687,50.248570506139295],[-118.9511686915642,50.24600288729357],[-118.95333670346398,50.2461451618813],[-118.95353879886305,50.24139784884707],[-118.95847696416928,50.241529208450764],[-118.96554480778215,50.239101168149425],[-118.96542704164384,50.23522586651717],[-118.96627913290108,50.236899434627155],[-118.98764805029458,50.237805331460024],[-118.98703485629433,50.26484770262543],[-118.9690807653499,50.264870687344654],[-118.96959166587507,50.25573046321218],[-118.96572707430806,50.255706426013546],[-118.96495632987572,50.25322024978545]]]},"bbox":[-118.98764805029458,50.23522586651717,-118.94863962981445,50.264870687344654]},{"id":"5937010","type":"Feature","properties":{},"geometry":{"type":"Polygon","coordinates":[[[-119.27995486941094,50.237958127580924],[-119.2516811343158,50.23847166641267],[-119.25062633407087,50.24517989241],[-119.21646694555093,50.245406308298094],[-119.21699762608738,50.25312909659981],[-119.16966460424726,50.252798732938736],[-119.16986825465244,50.24551338788295],[-119.13520970226091,50.24545363104173],[-119.13518845270718,50.252818212559546],[-119.10189241131698,50.25290655018496],[-119.10134081253328,50.24524011760673],[-119.09008778529112,50.24537680015605],[-119.09023107362579,50.252816315801404],[-119.07929833763134,50.25289579499499],[-119.07858781548407,50.248117512000874],[-119.06719733693258,50.24843142969291],[-119.06707231169433,50.25268084459201],[-119.05610636654524,50.252759471449686],[-119.05644645049172,50.24212667889192],[-119.06562159027946,50.24170113931006],[-119.0659261009138,50.23614751741067],[-119.06984043005535,50.23566236804917],[-119.07001070352356,50.230662031498234],[-119.06765181320704,50.22821403281228],[-119.06923944446712,50.22665897248259],[-119.06882897300142,50.223489596368594],[-119.0805100309979,50.22356497064891],[-119.08241549060021,50.216176010797675],[-119.10800006945772,50.216050010334826],[-119.10805500196035,50.21214521940521],[-119.11404968468023,50.21214287027454],[-119.11398514193823,50.20891388947805],[-119.14764895562186,50.210435207776186],[-119.147613020195,50.195192563523364],[-119.1536805489094,50.19522147999743],[-119.15365109482063,50.202494448654896],[-119.1786662642754,50.202994047135334],[-119.18191762847901,50.202967356898526],[-119.18211134101627,50.19561985454154],[-119.19302837493079,50.19551156946913],[-119.19340275510405,50.202323203322976],[-119.20405975487041,50.20234047808296],[-119.20440506421217,50.19847466183349],[-119.21726409336824,50.19831644177567],[-119.21709102028684,50.194859958297116],[-119.2308743055017,50.194857136250356],[-119.23351270492189,50.2063380146169],[-119.23265678205591,50.209312960264846],[-119.23040230514451,50.21027835326071],[-119.23156338091367,50.21572274824321],[-119.26298502767142,50.21509441301755],[-119.26303242813081,50.21297586278372],[-119.27627218797394,50.21009258829799],[-119.278969329995,50.206422338116454],[-119.28992215444252,50.208669041709506],[-119.27940811756656,50.21665804026048],[-119.28825050838876,50.22037348588113],[-119.29012360413505,50.22333409543844],[-119.28992220801275,50.229032210390784],[-119.28434581801478,50.23352389596691],[-119.28252623234982,50.23804642249585],[-119.27995486941094,50.237958127580924]]]},"bbox":[-119.29012360413505,50.194857136250356,-119.05610636654524,50.25312909659981]},{"id":"5937014","type":"Feature","properties":{},"geometry":{"type":"MultiPolygon","coordinates":[[[[-119.22551084310926,50.287375030697504],[-119.22580376433592,50.28708791532861],[-119.2264429109291,50.287361362342146],[-119.22613190676118,50.28765720390188],[-119.22551084310926,50.287375030697504]]],[[[-119.22126864366793,50.2924010305188],[-119.22233885101109,50.2922442761901],[-119.22225205849173,50.293005117469576],[-119.2207339303731,50.292832909730784],[-119.22126864366793,50.2924010305188]]],[[[-119.21385723638856,50.32097939502306],[-119.20571494226941,50.32157816491912],[-119.20553730214664,50.316173492487884],[-119.20772429923676,50.316147601476764],[-119.20533021912986,50.31413030276389],[-119.20548397208633,50.31095533579025],[-119.20991269263186,50.30691456469376],[-119.20757079826853,50.30752513170506],[-119.20924870851547,50.305448112497174],[-119.2081635117367,50.30421012846505],[-119.21148854392153,50.299591949654236],[-119.21493253249785,50.29867251609069],[-119.21724483896125,50.29980187778314],[-119.21717814696895,50.29737442315818],[-119.22671257751226,50.2992223925778],[-119.22960906499975,50.309135497916074],[-119.22614360108005,50.309225493698435],[-119.22614574658408,50.31260795078386],[-119.22941486686719,50.31245614148716],[-119.22574250182231,50.3127330057112],[-119.22695194394144,50.32026859426518],[-119.21385723638856,50.32097939502306]]],[[[-119.28441817946101,50.29976357014578],[-119.28421282314167,50.30096727714881],[-119.27214917329124,50.300654915714084],[-119.27857195708226,50.296978639843125],[-119.28196397842494,50.297128560863186],[-119.2820177434028,50.29561529131086],[-119.28658251956445,50.29553266863925],[-119.28471301019853,50.29109055838961],[-119.28614632778505,50.28412756340287],[-119.28890723940268,50.28050156659308],[-119.2856670275338,50.278775367257026],[-119.28546902621116,50.27648728511436],[-119.28176889819783,50.27624185202553],[-119.28250221239185,50.28631838482961],[-119.27973610994457,50.28930408644392],[-119.27906968857741,50.29471888248639],[-119.2698159717005,50.29364747938037],[-119.27006192994774,50.28917071692894],[-119.26013852228834,50.29048049451458],[-119.2574258075149,50.294126466128624],[-119.25336441435573,50.29379365106895],[-119.25666591290971,50.28936084111951],[-119.25383528726188,50.288361927985115],[-119.25376791979875,50.28192189904498],[-119.24634474971784,50.28388942906002],[-119.24580740289778,50.28196250712499],[-119.24188875200302,50.281986171355776],[-119.2420222897142,50.28336228486028],[-119.24011148643828,50.28337912308007],[-119.2399378996637,50.282002878862414],[-119.23315781388598,50.283162100759974],[-119.23251835499703,50.28210757293529],[-119.23741736550107,50.28064482015359],[-119.2473771387149,50.280451473843314],[-119.2472543151753,50.27883700173944],[-119.23987045656266,50.27840786295739],[-119.24161821202837,50.27245259635499],[-119.23999915453433,50.27212231803956],[-119.2398090980883,50.2701476895064],[-119.2431118422292,50.27015484345368],[-119.24221836566404,50.26369610119088],[-119.2453753887605,50.2637223120817],[-119.24537798872694,50.26188431016959],[-119.2421971812182,50.2619130177498],[-119.24220779318475,50.25999348404425],[-119.24519469830464,50.25999162011202],[-119.24505612003387,50.25631750796235],[-119.24215429126515,50.256294917081554],[-119.2419879056139,50.25464872439552],[-119.25107628596437,50.25454332222392],[-119.2510627068,50.25292529194663],[-119.24001908557359,50.25290719906144],[-119.23982634321453,50.247270151725054],[-119.24790710389625,50.24934529706974],[-119.24819191982729,50.24543163452139],[-119.25062633407087,50.24517989241],[-119.2516811343158,50.23847166641267],[-119.28252623234982,50.23804642249585],[-119.28434581801478,50.23352389596691],[-119.28992220801275,50.229032210390784],[-119.29005183661276,50.22324845151046],[-119.29700926695038,50.22317376520665],[-119.29685854505006,50.211132088447776],[-119.299023397163,50.20954638325066],[-119.30748642938747,50.21030840539849],[-119.3099234025875,50.207215046073976],[-119.30867211204479,50.204348988802735],[-119.31213587902529,50.20228299171531],[-119.3220001240943,50.20283027102969],[-119.32014742894518,50.21249636046918],[-119.33097092008639,50.212462450243756],[-119.33136897736956,50.20897993234846],[-119.35320837280449,50.2090745601151],[-119.35363854254689,50.181090059272336],[-119.3750526020201,50.18107570858358],[-119.37480998310366,50.17316737713272],[-119.38804174447573,50.17296969174722],[-119.38752108589897,50.180450691392174],[-119.40979220992892,50.18040514779598],[-119.41028312610136,50.173179555740056],[-119.42034542172483,50.17314310266992],[-119.41962786611705,50.151364343148096],[-119.45316062775908,50.15074890569495],[-119.45400256836233,50.18656818538258],[-119.44796876100023,50.19488676373999],[-119.4329076896571,50.20063166036747],[-119.42012971107012,50.217025192703105],[-119.43016113534505,50.24174681228201],[-119.42725816884554,50.25276470149122],[-119.38043817440432,50.25294463966993],[-119.37950784084252,50.25938285756601],[-119.35221760921846,50.2600975836684],[-119.35162935576948,50.2743690494872],[-119.33108426910418,50.27477835657974],[-119.32987234399789,50.289191522058715],[-119.30615304042315,50.289452590060165],[-119.30641190541384,50.302899060516715],[-119.28475321999393,50.30326698588913],[-119.28441817946101,50.29976357014578]],[[-119.34567271116003,50.244783760330016],[-119.33066217990877,50.245730046432385],[-119.33083920565252,50.248449740625865],[-119.34854934572809,50.24829185012409],[-119.34567271116003,50.244783760330016]]]]},"bbox":[-119.45400256836233,50.15074890569495,-119.20533021912986,50.32157816491912]},{"id":"5937017","type":"Feature","properties":{},"geometry":{"type":"MultiPolygon","coordinates":[[[[-119.27788178426168,50.340376858575866],[-119.25174998756562,50.3402391741579],[-119.25175633764958,50.344583571113354],[-119.24878431019117,50.34468206865606],[-119.24942265746517,50.34023367815868],[-119.24014091125277,50.339573472281266],[-119.23539128617942,50.334643097312174],[-119.23485380808309,50.331090296118155],[-119.2365192171589,50.327897184042],[-119.23454001311978,50.32671420553137],[-119.2323178061447,50.311854311634825],[-119.23215410106513,50.30597959801517],[-119.23362239778508,50.30465318710964],[-119.23119860307109,50.299610297642126],[-119.23112879734241,50.283640500421924],[-119.24580740289778,50.28196250712499],[-119.24634474971784,50.28388942906002],[-119.25376791979875,50.28192189904498],[-119.25383528726188,50.288361927985115],[-119.25666591290971,50.28936084111951],[-119.25336441435573,50.29379365106895],[-119.2574258075149,50.294126466128624],[-119.26013852228834,50.29048049451458],[-119.27006192994774,50.28917071692894],[-119.2698159717005,50.29364747938037],[-119.27906968857741,50.29471888248639],[-119.27973610994457,50.28930408644392],[-119.28250221239185,50.28631838482961],[-119.28176889819783,50.27624185202553],[-119.28546902621116,50.27648728511436],[-119.2856670275338,50.278775367257026],[-119.28887720920594,50.280438858214445],[-119.28614632778505,50.28412756340287],[-119.28471301019853,50.29109055838961],[-119.28658251956445,50.29553266863925],[-119.2820177434028,50.29561529131086],[-119.28196397842494,50.297128560863186],[-119.27857195708226,50.296978639843125],[-119.27214917329124,50.300654915714084],[-119.28421282314167,50.30096727714881],[-119.28440652501058,50.299685441175676],[-119.28475321999393,50.30326698588913],[-119.28274715573437,50.30327655587691],[-119.2829326018175,50.30640659356048],[-119.2869512263278,50.31525076068011],[-119.28533943569846,50.316488466986705],[-119.28395321377772,50.32271365663351],[-119.28180772961515,50.322215162165314],[-119.27910514527429,50.32593806857356],[-119.27788178426168,50.340376858575866]]],[[[-119.31247871261685,50.34827966020173],[-119.30594782465853,50.340295574986094],[-119.3077922101748,50.33829876318293],[-119.30819221368733,50.33352336252892],[-119.31413872791559,50.328357762521485],[-119.31880801496163,50.32698775964503],[-119.3211909425712,50.324304463275986],[-119.32602342248548,50.32425326642767],[-119.32548692290611,50.32046765164622],[-119.32825192048571,50.319873767994316],[-119.32762251117653,50.318167575840405],[-119.3306264398574,50.31552566387252],[-119.35200443132682,50.304688847541705],[-119.355305724935,50.30443245124326],[-119.35892523486652,50.30148016510729],[-119.35723432194182,50.29938367116422],[-119.35815152894817,50.29636006585732],[-119.37410980264202,50.284341165244655],[-119.38766642129389,50.27922397680816],[-119.38428540499939,50.27561505664331],[-119.38589240764784,50.27600527197813],[-119.38993131393681,50.27288196823019],[-119.39014801477994,50.27409965312866],[-119.38967480993892,50.27081837227894],[-119.39985651394247,50.26371727626968],[-119.40741392912173,50.26026916884957],[-119.41481394404857,50.259252364267766],[-119.41821220517484,50.25624006181172],[-119.4189800935167,50.2528537110154],[-119.42725816884554,50.25276470149122],[-119.43016113534505,50.24174681228201],[-119.42012971107012,50.217025192703105],[-119.4329076896571,50.20063166036747],[-119.44796876100023,50.19488676373999],[-119.45400256836233,50.18656818538258],[-119.45316062775908,50.15074890569495],[-119.47431653582093,50.14995300605312],[-119.4752973866696,50.175051228277816],[-119.47174821987245,50.18217820253072],[-119.46528481690333,50.18835509542838],[-119.4696103636446,50.191034427192335],[-119.46266473952024,50.20206918981667],[-119.46075721875114,50.21119038652331],[-119.45303463021749,50.218791970027844],[-119.44189212333102,50.22217445488726],[-119.43651334779805,50.2269469656063],[-119.43872492211898,50.2348342584143],[-119.44677643382506,50.24059234756713],[-119.45086281029164,50.245625473735004],[-119.44730901915081,50.25291455612992],[-119.44357331337784,50.269552172712615],[-119.42714511772407,50.2696988523584],[-119.40081952427376,50.27726286365623],[-119.39928011977736,50.27987625309388],[-119.39128831289723,50.28453776155545],[-119.39339513214235,50.29156476123427],[-119.39218273879698,50.297876854684645],[-119.38413954172084,50.302756262630695],[-119.37639633553397,50.30206975282823],[-119.3772512091991,50.30568577287371],[-119.36819721348326,50.311177561747854],[-119.37099290802756,50.31626625853064],[-119.36903683408576,50.320137258510634],[-119.3592127050485,50.322324856179655],[-119.34058051278014,50.33459295669855],[-119.33588841068396,50.333167364310015],[-119.33044371191707,50.334805161175794],[-119.32543442788523,50.34271386994728],[-119.3278648418407,50.34325926523268],[-119.32547569936413,50.34327926169336],[-119.31667890581498,50.34907716119385],[-119.31247871261685,50.34827966020173]]],[[[-119.33318720975981,50.20899435477174],[-119.33136897736956,50.20897993234846],[-119.33097092008639,50.212462450243756],[-119.32014742894518,50.21249636046918],[-119.3220001240943,50.20283027102969],[-119.31213587902529,50.20228299171531],[-119.30867211204479,50.204348988802735],[-119.3099234025875,50.207215046073976],[-119.30748642938747,50.21030840539849],[-119.299023397163,50.20954638325066],[-119.29685854505006,50.211132088447776],[-119.29700926695038,50.22317376520665],[-119.28902959215057,50.22323940674328],[-119.28825050838876,50.22037348588113],[-119.27940811756656,50.21665804026048],[-119.28992215444252,50.208669041709506],[-119.278969329995,50.206422338116454],[-119.27627218797394,50.21009258829799],[-119.26303242813081,50.21297586278372],[-119.26298502767142,50.21509441301755],[-119.23156338091367,50.21572274824321],[-119.23040230514451,50.21027835326071],[-119.23265678205591,50.209312960264846],[-119.23351270492189,50.2063380146169],[-119.2308743055017,50.194857136250356],[-119.22726025628334,50.194897244450395],[-119.22713501143161,50.18757103143601],[-119.22149944947597,50.1875660448259],[-119.22111550743004,50.180238376271404],[-119.2324252033849,50.18022637462712],[-119.23305803986399,50.18744341977624],[-119.24437277187434,50.187512282492115],[-119.24500609600233,50.184130431483126],[-119.26170904138012,50.184310446660724],[-119.26692572676704,50.1843983430021],[-119.26719005566876,50.18812573082465],[-119.27257607372731,50.18794069002786],[-119.27268184703031,50.18394713854446],[-119.2883253016918,50.1837152580588],[-119.28866916499628,50.17652568398875],[-119.30013672757933,50.176185279782324],[-119.30060494433863,50.16941646324404],[-119.32206251356124,50.157837844321826],[-119.32903588728392,50.15110066163109],[-119.41962786611705,50.151364343148096],[-119.42034542172483,50.17314310266992],[-119.41028312610136,50.173179555740056],[-119.40979220992892,50.18040514779598],[-119.38752108589897,50.180450691392174],[-119.38804174447573,50.17296969174722],[-119.37480998310366,50.17316737713272],[-119.3750526020201,50.18107570858358],[-119.35363854254689,50.181090059272336],[-119.35320837280449,50.2090745601151],[-119.33318720975981,50.20899435477174]]],[[[-119.54158211930084,50.44531683137502],[-119.52581390914185,50.445216477407584],[-119.52443159960302,50.439939906187774],[-119.52493477530889,50.431032277858485],[-119.50641552731759,50.43234394423679],[-119.44636506538018,50.430853695302744],[-119.4457064550308,50.415957521891016],[-119.3523910025948,50.41617074180828],[-119.35219941560118,50.405105854040976],[-119.34149254228615,50.40470639879631],[-119.34184300400479,50.34690470300759],[-119.35269593064882,50.346974934377826],[-119.35265295573208,50.33945316115505],[-119.36933025427932,50.33920887445995],[-119.36954591872743,50.332477161760934],[-119.38021311273029,50.3325728872421],[-119.3809627482525,50.325027492314774],[-119.38612236934748,50.32511601285986],[-119.38666361551785,50.3212100359399],[-119.39193391367307,50.32120948698735],[-119.39200122279561,50.317801533765035],[-119.40331907763894,50.31799017190568],[-119.40343947115184,50.314318670190005],[-119.44865634513901,50.314297267994775],[-119.44941816991415,50.274683671458895],[-119.4542282446328,50.27460718222074],[-119.45435762348805,50.26021181460142],[-119.45913874108984,50.26022073753756],[-119.45948306648897,50.231237644524434],[-119.47081573709023,50.23152119552313],[-119.47168098698315,50.234892681589464],[-119.48370087110652,50.23528597002652],[-119.66796207711474,50.23250745833215],[-119.76180443001546,50.232820986076106],[-119.76280483616976,50.23815274877575],[-119.75552522582123,50.24492701440924],[-119.75279563758544,50.2506932173706],[-119.75258496444333,50.25808547261202],[-119.74929568753885,50.26092942304808],[-119.74190677672144,50.26192675422762],[-119.7249382905209,50.25995931340919],[-119.71342293733316,50.26039323204913],[-119.69853781129011,50.25779292483498],[-119.68774363148282,50.259145531820785],[-119.68168676022776,50.26302289264582],[-119.68523676428416,50.27087786741364],[-119.69806757570396,50.28505494420745],[-119.69699524146019,50.2872153460853],[-119.69038829239712,50.29079856048171],[-119.68184559052494,50.30405495369597],[-119.68267089708695,50.30617261397253],[-119.68809741080315,50.30790624097314],[-119.69642809947031,50.3069193057335],[-119.70799517125414,50.314258073926],[-119.72053317166917,50.317180009765174],[-119.68442243587745,50.32972607893607],[-119.6661441628311,50.33318892281986],[-119.6845133621084,50.34863155728892],[-119.66422074049352,50.353405501262515],[-119.66017386980981,50.35994222851557],[-119.64642866680185,50.363450117638614],[-119.64867631505136,50.36830179746513],[-119.64798498202848,50.370281008083246],[-119.6357932931807,50.373406625405565],[-119.63348270912162,50.37627562274003],[-119.64379768511651,50.38828947236937],[-119.6527935942428,50.392852314354535],[-119.65220209887784,50.39559141213428],[-119.64441042046889,50.402171498588025],[-119.62844145832254,50.40215317394878],[-119.62860197423225,50.416447224896615],[-119.60611426566064,50.41628758419418],[-119.60610996408599,50.43100759247813],[-119.58166656682255,50.430804613985245],[-119.58186485284251,50.44570155189112],[-119.54158211930084,50.44531683137502]]]]},"bbox":[-119.76280483616976,50.14995300605312,-119.22111550743004,50.44570155189112]},{"id":"5937021","type":"Feature","properties":{},"geometry":{"type":"Polygon","coordinates":[[[-119.12444919239904,50.442119961769805],[-119.0794287622053,50.442106433334274],[-119.07939790891493,50.4447061557769],[-119.05955509156763,50.44464727233569],[-119.05972036204558,50.45857343863003],[-119.01139707794943,50.45960807463344],[-119.01151397875634,50.473302564046996],[-119.00070520023326,50.47366310234205],[-119.00020586437972,50.37274477902711],[-118.99684112535903,50.34960075522459],[-119.00311257137253,50.305973267688536],[-118.99863394926808,50.27967632932013],[-118.9987745081146,50.266849988316174],[-119.03349226219464,50.267001781017505],[-119.03374515102851,50.259939878248645],[-119.05584944738155,50.26000410975823],[-119.0561026187458,50.26349533353558],[-119.07920310247069,50.26346405350489],[-119.07929833763134,50.25289579499499],[-119.09023107362579,50.252816315801404],[-119.09008778529112,50.24537680015605],[-119.10134081253328,50.24524011760673],[-119.10189241131698,50.25290655018496],[-119.13518845270718,50.252818212559546],[-119.13520970226091,50.24545363104173],[-119.16986825465244,50.24551338788295],[-119.16966460424726,50.252798732938736],[-119.21699762608738,50.25312909659981],[-119.21646694555093,50.245406308298094],[-119.24819191982729,50.24543163452139],[-119.24790710389625,50.24934529706974],[-119.23982634321453,50.247270151725054],[-119.24001908557359,50.25290719906144],[-119.2510627068,50.25292529194663],[-119.25107628596437,50.25454332222392],[-119.2419879056139,50.25464872439552],[-119.24215429126515,50.256294917081554],[-119.24505612003387,50.25631750796235],[-119.24519469830464,50.25999162011202],[-119.24220779318475,50.25999348404425],[-119.2421971812182,50.2619130177498],[-119.24537798872694,50.26188431016959],[-119.2453753887605,50.2637223120817],[-119.24221836566404,50.26369610119088],[-119.2431118422292,50.27015484345368],[-119.2398090980883,50.2701476895064],[-119.23999915453433,50.27212231803956],[-119.24161821202837,50.27245259635499],[-119.23987045656266,50.27840786295739],[-119.2472543151753,50.27883700173944],[-119.2473771387149,50.280451473843314],[-119.23741736550107,50.28064482015359],[-119.23112879734241,50.283640500421924],[-119.23119860307109,50.299610297642126],[-119.23362239778508,50.30465318710964],[-119.23215410106513,50.30597959801517],[-119.2323178061447,50.311854311634825],[-119.23454001311978,50.32671420553137],[-119.2365192171589,50.327897184042],[-119.23472651878872,50.33248630323044],[-119.23944701446578,50.339107625156046],[-119.24279685103646,50.340238949786226],[-119.23239223329013,50.34024971245699],[-119.2304234790554,50.337903488507564],[-119.22678008649827,50.34025196043474],[-119.17126040195328,50.33981399837783],[-119.17255784803308,50.4126452704044],[-119.15038265205246,50.41303515770249],[-119.14909133527294,50.44175767676767],[-119.12444919239904,50.442119961769805]],[[-119.2264429109291,50.287361362342146],[-119.22580376433592,50.28708791532861],[-119.22551084310926,50.287375030697504],[-119.22613190676118,50.28765720390188],[-119.2264429109291,50.287361362342146]],[[-119.22177350710922,50.29224287655057],[-119.22111288975856,50.29247309322974],[-119.2207339303731,50.292832909730784],[-119.22225205849173,50.293005117469576],[-119.22177350710922,50.29224287655057]],[[-119.22583025302596,50.31540147999411],[-119.22574250182231,50.3127330057112],[-119.22941389865744,50.31255505551038],[-119.22614574658408,50.31260795078386],[-119.22614360108005,50.309225493698435],[-119.22960906499975,50.309135497916074],[-119.22688444657042,50.299398465659856],[-119.21717814696895,50.29737442315818],[-119.21678241719744,50.30006978345039],[-119.21493253249785,50.29867251609069],[-119.21148854392153,50.299591949654236],[-119.2081635117367,50.30421012846505],[-119.20924870851547,50.305448112497174],[-119.20757079826853,50.30752513170506],[-119.20958838448999,50.3078236343992],[-119.20548397208633,50.31095533579025],[-119.20533021912986,50.31413030276389],[-119.20772429923676,50.316147601476764],[-119.20553730214664,50.316173492487884],[-119.20571494226941,50.32157816491912],[-119.22695194394144,50.32026859426518],[-119.22583025302596,50.31540147999411]]]},"bbox":[-119.25107628596437,50.24524011760673,-118.99684112535903,50.47366310234205]},{"id":"5937022","type":"Feature","properties":{},"geometry":{"type":"Polygon","coordinates":[[[-118.68557391617432,50.41470701933483],[-118.68545580287562,50.40995584023928],[-118.69478178046171,50.410281319539905],[-118.69278798630911,50.26804243790487],[-118.63891613846913,50.267860388378814],[-118.63863052722793,50.2613677920085],[-118.62900448542739,50.26157984884144],[-118.64326241181065,50.256570195911046],[-118.64844170742937,50.25202089404479],[-118.65399452341774,50.251758606995686],[-118.66364542874537,50.24722485795384],[-118.67140211211847,50.2484624646079],[-118.67489542720945,50.24488635440067],[-118.67771273166468,50.24443196656074],[-118.68741682263035,50.24637034790066],[-118.69111400246075,50.24855505774695],[-118.70390483214989,50.24968165283493],[-118.7109004010716,50.2563518923831],[-118.72482250801265,50.257075503897404],[-118.74074592583075,50.26316230376518],[-118.75231700249125,50.2593866995016],[-118.75558607328058,50.26040867013827],[-118.75803642639161,50.26357708600765],[-118.76784920886821,50.2655539005092],[-118.77172511335519,50.268080006723515],[-118.77880951119836,50.26990555797146],[-118.79175664943818,50.270200531698514],[-118.7937117408375,50.249507909490205],[-118.79357556345568,50.24467919962983],[-118.73902090020167,50.244296043814174],[-118.738622828408,50.23806205080344],[-118.69506268651996,50.237776812415156],[-118.69455263106661,50.22366014313368],[-118.67129994817955,50.22369671762832],[-118.66994545094803,50.205577369817384],[-118.6683480887143,50.2021551227763],[-118.67052744155917,50.18007249118147],[-118.66897464496182,50.13905253781751],[-118.67239978419302,50.09385387910864],[-118.67187910765279,49.812710187077144],[-119.05568075139206,49.81232225542521],[-119.04215202718274,49.82915777467271],[-119.02481300921893,49.84589201526683],[-119.02217993805701,49.852232554827125],[-119.01485892719614,49.85412554656171],[-119.01122773982964,49.851977945103584],[-119.00758753032741,49.85975014405421],[-118.97675655257451,49.87865727584994],[-118.97571224449618,49.884378798907846],[-118.9768378826177,49.89286861163945],[-118.96892890888515,49.89564700814425],[-118.96421631896995,49.90367991779759],[-118.94231799377881,49.913949413523596],[-118.93485997076,49.91566296602294],[-118.92304814176669,49.90610054734266],[-118.91460112222565,49.902991672034005],[-118.90731570669635,49.906664669672],[-118.9023542876049,49.91566787535818],[-118.90283103053005,49.9192395081351],[-118.91096008413311,49.92076643694466],[-118.90379048281493,49.931845768604376],[-118.89329258632714,49.93752389675391],[-118.87922511129875,49.93742996990476],[-118.87488884579709,49.94054334825088],[-118.8645093263153,49.9412331225958],[-118.85792439822636,49.95149577570039],[-118.85845027605545,49.95690151267729],[-118.8523283582071,49.957901918062525],[-118.82617885175056,49.95240366714802],[-118.80803768868545,49.95561448144443],[-118.8050237220668,49.96460110507792],[-118.80099273816923,49.96655056552839],[-118.80209538991404,49.980988212136644],[-118.7975574090316,49.98766180869588],[-118.8088634511391,49.98947847776323],[-118.82274210833724,49.99996711440428],[-118.82211627049142,50.004473480649814],[-118.81655804683862,50.00735589763857],[-118.80988513068323,50.02183867920897],[-118.81459985631764,50.02583750466662],[-118.82308220801042,50.0224474952087],[-118.82878911420676,50.02705859115635],[-118.83503390963601,50.035765330463825],[-118.85908957096025,50.03653038437732],[-118.86426194820632,50.04259427181401],[-118.86889732166871,50.052790096914016],[-118.87917300240866,50.05337571516988],[-118.88946046586749,50.05105953103065],[-118.8991791725616,50.054841687312894],[-118.90779178722052,50.0539061513565],[-118.91290360193388,50.052473174802586],[-118.91697106555223,50.044432274031124],[-118.92330719931438,50.04284405329735],[-118.93888834980854,50.04997137475038],[-118.94687217625464,50.05703549342725],[-118.95823145653559,50.0476307759344],[-118.97767239218477,50.04517873323646],[-118.98203719622254,50.04537550740411],[-118.98691923441231,50.048039543020344],[-118.99787975775567,50.04768235964071],[-119.03041622350433,50.04078241924124],[-119.0462173466337,50.04168599944109],[-119.0643060752794,50.037050227358044],[-119.07110857514466,50.04212974059147],[-119.0723592217459,50.04602686663828],[-119.08221708352542,50.04609672234747],[-119.09403012668892,50.052612123254],[-119.09677536994982,50.05208455404603],[-119.10546348712556,50.04531586049218],[-119.12959787233275,50.046125578391994],[-119.14334882401266,50.04495151202652],[-119.15057177912118,50.048900467971215],[-119.16048382199779,50.048200863096675],[-119.17338962845021,50.049743202834335],[-119.17742334006432,50.05598866240631],[-119.17768974773756,50.059723545916114],[-119.16705250911453,50.0700948415616],[-119.17296376838695,50.077099121286025],[-119.1695220048269,50.0856161506683],[-119.16528887291719,50.0932897688017],[-119.1501113143489,50.105829202357384],[-119.1409960610131,50.11926973585507],[-119.14125469609672,50.1388523392404],[-119.14610802258059,50.15124756548613],[-119.32903588728392,50.15110066163109],[-119.3277285880201,50.15330630741742],[-119.32206251356124,50.157837844321826],[-119.30060494433863,50.16941646324404],[-119.30013672757933,50.176185279782324],[-119.28866916499628,50.17652568398875],[-119.2883253016918,50.1837152580588],[-119.27268184703031,50.18394713854446],[-119.27257607372731,50.18794069002786],[-119.26719005566876,50.18812573082465],[-119.26692572676704,50.1843983430021],[-119.26170904138012,50.184310446660724],[-119.24500609600233,50.184130431483126],[-119.24437277187434,50.187512282492115],[-119.23305803986399,50.18744341977624],[-119.2324252033849,50.18022637462712],[-119.22111550743004,50.180238376271404],[-119.22149944947597,50.1875660448259],[-119.22713501143161,50.18757103143601],[-119.22726096545426,50.194930162653655],[-119.21709102028684,50.194859958297116],[-119.21726409336824,50.19831644177567],[-119.20440506421217,50.19847466183349],[-119.20405975487041,50.20234047808296],[-119.19340275510405,50.202323203322976],[-119.19302837493079,50.19551156946913],[-119.18211134101627,50.19561985454154],[-119.18191762847901,50.202967356898526],[-119.15365109482063,50.202494448654896],[-119.1536805489094,50.19522147999743],[-119.147613020195,50.195192563523364],[-119.14764895562186,50.210435207776186],[-119.11398514193823,50.20891388947805],[-119.11404968468023,50.21214287027454],[-119.10805500196035,50.21214521940521],[-119.10800006945772,50.216050010334826],[-119.08241549060021,50.216176010797675],[-119.0805100309979,50.22356497064891],[-119.06882897300142,50.223489596368594],[-119.06923944446712,50.22665897248259],[-119.06765181320704,50.22821403281228],[-119.07001070352356,50.230662031498234],[-119.06984043005535,50.23566236804917],[-119.0659261009138,50.23614751741067],[-119.06562159027946,50.24170113931006],[-119.05644645049172,50.24212667889192],[-119.05610636654524,50.252759471449686],[-119.06707231169433,50.25268084459201],[-119.06719733693258,50.24843142969291],[-119.07858781548407,50.248117512000874],[-119.07920310247069,50.26346405350489],[-119.0561026187458,50.26349533353558],[-119.05584944738155,50.26000410975823],[-119.03374515102851,50.259939878248645],[-119.03349226219464,50.267001781017505],[-118.9987745081146,50.266849988316174],[-118.99863394926808,50.27967632932013],[-119.00311257137253,50.305973267688536],[-118.99684112535903,50.34960075522459],[-119.00020586437972,50.37274477902711],[-119.00026003839557,50.45482490684084],[-119.00187008527443,50.48838678213959],[-118.6950595035481,50.4881800061042],[-118.69331979990768,50.44533938781595],[-118.69389750468383,50.419443439689815],[-118.68560274587801,50.41941074295195],[-118.68557391617432,50.41470701933483]],[[-118.98703485629433,50.26484770262543],[-118.98764805029458,50.237805331460024],[-118.96627913290108,50.236899434627155],[-118.9661234178379,50.235280236663],[-118.96542704164384,50.23522586651717],[-118.96554480778215,50.239101168149425],[-118.95847696416928,50.241529208450764],[-118.95353879886305,50.24139784884707],[-118.95333670346398,50.2461451618813],[-118.9511686915642,50.24600288729357],[-118.95112935629687,50.248570506139295],[-118.94863962981445,50.24927688204297],[-118.94884852818853,50.25287573848415],[-118.95763253145692,50.25235410536551],[-118.95964700728236,50.253450025360436],[-118.95962908122206,50.25684749032886],[-118.96187353331251,50.257033525390405],[-118.96215264092848,50.25295928645957],[-118.96588954755693,50.25345348759504],[-118.96572707430806,50.255706426013546],[-118.96959166587507,50.25573046321218],[-118.9690807653499,50.264870687344654],[-118.98703485629433,50.26484770262543]]]},"bbox":[-119.32903588728392,49.81232225542521,-118.62900448542739,50.48838678213959]},{"id":"5937023","type":"Feature","properties":{},"geometry":{"type":"Polygon","coordinates":[[[-118.40370770501943,50.831948031544776],[-118.39117766840549,50.83067128649695],[-118.37560092603282,50.8319929468818],[-118.37349207969929,50.83869282018935],[-118.37036984049348,50.84087128242944],[-118.36050132444764,50.83933993907608],[-118.35651763289808,50.841577490166806],[-118.32538114519117,50.84894212307738],[-118.32544138724134,50.85438034499786],[-118.32209443686341,50.85687467386615],[-118.30437148617312,50.858637831997704],[-118.29428161370078,50.86440291113937],[-118.2876969770612,50.85444387955507],[-118.28630427579499,50.84928336314367],[-118.28294497571953,50.84714937515892],[-118.27733903631456,50.84673293484049],[-118.2683547932297,50.84032283505882],[-118.27601965313924,50.823966667730964],[-118.27271525665157,50.822808801303644],[-118.2674547411566,50.82378283887424],[-118.25851249850079,50.81855129900498],[-118.26795714012209,50.81344018492961],[-118.2677353221217,50.80973754585343],[-118.26118255362135,50.79938203169129],[-118.2608401392783,50.796406809524115],[-118.26383440612891,50.78888458539724],[-118.26145103525127,50.78499355831104],[-118.25227081980155,50.78210952494549],[-118.24761287849098,50.77380244539511],[-118.24845506080764,50.76690027949077],[-118.24189769972105,50.755192840636674],[-118.22694705599048,50.74338111181769],[-118.2058536919726,50.73892506301874],[-118.2059332074398,50.735639845515536],[-118.20983138019172,50.729511939276684],[-118.20666048406267,50.71991488966183],[-118.20886379790055,50.713368691466464],[-118.20066297312793,50.69894646488886],[-118.21458551721828,50.68211148441359],[-118.2134797141821,50.68000907586596],[-118.19903584920077,50.67421413863871],[-118.1786168781428,50.67172587714809],[-118.17073750961963,50.66545012031926],[-118.18287283880265,50.66304349199276],[-118.18800684333222,50.659489761026606],[-118.20632628464186,50.65538566353998],[-118.1998030984517,50.647418441537035],[-118.19923683699264,50.64476398992046],[-118.20125884118151,50.64003411263353],[-118.19598122609611,50.63420354201369],[-118.18075994758037,50.63523544872548],[-118.17810614370352,50.62337678277018],[-118.16269415677496,50.6114659300227],[-118.16827631528251,50.60607106882451],[-118.16704074645621,50.59977023487755],[-118.16824638954998,50.59468618597858],[-118.16332232032703,50.58985435003417],[-118.16822994572564,50.58698436763459],[-118.16788620774545,50.58481659332963],[-118.17774269864681,50.58030472394179],[-118.17553328383822,50.57442291830752],[-118.16952404715308,50.56967632019862],[-118.17530430552002,50.56141326714035],[-118.17993935872028,50.560151179922464],[-118.17876006428024,50.557267902373624],[-118.179663926882,50.55358263518927],[-118.18250855819625,50.550887187583655],[-118.18784768035262,50.54931754053819],[-118.19843136491296,50.55218774915575],[-118.20388045500084,50.55160820460135],[-118.20486124315471,50.548703841762034],[-118.20942618853294,50.548006972400685],[-118.20869243780513,50.545108278406694],[-118.21530428590154,50.53806764299002],[-118.20575097224243,50.53365922728728],[-118.19661248995062,50.52668859071178],[-118.19516734729604,50.523613476399014],[-118.20487530536947,50.518498917940086],[-118.20207578321023,50.511803812176204],[-118.19563993404778,50.50893534544014],[-118.18560222987412,50.50066348359899],[-118.17753010168725,50.499826745421004],[-118.17606924484475,50.493116781032285],[-118.18942946844004,50.481073906282255],[-118.19216268742012,50.47464850199842],[-118.20827000995105,50.4791066663306],[-118.2180995361822,50.476341601175214],[-118.22063392055485,50.471145069703375],[-118.21960098105875,50.4694534045719],[-118.20768305204687,50.46412933092026],[-118.2043029379794,50.46433425603401],[-118.20447599973193,50.451303845488006],[-118.21205016050773,50.43941555704569],[-118.2298286683361,50.43372824588193],[-118.24160648633382,50.43514932068352],[-118.2628129851834,50.434734549806876],[-118.26758563208966,50.4362185443557],[-118.27256624038979,50.43496585082724],[-118.27011503890742,50.43085391365579],[-118.27294910599423,50.42139344004166],[-118.26991590700386,50.415845278785554],[-118.27697630642835,50.40133554740256],[-118.25583676288052,50.398780009407375],[-118.25474755293041,50.39722079613531],[-118.25650050953028,50.395531148293855],[-118.28208467380925,50.392415231635745],[-118.28580312103638,50.38784079015349],[-118.29167211837726,50.38607009533453],[-118.30137464631424,50.37988937874237],[-118.30221221473307,50.37658737545417],[-118.31074490263393,50.37113226640098],[-118.31739361479856,50.361465836081805],[-118.32689403383077,50.35199996256262],[-118.32772892187863,50.348698067325],[-118.32765012955348,50.3449864157098],[-118.32264886944583,50.34173256681178],[-118.30828464513249,50.33619764265921],[-118.30266622486982,50.337801974268416],[-118.28819346290094,50.337242558023235],[-118.27545786511003,50.33980316125279],[-118.26372122290057,50.33712384265782],[-118.2594878054049,50.33225165876172],[-118.26160726942811,50.33019230342772],[-118.26141571121838,50.328113562373424],[-118.25525122758047,50.32558935850669],[-118.26717815352961,50.318122528237836],[-118.26945496210179,50.31388530286977],[-118.26788630984517,50.30952840366224],[-118.2688618824726,50.3055227047197],[-118.26342735114582,50.3001238908761],[-118.26445920784276,50.29770198811452],[-118.26929240991483,50.29475021346956],[-118.2760624783555,50.27865560988019],[-118.27428677081933,50.268893600514005],[-118.26940608717548,50.25947436505515],[-118.27106218255209,50.25194709346145],[-118.2635713394353,50.24840169216024],[-118.26564971833714,50.2444876283736],[-118.25816890595281,50.22620915873847],[-118.253382686717,50.22263110208056],[-118.24847126539093,50.22189188305761],[-118.24838005093025,50.21845376596693],[-118.23871615484923,50.21085715594508],[-118.23692523489015,50.20616187880642],[-118.2394104801388,50.204922307096794],[-118.24072701899358,50.2010670755925],[-118.23912308673796,50.19629663858803],[-118.24320491854395,50.1931315052485],[-118.25247268566821,50.19023617786516],[-118.25984247587567,50.18305719201362],[-118.2637209125506,50.18142124470989],[-118.2523522532773,50.169099834003184],[-118.278186839769,50.15605165428236],[-118.27753161395583,50.14628987426669],[-118.28014902441485,50.143122978259264],[-118.29601394758315,50.13468284240519],[-118.29139485705082,50.131286614837286],[-118.29577763160563,50.115519579491725],[-118.2956956447956,50.111121942881866],[-118.29147506625215,50.102382968852986],[-118.29352351165284,50.09781528988682],[-118.29846031833817,50.09581235485091],[-118.3044331116732,50.095770691696806],[-118.3381718598264,50.10072266614614],[-118.34926152639886,50.09457067437183],[-118.3784290446845,50.08970401116564],[-118.3786759447475,50.08646398360061],[-118.38285572358149,50.08210112071311],[-118.38396293469636,50.07717480143227],[-118.39829617442892,50.07876123960512],[-118.39976004242244,50.03342332059362],[-118.49585480194114,50.03360775127853],[-118.49208079268239,50.03062372003827],[-118.47651564887572,50.02683127069497],[-118.46147221521453,50.0256665427527],[-118.4481108853737,50.022615702604405],[-118.43384119281991,50.01381771158231],[-118.43185882110608,50.00929506518927],[-118.43682451817635,50.005220620110826],[-118.43978181469299,50.00442470801024],[-118.44645750260592,50.006600109839994],[-118.47351338303967,49.999525281960096],[-118.47081392318238,49.99629023834334],[-118.47297788974936,49.98839140542892],[-118.47078098152538,49.98444698985038],[-118.4614184715906,49.97820389496223],[-118.44870153285318,49.973794737234485],[-118.443752449306,49.973744434640295],[-118.43204200316335,49.97948258636156],[-118.42423907560746,49.975117203614936],[-118.41588980335024,49.973044867765786],[-118.41377245977282,49.966953265520054],[-118.42062933886999,49.962150908805654],[-118.41893211260617,49.95398075948572],[-118.42252312307183,49.94970724295558],[-118.41535953743937,49.936291223157056],[-118.41843116252114,49.931158334548044],[-118.41739264867431,49.927128261922846],[-118.42019012861064,49.92259002550593],[-118.41870262547701,49.913602831773076],[-118.40693510077433,49.908329841733114],[-118.39139220586438,49.909865205728224],[-118.37738363988396,49.91363781277793],[-118.3753382607313,49.90754504168889],[-118.35890477697876,49.89466622229101],[-118.35358789491738,49.89456793021528],[-118.35388731483619,49.891782758861794],[-118.35987608730214,49.884085933979364],[-118.35933016609962,49.882621982736055],[-118.3684675791031,49.87463990831263],[-118.38448363697351,49.871152758459246],[-118.38051963897836,49.8674758967187],[-118.37859547458848,49.85911617605896],[-118.38171282978986,49.85012559836989],[-118.3814282567578,49.83849957400072],[-118.37440871409616,49.824580667233384],[-118.3664482916438,49.82335083491965],[-118.35837445996688,49.82485417234839],[-118.34612741270529,49.82460862952136],[-118.32458719864728,49.8306044092111],[-118.31222658315093,49.823689317099266],[-118.30457456670288,49.81233487699327],[-118.67187910765279,49.812710187077144],[-118.67239978419302,50.09385387910864],[-118.66897464496182,50.13905253781751],[-118.67052744155917,50.18007249118147],[-118.6683480887143,50.2021551227763],[-118.66994545094803,50.205577369817384],[-118.67129994817955,50.22369671762832],[-118.69455263106661,50.22366014313368],[-118.69506268651996,50.237776812415156],[-118.738622828408,50.23806205080344],[-118.73902090020167,50.244296043814174],[-118.79357556345568,50.24467919962983],[-118.79175664943818,50.270200531698514],[-118.77880951119836,50.26990555797146],[-118.77172511335519,50.268080006723515],[-118.76784920886821,50.2655539005092],[-118.75803642639161,50.26357708600765],[-118.75558607328058,50.26040867013827],[-118.75231700249125,50.2593866995016],[-118.74074592583075,50.26316230376518],[-118.72482250801265,50.257075503897404],[-118.7109004010716,50.2563518923831],[-118.70390483214989,50.24968165283493],[-118.69111400246075,50.24855505774695],[-118.68741682263035,50.24637034790066],[-118.67771273166468,50.24443196656074],[-118.67489542720945,50.24488635440067],[-118.67140211211847,50.2484624646079],[-118.66364542874537,50.24722485795384],[-118.65399452341774,50.251758606995686],[-118.64844170742937,50.25202089404479],[-118.64326241181065,50.256570195911046],[-118.62900448542739,50.26157984884144],[-118.63863052722793,50.2613677920085],[-118.63891613846913,50.267860388378814],[-118.69278798630911,50.26804243790487],[-118.69478178046171,50.410281319539905],[-118.68545580287562,50.40995584023928],[-118.68560274587801,50.41941074295195],[-118.69389750468383,50.419443439689815],[-118.69331979990768,50.44533938781595],[-118.6950595035481,50.4881800061042],[-118.57283786973662,50.48819664958892],[-118.5783726907869,50.494457518496176],[-118.58795239606806,50.49763656774241],[-118.58940535491152,50.50060944537084],[-118.58547229720975,50.50280312900962],[-118.58448773868216,50.51426476657548],[-118.5586797749314,50.527763628760084],[-118.5559556560726,50.53781126784093],[-118.54845243664916,50.53903020588547],[-118.53183486589865,50.53787456188354],[-118.51071617837889,50.549613319756766],[-118.48175323977298,50.55686887865399],[-118.47390619946037,50.571580026281936],[-118.47896383749736,50.57824804403252],[-118.47516534939284,50.584145713754246],[-118.48241842081882,50.58731090511183],[-118.48918167022981,50.59521909873373],[-118.4887162658431,50.608106946152525],[-118.47747513808396,50.62084731294556],[-118.4744636389425,50.62898633850017],[-118.46387685639459,50.63237278933057],[-118.45072427402758,50.63359163527009],[-118.43493371966072,50.64997368444959],[-118.42694929822599,50.651267971848775],[-118.41744844841124,50.66630044414256],[-118.42604836420024,50.67434390349051],[-118.42219783607037,50.68131662099946],[-118.42035548584111,50.68984492500031],[-118.42567155077403,50.69432905347872],[-118.42751277965029,50.698634605311995],[-118.42319559255243,50.703664576993354],[-118.40872318165451,50.712090757891914],[-118.40732543918915,50.72039673559651],[-118.41517497692263,50.724363245531514],[-118.43131613208442,50.72816854845654],[-118.43294332310514,50.73687835967683],[-118.43154037128278,50.752233560550735],[-118.44087879021977,50.75375663782885],[-118.44980062802773,50.76677726466051],[-118.45627717630796,50.7724878854942],[-118.45646311971358,50.776499598984074],[-118.44971744178045,50.78162035788305],[-118.45158252422351,50.78498965223441],[-118.43844083857981,50.78666779074354],[-118.43136884063831,50.79509485983966],[-118.43634596535915,50.7994516508156],[-118.4320449979872,50.80201845269532],[-118.42849898644847,50.809789964954945],[-118.43076542998507,50.81372425158857],[-118.43100577028619,50.81856727738236],[-118.43704941941522,50.82177923038456],[-118.4366682922377,50.8255101825301],[-118.42508630534041,50.82557048718817],[-118.41514701841349,50.83396609797308],[-118.40370770501943,50.831948031544776]]]},"bbox":[-118.79357556345568,49.81233487699327,-118.16269415677496,50.86440291113937]},{"id":"5937024","type":"Feature","properties":{},"geometry":{"type":"Polygon","coordinates":[[[-119.18344200232978,50.514381136884374],[-119.18345636070187,50.50000044521483],[-119.1546972655211,50.49861133230042],[-119.13790991359922,50.49961051005027],[-119.13718211160464,50.512334689876795],[-119.13962780226682,50.5127716124535],[-119.13932481693217,50.52037098155491],[-119.12368478470485,50.51862388521105],[-119.12434093879914,50.52010336448852],[-119.12266873542086,50.52089805067832],[-119.12369221120869,50.52200465427261],[-119.1208904110973,50.52558947613438],[-119.12278522349648,50.52756196231302],[-119.1230002143979,50.53361915984259],[-119.12534226334155,50.53622488941705],[-119.12326519215462,50.54121882175319],[-119.11725791294676,50.54276395304732],[-119.11506242810201,50.547337152575494],[-119.11248234403438,50.546475466257604],[-119.11004090942713,50.54300325918504],[-119.10726951700704,50.54254036182232],[-119.09861460540216,50.547580658271904],[-119.08401391534596,50.54911027013927],[-119.08339331453686,50.55325895763354],[-119.08197269735514,50.553988916079724],[-119.0794287622053,50.442106433334274],[-119.14909133527294,50.44175767676767],[-119.15038265205246,50.41303515770249],[-119.17255784803308,50.4126452704044],[-119.17126040195328,50.33981399837783],[-119.22678008649827,50.34025196043474],[-119.2304234790554,50.337903488507564],[-119.23239223329013,50.34024971245699],[-119.24942265746517,50.34023367815868],[-119.24878431019117,50.34468206865606],[-119.25175633764958,50.344583571113354],[-119.25174998756562,50.3402391741579],[-119.27788178426168,50.340376858575866],[-119.27768885248761,50.35149425792697],[-119.28536864771715,50.35185774299071],[-119.28218589645013,50.35453871597755],[-119.28415374456642,50.35460061608262],[-119.28420540607299,50.358410417907024],[-119.2910082379746,50.35858948369816],[-119.2905452874494,50.36915180946161],[-119.30602460168782,50.36930754253799],[-119.30856992613388,50.405177809957785],[-119.31926143166635,50.40531991078106],[-119.31737537959873,50.44078941076201],[-119.32821861852398,50.441066090401065],[-119.3289285435957,50.469983350380474],[-119.2973827645704,50.47135010918309],[-119.29746500563635,50.48490160510661],[-119.26319391680005,50.48497050212876],[-119.26317969514494,50.49282120828198],[-119.29620048562927,50.492878629763005],[-119.29633181392784,50.50033366250133],[-119.30801594687482,50.500270312524236],[-119.308466419718,50.52860320892263],[-119.18337170893243,50.52781477028679],[-119.18344200232978,50.514381136884374]],[[-119.23002327810286,50.38397196223967],[-119.22868038952872,50.383983853869836],[-119.2287315192986,50.390612121936584],[-119.23825325713588,50.390582426019044],[-119.23859705356139,50.38396992525761],[-119.23002327810286,50.38397196223967]],[[-119.21017744297761,50.45596319279597],[-119.2101121513444,50.44868418772423],[-119.216895765652,50.44878986951319],[-119.21712458412762,50.43625817089999],[-119.20575694997223,50.436088708036216],[-119.20573806300628,50.437740181063965],[-119.19447838970248,50.43787663461115],[-119.19454819616047,50.43914484526014],[-119.19309973307158,50.43416780675352],[-119.19125832043466,50.43415930833423],[-119.1911320929579,50.429782394964775],[-119.18328660826616,50.42974588830424],[-119.18241250065361,50.44740611642437],[-119.18000159349826,50.44985010209253],[-119.18220464569833,50.44929539484583],[-119.18327921261833,50.45154019779904],[-119.18256450940561,50.4558284590172],[-119.21017744297761,50.45596319279597]]]},"bbox":[-119.3289285435957,50.337903488507564,-119.0794287622053,50.553988916079724]},{"id":"5937028","type":"Feature","properties":{},"geometry":{"type":"Polygon","coordinates":[[[-119.18840063005831,50.45606575920843],[-119.18256450940561,50.4558284590172],[-119.18327921261833,50.45154019779904],[-119.18220464569833,50.44929539484583],[-119.18000159349826,50.44985010209253],[-119.18241250065361,50.44740611642437],[-119.18328660826616,50.42974588830424],[-119.1911320929579,50.429782394964775],[-119.19125832043466,50.43415930833423],[-119.19309973307158,50.43416780675352],[-119.19454819616047,50.43914484526014],[-119.19447838970248,50.43787663461115],[-119.20573806300628,50.437740181063965],[-119.20575694997223,50.436088708036216],[-119.21712458412762,50.43625817089999],[-119.216895765652,50.44878986951319],[-119.2101121513444,50.44868418772423],[-119.21017744297761,50.45596319279597],[-119.18840063005831,50.45606575920843]]]},"bbox":[-119.21712458412762,50.42974588830424,-119.18000159349826,50.45606575920843]},{"id":"5937033","type":"Feature","properties":{},"geometry":{"type":"Polygon","coordinates":[[[-119.13741800404901,50.56345065451849],[-119.13001874430137,50.56597006828917],[-119.12375142751978,50.562567670926846],[-119.12596274186838,50.55870516893486],[-119.13620442194376,50.55099875879284],[-119.13479082917883,50.54878416117167],[-119.13634231010727,50.54715487693832],[-119.13628542126041,50.543201473052726],[-119.15415474248988,50.543290256955466],[-119.15570309313473,50.55461841550785],[-119.15760267896682,50.55463670071394],[-119.16008129761835,50.550392704672056],[-119.16301445555446,50.55427924149934],[-119.16190491996169,50.554517910968414],[-119.16227825852081,50.562097505573234],[-119.15385645331935,50.56148818270065],[-119.14884027383204,50.55908097314288],[-119.14239160962998,50.559652028671145],[-119.14977621762897,50.57010144686793],[-119.14586624996062,50.57022185847082],[-119.14672100678517,50.56650837078166],[-119.14468462398047,50.56458575764439],[-119.13741800404901,50.56345065451849]]]},"bbox":[-119.16301445555446,50.543201473052726,-119.12375142751978,50.57022185847082]},{"id":"5937041","type":"Feature","properties":{},"geometry":{"type":"Polygon","coordinates":[[[-118.61277894364858,50.924619993885806],[-118.59395433953715,50.9271057634715],[-118.58983929353703,50.92365995151634],[-118.58444545617293,50.92340636209182],[-118.57572884879,50.92918215809727],[-118.53376909129356,50.93457265010537],[-118.52909206852289,50.93075007155158],[-118.49561733552713,50.91288816302615],[-118.47063487954,50.89455705830086],[-118.44977789813265,50.90342575989576],[-118.43048586627658,50.897766349278264],[-118.41159307140411,50.882671648210795],[-118.40640306059873,50.88194415079038],[-118.38696594659123,50.88328673323622],[-118.3701622448737,50.888063634116186],[-118.3572735681809,50.88162092748021],[-118.35181842571997,50.8825275860336],[-118.34714609423425,50.88588970810351],[-118.33163460995104,50.88106901587093],[-118.32323370918041,50.88211483560966],[-118.32056793061912,50.88566261824129],[-118.31442671665822,50.88836758109911],[-118.30742016698088,50.887128789791426],[-118.29107486475124,50.890123060438434],[-118.28503346856152,50.88959903158165],[-118.28090961349503,50.89545814978576],[-118.27841246834956,50.89594398685971],[-118.26861528714785,50.89347216595906],[-118.26613173430195,50.88873018269562],[-118.26612106322945,50.88450205675198],[-118.27341872967875,50.879792340451004],[-118.28222999742297,50.87850987610873],[-118.2932556252762,50.86985386617676],[-118.29428161370078,50.86440291113937],[-118.30437148617312,50.858637831997704],[-118.32209443686341,50.85687467386615],[-118.32544138724134,50.85438034499786],[-118.32538114519117,50.84894212307738],[-118.35651763289808,50.841577490166806],[-118.36050132444764,50.83933993907608],[-118.37036984049348,50.84087128242944],[-118.37349207969929,50.83869282018935],[-118.37560092603282,50.8319929468818],[-118.39117766840549,50.83067128649695],[-118.41514701841349,50.83396609797308],[-118.42508630534041,50.82557048718817],[-118.4366682922377,50.8255101825301],[-118.4377636907986,50.82427909173163],[-118.43704941941522,50.82177923038456],[-118.43100577028619,50.81856727738236],[-118.43076542998507,50.81372425158857],[-118.42849898644847,50.809789964954945],[-118.4320449979872,50.80201845269532],[-118.43634596535915,50.7994516508156],[-118.43136884063831,50.79509485983966],[-118.43844083857981,50.78666779074354],[-118.45158252422351,50.78498965223441],[-118.44971744178045,50.78162035788305],[-118.45646311971358,50.776499598984074],[-118.45627717630796,50.7724878854942],[-118.44980062802773,50.76677726466051],[-118.44087879021977,50.75375663782885],[-118.43154037128278,50.752233560550735],[-118.43294332310514,50.73687835967683],[-118.43131613208442,50.72816854845654],[-118.41517497692263,50.724363245531514],[-118.40732543918915,50.72039673559651],[-118.40872318165451,50.712090757891914],[-118.42319559255243,50.703664576993354],[-118.42751277965029,50.698634605311995],[-118.42567155077403,50.69432905347872],[-118.42035548584111,50.68984492500031],[-118.42219783607037,50.68131662099946],[-118.42604836420024,50.67434390349051],[-118.41744844841124,50.66630044414256],[-118.42694929822599,50.651267971848775],[-118.43493371966072,50.64997368444959],[-118.45072427402758,50.63359163527009],[-118.46387685639459,50.63237278933057],[-118.4744636389425,50.62898633850017],[-118.47747513808396,50.62084731294556],[-118.4887162658431,50.608106946152525],[-118.48918167022981,50.59521909873373],[-118.48241842081882,50.58731090511183],[-118.47516534939284,50.584145713754246],[-118.47896383749736,50.57824804403252],[-118.47390619946037,50.571580026281936],[-118.48175323977298,50.55686887865399],[-118.51071617837889,50.549613319756766],[-118.53183486589865,50.53787456188354],[-118.54845243664916,50.53903020588547],[-118.5559556560726,50.53781126784093],[-118.5586797749314,50.527763628760084],[-118.58448773868216,50.51426476657548],[-118.58547229720975,50.50280312900962],[-118.58940535491152,50.50060944537084],[-118.58795239606806,50.49763656774241],[-118.5783726907869,50.494457518496176],[-118.57283786973662,50.48819664958892],[-119.00187008527443,50.48838678213959],[-119.00070520023326,50.47366310234205],[-119.01151397875634,50.473302564046996],[-119.01139707794943,50.45960807463344],[-119.05972036204558,50.45857343863003],[-119.05955509156763,50.44464727233569],[-119.07939790891493,50.4447061557769],[-119.08206776830663,50.55442678364089],[-119.07841600108823,50.551355500258346],[-119.06954180498217,50.551052703426436],[-119.06824460831874,50.55178100669387],[-119.06988145174712,50.555437867149315],[-119.0743208738327,50.55549277944663],[-119.07478807894312,50.55730401932775],[-119.12536836102221,50.55765195394775],[-119.1361856377004,50.55026765683992],[-119.12501740557305,50.55963946393133],[-119.12433441883222,50.563618669155645],[-119.13074142218645,50.56600135817932],[-119.13766952164393,50.5633922512165],[-119.14287352141835,50.563890667464584],[-119.14672100678517,50.56650837078166],[-119.14586624996062,50.57022185847082],[-119.14942398028069,50.570155007540315],[-119.14239160962998,50.559652028671145],[-119.14884027383204,50.55908097314288],[-119.15385645331935,50.56148818270065],[-119.16227825852081,50.562097505573234],[-119.16190491996169,50.554517910968414],[-119.16299622267232,50.55423262517365],[-119.16008129761835,50.550392704672056],[-119.15760267896682,50.55463670071394],[-119.15570309313473,50.55461841550785],[-119.15415474248988,50.543290256955466],[-119.18353745070293,50.54386650130431],[-119.18030244832859,50.750096812069664],[-118.88303733662676,50.75042413100561],[-118.87781414270978,50.75895506610655],[-118.8723376868349,50.7595487623122],[-118.85801851776958,50.75734306118959],[-118.8549458178334,50.759323453681944],[-118.8556165595567,50.76491697790476],[-118.85390488522134,50.766490322198244],[-118.83217700229633,50.76773735945121],[-118.82902729448546,50.76989616363507],[-118.8307178044563,50.77681849615707],[-118.82496464962165,50.78222927108851],[-118.81265490361316,50.78667698450557],[-118.81080856318286,50.794583760251335],[-118.80868475015883,50.79719458556339],[-118.79509556446757,50.80257779314625],[-118.788838167303,50.809002743066536],[-118.78441011249673,50.81535236354321],[-118.78163085587012,50.823024657993294],[-118.7781270209976,50.82604450027646],[-118.77207876528219,50.827474902040564],[-118.75291537584036,50.823691139640864],[-118.7329862645484,50.82579667779965],[-118.7260810355802,50.822691233918405],[-118.7179985030814,50.81425218915784],[-118.71509428469172,50.8131400220095],[-118.71137508530298,50.81420091870681],[-118.69937430747505,50.811203732800756],[-118.6748408740123,50.81543183107851],[-118.66767214308273,50.819264905509414],[-118.66444886071359,50.82302017193564],[-118.66357742724668,50.83208267179032],[-118.67031636554957,50.839581348754564],[-118.67128310650531,50.84363236113442],[-118.66816219799465,50.84690328568172],[-118.65161028613115,50.85323037793197],[-118.6392551005453,50.84814441501909],[-118.63373858736196,50.848361965426754],[-118.61854534607488,50.85996504675466],[-118.61738722154195,50.862678148132694],[-118.6199401510039,50.86329709931408],[-118.63601571590789,50.860079484477986],[-118.63941977053031,50.860904119892524],[-118.63946483752947,50.86297904720736],[-118.63802371558032,50.86562376419945],[-118.6258215079632,50.87444268198507],[-118.61947445909486,50.88573602519343],[-118.60960390932874,50.894113882897734],[-118.60772670037798,50.90261380490618],[-118.61387645469803,50.91855788085879],[-118.61277894364858,50.924619993885806]]]},"bbox":[-119.18353745070293,50.44464727233569,-118.26612106322945,50.93457265010537]},{"id":"5937801","type":"Feature","properties":{},"geometry":{"type":"Polygon","coordinates":[[[-119.31918196445262,50.40511378574272],[-119.30856992613388,50.405177809957785],[-119.30602460168782,50.36930754253799],[-119.2905452874494,50.36915180946161],[-119.2910082379746,50.35858948369816],[-119.28420540607299,50.358410417907024],[-119.28415374456642,50.35460061608262],[-119.28218589645013,50.35453871597755],[-119.28536864771715,50.35185774299071],[-119.27768885248761,50.35149425792697],[-119.27910514527429,50.32593806857356],[-119.28180772961515,50.322215162165314],[-119.28395321377772,50.32271365663351],[-119.28533943569846,50.316488466986705],[-119.2869483175251,50.315448762444],[-119.28578760880093,50.31046696255734],[-119.28357961777384,50.308962004852184],[-119.28274715573437,50.30327655587691],[-119.30641190541384,50.302899060516715],[-119.30615304042315,50.289452590060165],[-119.32987234399789,50.289191522058715],[-119.33108426910418,50.27477835657974],[-119.35162935576948,50.2743690494872],[-119.35221760921846,50.2600975836684],[-119.37950784084252,50.25938285756601],[-119.38043817440432,50.25294463966993],[-119.4189800935167,50.2528537110154],[-119.41821220517484,50.25624006181172],[-119.41481394404857,50.259252364267766],[-119.40575151141952,50.26093286245312],[-119.38967480993892,50.27081837227894],[-119.39057053481964,50.27301155922292],[-119.39014801477994,50.27409965312866],[-119.38993131393681,50.27288196823019],[-119.38589240764784,50.27600527197813],[-119.38428540499939,50.27561505664331],[-119.38766642129389,50.27922397680816],[-119.37480582801172,50.28394956167177],[-119.36062244405893,50.294340568849776],[-119.3574521203953,50.29757067023871],[-119.35892523486652,50.30148016510729],[-119.355305724935,50.30443245124326],[-119.35200443132682,50.304688847541705],[-119.3306264398574,50.31552566387252],[-119.32762251117653,50.318167575840405],[-119.32825192048571,50.319873767994316],[-119.32548692290611,50.32046765164622],[-119.32602342248548,50.32425326642767],[-119.3210394330019,50.32436147314124],[-119.30819221368733,50.33352336252892],[-119.3077922101748,50.33829876318293],[-119.30594191622728,50.34046645641665],[-119.31247871261685,50.34827966020173],[-119.31655452946762,50.34911565749462],[-119.32547569936413,50.34327926169336],[-119.32653222146592,50.34419357024749],[-119.32805591066138,50.34284057493851],[-119.32543442788523,50.34271386994728],[-119.33044371191707,50.334805161175794],[-119.33588841068396,50.333167364310015],[-119.34058051278014,50.33459295669855],[-119.3592127050485,50.322324856179655],[-119.36903683408576,50.320137258510634],[-119.37099290802756,50.31626625853064],[-119.36819721348326,50.311177561747854],[-119.3772512091991,50.30568577287371],[-119.37639633553397,50.30206975282823],[-119.38413954172084,50.302756262630695],[-119.39218273879698,50.297876854684645],[-119.39339513214235,50.29156476123427],[-119.39128831289723,50.28453776155545],[-119.39928011977736,50.27987625309388],[-119.40081952427376,50.27726286365623],[-119.42714511772407,50.2696988523584],[-119.44357331337784,50.269552172712615],[-119.44730901915081,50.25291455612992],[-119.45086281029164,50.245625473735004],[-119.44677643382506,50.24059234756713],[-119.43872492211898,50.2348342584143],[-119.43684883799828,50.22580615615189],[-119.44208411236004,50.22208047184098],[-119.45282941512606,50.218921564637704],[-119.46075721875114,50.21119038652331],[-119.45913874108984,50.26022073753756],[-119.45435762348805,50.26021181460142],[-119.4542282446328,50.27460718222074],[-119.44941816991415,50.274683671458895],[-119.44865634513901,50.314297267994775],[-119.40343947115184,50.314318670190005],[-119.40331907763894,50.31799017190568],[-119.39200122279561,50.317801533765035],[-119.39193391367307,50.32120948698735],[-119.38666361551785,50.3212100359399],[-119.38612236934748,50.32511601285986],[-119.3809627482525,50.325027492314774],[-119.38021311273029,50.3325728872421],[-119.36954591872743,50.332477161760934],[-119.36933025427932,50.33920887445995],[-119.35265295573208,50.33945316115505],[-119.35269593064882,50.346974934377826],[-119.34184300400479,50.34690470300759],[-119.34149254228615,50.40470639879631],[-119.35219941560118,50.405105854040976],[-119.3523910025948,50.41617074180828],[-119.31786342666068,50.4161462463675],[-119.31918196445262,50.40511378574272]]]},"bbox":[-119.46075721875114,50.21119038652331,-119.27768885248761,50.41617074180828]},{"id":"5937802","type":"Feature","properties":{},"geometry":{"type":"Polygon","coordinates":[[[-119.13643102135414,50.54320132716262],[-119.13634231010727,50.54715487693832],[-119.13479082917883,50.54878416117167],[-119.1361856377004,50.55026765683992],[-119.12536836102221,50.55765195394775],[-119.07478807894312,50.55730401932775],[-119.0743208738327,50.55549277944663],[-119.06988145174712,50.555437867149315],[-119.06824460831874,50.55178100669387],[-119.07841600108823,50.551355500258346],[-119.08206776830663,50.55442678364089],[-119.08401391534596,50.54911027013927],[-119.09861460540216,50.547580658271904],[-119.10726951700704,50.54254036182232],[-119.11036243150865,50.543239656788465],[-119.11311022830414,50.546904153408065],[-119.11596082363539,50.54691556401164],[-119.11676741493227,50.543185573701514],[-119.12326519215462,50.54121882175319],[-119.1250397628594,50.53755143504907],[-119.12296912328382,50.53353935327204],[-119.12278522349648,50.52756196231302],[-119.12089201461512,50.525626464649484],[-119.12369221120869,50.52200465427261],[-119.12266873542086,50.52089805067832],[-119.12434093879914,50.52010336448852],[-119.12368478470485,50.51862388521105],[-119.13932481693217,50.52037098155491],[-119.13962780226682,50.5127716124535],[-119.13718211160464,50.512334689876795],[-119.13790991359922,50.49961051005027],[-119.1546972655211,50.49861133230042],[-119.18345636070187,50.50000044521483],[-119.1835553078866,50.54386535220428],[-119.13643102135414,50.54320132716262]]]},"bbox":[-119.1835553078866,50.49861133230042,-119.06824460831874,50.55765195394775]},{"id":"5937803","type":"Feature","properties":{},"geometry":{"type":"Polygon","coordinates":[[[-119.34835956933006,50.24827396458496],[-119.33083920565252,50.248449740625865],[-119.33066217990877,50.245730046432385],[-119.3456685504024,50.244775015943176],[-119.34835956933006,50.24827396458496]]]},"bbox":[-119.34835956933006,50.244775015943176,-119.33066217990877,50.248449740625865]},{"id":"5937805","type":"Feature","properties":{},"geometry":{"type":"Polygon","coordinates":[[[-119.22873130873398,50.3848788701049],[-119.23859705356139,50.38396992525761],[-119.23825325713588,50.390582426019044],[-119.2287315192986,50.390612121936584],[-119.22873130873398,50.3848788701049]]]},"bbox":[-119.23859705356139,50.38396992525761,-119.22873130873398,50.390612121936584]}],"bbox":[-119.76280483616976,49.81232225542521,-118.16269415677496,50.93457265010537]}