{"type":"FeatureCollection","features":[{"id":"5957022","type":"Feature","properties":{},"geometry":{"type":"Polygon","coordinates":[[[-135.40000002614968,60.00005904715349],[-127.72500008816814,60.0000221504593],[-127.7246009103912,59.99610041188624],[-127.73047101223318,59.99318754575068],[-127.72860753643916,59.89570745282407],[-127.70261894175636,59.89601308120068],[-127.67753765663421,59.89322350731809],[-127.65549982585355,59.88014259143803],[-127.65628776428393,59.86426613922176],[-127.6606356468778,59.85503454490569],[-127.67263939773302,59.85063616377044],[-127.70893604447961,59.848463866320635],[-127.73583918924066,59.84254937336785],[-127.7589476028822,59.8424029996456],[-127.76748599022287,59.83782688442858],[-127.76918761455185,59.82823856694945],[-127.76335310971524,59.823178803214304],[-127.76191522881984,59.8169848715795],[-127.75751467298754,59.81100627928737],[-127.76164166192993,59.799696981866404],[-127.80272594098054,59.785446060806144],[-127.7868011472442,59.772112163606884],[-127.81058614678705,59.759338083079435],[-127.80449776483734,59.74686878233268],[-127.80002959738812,59.73188171416511],[-127.7940740548323,59.72765117888177],[-127.7945350682665,59.72385490972753],[-127.79795127172056,59.72089562064828],[-127.79970997011718,59.71131832772816],[-127.79693750834817,59.708546748082064],[-127.78707686656378,59.70481281643832],[-127.78567831122231,59.701517187620674],[-127.79785007059746,59.69513220800245],[-127.7958640204845,59.692449735492346],[-127.78678417601927,59.687445056481906],[-127.77773535666047,59.67541163570421],[-127.76661853843804,59.67106145855641],[-127.75693669047406,59.6694870085958],[-127.75261060545365,59.66664882742282],[-127.75132119619762,59.65555646324782],[-127.72766554364168,59.62997521316114],[-127.71316852517917,59.62651935189194],[-127.6774669696266,59.612871457412375],[-127.59267264869632,59.597040749745965],[-127.57301710510588,59.569772813853234],[-127.56274340057769,59.56115269821816],[-127.55536247748137,59.55749659930886],[-127.5468028138765,59.55711304186495],[-127.53267728474265,59.534416931526025],[-127.49398869140236,59.53008095771805],[-127.48484482206024,59.52370566579946],[-127.48393864820143,59.51494676273123],[-127.44617526147015,59.48894918806573],[-127.44514904633421,59.47923710459422],[-127.42771386527886,59.455250538986746],[-127.4146371549691,59.44779359747173],[-127.3917028360589,59.42524736453175],[-127.36967977377684,59.40021432908641],[-127.35587720367062,59.39172099740474],[-127.3426456899548,59.37866314233564],[-127.33487792700429,59.3608374887047],[-127.3331227919402,59.346578837539525],[-127.29157618032862,59.30477553154888],[-127.27970592246801,59.28216879729833],[-127.25053961319912,59.258750906624805],[-127.23586102018359,59.25305633958048],[-127.22739097469064,59.24219625703566],[-127.22305003493567,59.21721136758502],[-127.20824697644213,59.208018774592354],[-127.1983478688743,59.196167314349324],[-127.193128680196,59.18250918340116],[-127.1935809551804,59.15907011832136],[-127.1869560382362,59.14889412930872],[-127.17093650849486,59.14019722683241],[-127.1132035786035,59.12046249315897],[-127.0985794338867,59.1206551419279],[-127.06807328498749,59.133650716844016],[-127.04591075120645,59.13607457865567],[-127.02763400744776,59.132951834295355],[-126.98874042712058,59.11875905314029],[-126.97626946541631,59.11140248875081],[-126.97214828370318,59.10299484914277],[-126.9750685094494,59.085526549192174],[-126.96655730375828,59.075041902108175],[-126.97856134872576,59.049811203065204],[-126.97671084040688,59.04364926282445],[-126.95138547452252,59.024687937212306],[-126.94383672711915,59.000414387315786],[-126.9443392115489,58.99616354680485],[-126.95188093030532,58.980485979016095],[-126.9434632954681,58.97177157552318],[-126.9482685225254,58.961633524621796],[-126.95789079586683,58.94948306716798],[-126.96593934645915,58.94396707382211],[-126.98487514551512,58.92092342277973],[-126.99239779706113,58.90933567218467],[-127.0340927457022,58.872216588838896],[-127.0520710787014,58.86272966444369],[-127.05723938195744,58.85665241152566],[-127.05941939592354,58.85060176832081],[-127.05685378142405,58.84369091060508],[-127.05039573232307,58.8339032784642],[-127.03702525878782,58.82503899681985],[-127.02138492607088,58.806628821556984],[-127.00422283711104,58.804314967410846],[-126.99242215048451,58.806135766722214],[-126.98699894572935,58.80946259899309],[-126.97084559122618,58.81420650212111],[-126.95938998466667,58.81372080004071],[-126.94867705570037,58.8089734739227],[-126.93172796249935,58.79683312057502],[-126.89534845126919,58.778130980819455],[-126.87962379233367,58.76121981058758],[-126.83439598828065,58.72210944534326],[-126.83980337352799,58.708051584497596],[-126.8510992529145,58.69767736153627],[-126.86131186093426,58.6928172157295],[-126.87044521518888,58.685119150357515],[-126.88781117440304,58.677961801147724],[-126.90668012883289,58.66116645489414],[-126.91603733931946,58.64662161365727],[-126.91435145943178,58.638803916114966],[-126.89714357602041,58.6307869894427],[-126.87351514430581,58.63674020892715],[-126.84420715932944,58.65481123261879],[-126.83557061059334,58.663114423749235],[-126.79274273385127,58.66840372545755],[-126.76440341945737,58.66907439883354],[-126.74386777816484,58.66726144505129],[-126.72147404163637,58.656111490877464],[-126.69990127980473,58.64886990642144],[-126.66683224069824,58.628012001319824],[-126.63730578151966,58.6036533350833],[-126.61588587257634,58.59259765775547],[-126.60559181968223,58.58515322356424],[-126.58552482045128,58.580410559023896],[-126.55198570552403,58.579134973065976],[-126.53960243726192,58.5822545155339],[-126.5289002643288,58.58879680960956],[-126.48676978464032,58.605044583278946],[-126.46816001665766,58.6002204551718],[-126.45721394104106,58.60326982891739],[-126.44580728223039,58.603298904299166],[-126.40327062525364,58.59689627060798],[-126.38918824620508,58.59855180949623],[-126.37499296386885,58.6034014108352],[-126.33239395463214,58.610038481526836],[-126.31986754114081,58.60843145281122],[-126.30289601688975,58.59835136925582],[-126.29963147203561,58.59029035443],[-126.30299118624664,58.57224928654525],[-126.28482571506805,58.54931885109308],[-126.24962283156142,58.52207156363805],[-126.23105173274013,58.51250554393338],[-126.20759362166245,58.49342355015121],[-126.17858972978227,58.48427158606168],[-126.15885846897586,58.47225745126279],[-126.13812282108798,58.46506405677644],[-126.11014477267581,58.46085424056392],[-126.07055007622903,58.44941680277995],[-126.06585992429713,58.431830278544176],[-126.06009712027748,58.42048420673806],[-126.04783477054589,58.414659844250394],[-126.01456064298668,58.40655000838499],[-126.00001053290971,58.40680311058078],[-125.9308900579066,58.39528784858199],[-125.92169101945909,58.400662489271234],[-125.9091132343033,58.40220327370779],[-125.89785562774419,58.408716785749384],[-125.89458798158849,58.41228931313722],[-125.87723351634904,58.41426062927513],[-125.85745433032504,58.41265744263121],[-125.84528104468156,58.400556667596106],[-125.83552716408185,58.38099342195999],[-125.8253543689574,58.37305162379859],[-125.82296812342699,58.3694040949243],[-125.8352897918591,58.360929130711135],[-125.8333697237808,58.35616875032978],[-125.82492819569218,58.35259637409363],[-125.78462508478675,58.34601311696951],[-125.78085012824715,58.331508757038506],[-125.77489738148893,58.32161659134955],[-125.76564143048427,58.320361703984915],[-125.75034383890967,58.32356024789694],[-125.7374933579881,58.318001592731164],[-125.73040497565091,58.311236822621666],[-125.71739303078354,58.30727590880854],[-125.65019138910452,58.30391260031169],[-125.62660566303813,58.306693131447936],[-125.61026585230012,58.312898733481056],[-125.59263980147072,58.314598057631294],[-125.58455955407493,58.3127336030428],[-125.57275724190877,58.316615007975216],[-125.55184269276637,58.31955345309208],[-125.51745799558448,58.30865745037615],[-125.48049818892517,58.30865313726376],[-125.47656188549627,58.30935399534364],[-125.47254727923836,58.316166926047636],[-125.46909847294849,58.32738494642853],[-125.46239278622086,58.33522895484506],[-125.45154716501925,58.34022564689296],[-125.439346744912,58.34113453920014],[-125.42663298492985,58.33628305607899],[-125.41558467652813,58.327191265158554],[-125.39082510506049,58.31493880422746],[-125.37727573204229,58.298388272121606],[-125.37133486750417,58.294721315504574],[-125.36162058136497,58.293205737460156],[-125.35406232414493,58.28978438337067],[-125.35640054498712,58.27946768905343],[-125.3393102857569,58.27597168392523],[-125.32853318952655,58.27777076066835],[-125.30872672146688,58.29153490539422],[-125.28862133750151,58.30289376792763],[-125.28045951650194,58.30363901696373],[-125.27570477820377,58.30060620949446],[-125.26418007240623,58.281955861733],[-125.21924335374067,58.2560716101255],[-125.2012991386869,58.23926415928402],[-125.1854898893953,58.23860420105943],[-125.17195673882372,58.24346625931866],[-125.16010571687254,58.24383674497037],[-125.14150784733845,58.23630944335504],[-125.1199987228293,58.23861574324307],[-125.08813601026898,58.23533289011367],[-125.05696298717614,58.23538760229209],[-125.03879237222687,58.24155309939578],[-125.02858712426156,58.24140337468224],[-124.9924103699224,58.23308243393055],[-124.95186697703913,58.23083551608234],[-124.94265729323153,58.235356742720015],[-124.92626696069648,58.2532141104801],[-124.91669153806205,58.25610385593995],[-124.89899930269726,58.24370391326404],[-124.89230947163693,58.23059317085233],[-124.87985297371833,58.223437485923526],[-124.84891953029653,58.22135372532641],[-124.83935891230524,58.21555645632302],[-124.82970496373919,58.207061364018095],[-124.83103425283367,58.198730976302755],[-124.8498693395584,58.184881357822434],[-124.87515813614851,58.17440867425055],[-124.8839553756736,58.16431677639791],[-124.8826924677658,58.157508192769576],[-124.87405783578484,58.13953876961378],[-124.86096492608469,58.12489038663175],[-124.87602574981217,58.10389466950841],[-124.88740036845087,58.09404561587021],[-124.90389093304478,58.08481846801312],[-124.91906686141236,58.073971548861174],[-124.92636113986853,58.06489103455469],[-124.92684628998109,58.053434690963144],[-124.91702713522145,58.03042733056324],[-124.91938588870613,58.025419695458055],[-124.92702471390604,58.023654681498904],[-124.95588976162233,58.025738998229954],[-124.96631415672883,58.02191803338773],[-124.9683852158838,58.01652220598289],[-124.96213338875523,58.00684582802045],[-124.93915035201186,57.99383887116121],[-124.91898935878419,57.9862427855094],[-124.92421781229189,57.98432740115341],[-124.98234871734893,57.981424774264205],[-125.00524372643972,57.98739160819873],[-125.03446382586326,58.00188257482332],[-125.09470079802452,58.01910198040871],[-125.14533989768985,58.02368459780672],[-125.15749596170426,58.02230353580129],[-125.17224438197155,58.02375088723626],[-125.2039071216924,58.0223562929495],[-125.2276018377378,58.01588821661264],[-125.25083079317633,58.005417892610865],[-125.32955118663469,57.99460034757309],[-125.38658025549958,57.98871411621629],[-125.42497679794153,57.979861555559715],[-125.45103236350585,57.97156270174947],[-125.46353466157557,57.960708679272685],[-125.4916016747234,57.94892153431898],[-125.48897578237701,57.941191505930746],[-125.49599043596163,57.93513466964944],[-125.5042179386925,57.93595872190245],[-125.56353366077141,57.91821575630092],[-125.59382799462831,57.91425245567793],[-125.60398921681286,57.928767876546225],[-125.608688497678,57.93302387260718],[-125.61997218820906,57.93704760547474],[-125.64000295339926,57.9295190718519],[-125.65344340337094,57.92222100396232],[-125.6625556415862,57.91056239532851],[-125.66422400645149,57.902780773974435],[-125.65702213580832,57.89491875848376],[-125.66136785340102,57.89045093176165],[-125.67469368679382,57.888371608334474],[-125.67982492603919,57.884175728606984],[-125.68634170837169,57.875266310130385],[-125.6996012818118,57.86827013793448],[-125.73614868723546,57.862037433829926],[-125.74735831634115,57.865548727165034],[-125.75626648009064,57.87446911528017],[-125.76640378277312,57.88977691587603],[-125.76906989488722,57.90274669902826],[-125.76677161095908,57.9081598900059],[-125.78964937751691,57.92259719614029],[-125.7851513083472,57.931310025021716],[-125.79773781560047,57.943511586648235],[-125.79735616002492,57.96604646760708],[-125.8074000451488,57.97396909299716],[-125.82324462203339,57.974994914539884],[-125.83745973141065,57.979394191694766],[-125.8457062850445,57.98019480395654],[-125.85981580843631,57.97525602113114],[-125.87590619496714,57.97385557871304],[-125.89047894576761,57.97944143797659],[-125.90809053606759,57.97808045828434],[-125.91639514748255,57.98068269529334],[-125.97473640642252,57.96703257797037],[-125.9914289961569,57.971420217037924],[-126.04409116691356,57.96693863166222],[-126.06477003727977,57.959110015740144],[-126.0689426023217,57.95232411378438],[-126.06353420858345,57.941802137589086],[-126.05395820819943,57.930211123050576],[-126.06714192623622,57.916337595243405],[-126.0779425857542,57.91366828281781],[-126.12443062802281,57.91885342778915],[-126.1400941242569,57.92236739810469],[-126.16316277108908,57.93865432650622],[-126.18290926145818,57.944559617781735],[-126.21417990987656,57.943494981351236],[-126.22874815946685,57.93374019871958],[-126.2337395458081,57.922248086361975],[-126.2296837585853,57.91169555839525],[-126.24350345016293,57.901461832979145],[-126.25740061933755,57.867207053522066],[-126.26313732554696,57.859677097635824],[-126.2687118124658,57.85570431062551],[-126.28894834061694,57.85451888990998],[-126.3159337175689,57.8619157468827],[-126.3232437253824,57.874030435904736],[-126.3379148155132,57.884835927511155],[-126.35386159790062,57.90022921402791],[-126.3654751027159,57.914386333462545],[-126.3779902141749,57.92325885341547],[-126.38525079447606,57.92619212511678],[-126.3977818493985,57.92639915523759],[-126.42217744201884,57.92362183544732],[-126.43475692175734,57.934521967101084],[-126.45236945654608,57.938404455751154],[-126.49821960477469,57.94245125255841],[-126.51803226284656,57.9409465564605],[-126.53983314768139,57.94560046895929],[-126.55855165443178,57.952313287231966],[-126.604124124149,57.9602074133308],[-126.66290597356719,57.99082239358746],[-126.6832116835953,58.006112171135456],[-126.69225550294398,58.023191857635474],[-126.69668786965389,58.025834001560156],[-126.703055760628,58.02710422034708],[-126.7322148376934,58.018294259315624],[-126.77301503634806,58.01106945763619],[-126.81589496399098,58.009304087828156],[-126.86800798562024,58.003360827933186],[-126.90754676749823,57.994432767526],[-126.94179704403373,57.992470444173016],[-126.95093980394353,57.98944676090794],[-126.95394124731443,57.97567762521826],[-126.97200913765079,57.96763334566244],[-126.98002797761355,57.96122368129501],[-126.97012559257051,57.949063909049734],[-126.97059238577117,57.93311986032601],[-126.96410298299178,57.925103988359645],[-126.94753712963733,57.91869379402266],[-126.93686226336774,57.91129904707228],[-126.93353711075677,57.90600386076374],[-126.93454022215414,57.89778141797148],[-126.9159917463631,57.89145721172505],[-126.89695419755385,57.87741845023865],[-126.8879565638661,57.867319394184854],[-126.88901633835903,57.86448866785632],[-126.88481082494043,57.855292331927586],[-126.8786026502145,57.82983122346065],[-126.85650418907763,57.80509992590591],[-126.85141826025523,57.79170418829839],[-126.85406749306976,57.78844981225641],[-126.86915363043302,57.785327601462875],[-126.93400841799958,57.79734354330663],[-126.94807530335177,57.79837889743876],[-126.95909120277136,57.79708139799037],[-126.97318672955049,57.78824184750823],[-126.97971905713214,57.777957008162886],[-126.98283316502949,57.76662786343742],[-126.98126723717374,57.76080983150625],[-126.96741994509242,57.754880381714365],[-126.95398488114452,57.74413033098747],[-126.94550556503877,57.71649492770223],[-126.93809222909732,57.70712167433324],[-126.9181922941575,57.698720765112796],[-126.87706901112175,57.693269122979494],[-126.85251346150595,57.68816644858524],[-126.83959342988528,57.67943922945618],[-126.83666198751267,57.66821923583342],[-126.84948438045603,57.653787421473595],[-126.8610041429729,57.647836997931215],[-126.8701302304393,57.64011713161273],[-126.8683050681751,57.63337081354913],[-126.8365095484252,57.61113689125028],[-126.80229566758705,57.59271467990632],[-126.78730444270373,57.58084088647652],[-126.78429763333268,57.576054359448634],[-126.78757202038004,57.570778120567184],[-126.79613810559586,57.56586074182686],[-126.83688058233466,57.55874646744174],[-126.87662994691888,57.54905110878033],[-126.96978926521882,57.53414274544561],[-126.98797135344427,57.529957222816996],[-127.01061175709846,57.52113197823967],[-127.02184758242551,57.514665193652746],[-127.05704518600635,57.50727249968715],[-127.07565094518003,57.51235063422786],[-127.09307882396075,57.52813324416993],[-127.13453622017616,57.53055265917901],[-127.15014627388703,57.53589891175975],[-127.1432760665544,57.54608488076755],[-127.1382084615982,57.56251393388717],[-127.14525016919724,57.577546103433235],[-127.16786014622299,57.59161196718228],[-127.1814048924767,57.59766068064405],[-127.24674568084086,57.60546914693732],[-127.27191057796595,57.60318716834205],[-127.27821456607347,57.59878300676415],[-127.27248003444852,57.58768226158095],[-127.28342402242446,57.575599243942015],[-127.29611618603833,57.57671141514172],[-127.3048279469499,57.57992073871095],[-127.31285675123148,57.577673340131],[-127.32063590660532,57.56709012211989],[-127.33419090605949,57.55834748414141],[-127.34188682607521,57.54904730171625],[-127.34306129458832,57.53143520659056],[-127.33816771528623,57.519359842880675],[-127.32936865387455,57.50929635579384],[-127.29340076126239,57.49820217219067],[-127.29718225630815,57.49203698145907],[-127.32087111253755,57.48646343267936],[-127.3250863043335,57.48224888496763],[-127.30496343865663,57.4619298244518],[-127.30153031821283,57.4535688067644],[-127.30290313269495,57.44667194314337],[-127.31244539304348,57.43898793280039],[-127.33037947494535,57.43295629500108],[-127.34625828107816,57.4242531443437],[-127.37426531892494,57.418194281144636],[-127.41118872867605,57.38297506262557],[-127.48027220176515,57.33569304162541],[-127.4890970636986,57.322661344584894],[-127.49123615864488,57.30344307612978],[-127.48658010458338,57.2825701854285],[-127.47860338938695,57.26177133425733],[-127.47334983859965,57.241635196395634],[-127.46726998052509,57.210031406211684],[-127.47645866451126,57.19607825202011],[-127.52153611238055,57.17068137040427],[-127.5582847469347,57.15998433210728],[-127.60237561540116,57.1516457139487],[-127.6969556401972,57.14090119459878],[-127.71650549901925,57.1325946836607],[-127.73034937597944,57.10996592009545],[-127.73295391932317,57.08206926411757],[-127.73841250495671,57.061659096173706],[-127.73819798705898,57.03552769257275],[-127.73286907892108,57.01963208789659],[-127.72300578452436,57.006096730759],[-127.70642730665675,56.990765035162994],[-127.67709542175456,56.976777662526274],[-127.5787552369646,56.97854911910806],[-127.56117430709601,56.97717457991723],[-127.54107735523762,56.968996515871055],[-127.53631622807917,56.95397089257467],[-127.54478789835132,56.93135469974739],[-127.59747833344994,56.90128402094545],[-127.60503091044016,56.89444312318201],[-127.60380666969944,56.88877957530568],[-127.56399081926183,56.86165542377588],[-127.56542361334633,56.857872484358154],[-127.57224333633731,56.85375503473213],[-127.61081582387932,56.853275151383954],[-127.6163126458975,56.84996323168314],[-127.61774707523259,56.84646955780524],[-127.60335234334406,56.83398518475847],[-127.58610757841893,56.82794792227832],[-127.57454852710936,56.821536903238055],[-127.56845250881905,56.812890162239874],[-127.56659094581804,56.804016114990134],[-127.52331490099179,56.773049565534244],[-127.51468510102977,56.7610552521901],[-127.51312998613066,56.750090977852224],[-127.52191702949159,56.74547195375055],[-127.53159377018217,56.74344480390112],[-127.53273830736335,56.74067010602283],[-127.45416623105523,56.69317054297152],[-127.41585663288022,56.67681471857674],[-127.40538427278807,56.67646110534659],[-127.3622868538598,56.68996262164095],[-127.33309179625572,56.70603649160677],[-127.26923129242525,56.732767502391546],[-127.22228546400179,56.74590304083772],[-127.20752349933416,56.72988607022959],[-127.18803925233695,56.696539676002544],[-127.1526500250104,56.65285392421774],[-127.12886368161739,56.626397182995404],[-127.10107534237402,56.61353576176326],[-127.06588896563679,56.61317800081368],[-127.03791141030312,56.61797288689898],[-126.99288282210456,56.63222467566624],[-126.96783141475478,56.64518583912263],[-126.93749187924546,56.66154750098601],[-126.93111278117938,56.66786829556854],[-126.92768059224231,56.68459576931985],[-126.91705091886116,56.69073746196615],[-126.9022749724218,56.692476644505774],[-126.85668220096325,56.67733113758852],[-126.81148710973311,56.68032254102149],[-126.76610426285663,56.724540209955556],[-126.71722302953665,56.76634251603817],[-126.70537206217371,56.77306069839215],[-126.69268648955791,56.774950524239486],[-126.67483776866686,56.7717592110859],[-126.57092956709475,56.71359561355748],[-126.48831323574052,56.66469420975896],[-126.44919942464765,56.65499563561259],[-126.41767038435265,56.654778544037484],[-126.37834117886321,56.67123477613529],[-126.35301817922118,56.67624202301291],[-126.33150951199212,56.67736953359212],[-126.2961335358679,56.6712157493308],[-126.231268808706,56.64730084227858],[-126.18894245456406,56.62532026111991],[-126.1704102382747,56.61216054915851],[-126.16216982416435,56.60042468898239],[-126.15963602127142,56.59159957681487],[-126.14256488985032,56.58377644668223],[-126.14302735306042,56.576677504378864],[-126.15190673907104,56.57129911978491],[-126.16081479478896,56.56316997891238],[-126.1585365422382,56.554529049434194],[-126.14223253301016,56.53894138260672],[-126.14192543215415,56.52950095196401],[-126.19308306089387,56.48104665172274],[-126.19648943231633,56.47353267619021],[-126.18245635345603,56.464897348474636],[-126.10187289874179,56.42543834099989],[-126.09329155536396,56.41266033482274],[-126.09105213708324,56.404031427470805],[-126.10036232664226,56.392618061130456],[-126.13330167022754,56.37635514488017],[-126.16239975548373,56.36590708621388],[-126.19583645242386,56.350355422139955],[-126.19474717326517,56.342381751961945],[-126.11632286778448,56.27192221718165],[-126.09841317663121,56.26574046836435],[-126.04321730420656,56.25431402290695],[-125.98062199633816,56.24562939579129],[-125.98339699179297,56.23336042566217],[-125.98291045281354,56.214338870761125],[-125.98006703479606,56.20866330334998],[-125.97934337464993,56.19789444802251],[-125.97263084592119,56.185698366928676],[-125.97072164225148,56.17556014871282],[-125.97172873867092,56.16634118537311],[-125.9629086405284,56.153580599812194],[-125.96197303451089,56.146904276595194],[-125.95550025556089,56.14292791280596],[-125.93197340737444,56.14710182027345],[-125.86563951887146,56.14520393828043],[-125.80405021354633,56.16971562610802],[-125.73761841815718,56.190575098546965],[-125.67312218088917,56.22213892607091],[-125.6566276021169,56.22858523896157],[-125.64551600865121,56.22601155523664],[-125.64481353540077,56.21744374052459],[-125.64837627620332,56.20851631702531],[-125.64730365311019,56.196964886736275],[-125.65318908783031,56.169164352154816],[-125.64992451938761,56.15729696707649],[-125.64435831143666,56.15291171756277],[-125.63517965941628,56.15126413007019],[-125.60848779509143,56.15328890436223],[-125.57478856139134,56.1689916486744],[-125.45768812744882,56.23335394853267],[-125.40377374775025,56.25294838687708],[-125.37786405146058,56.253086436927084],[-125.32462936187112,56.24399149657708],[-125.31644556152808,56.250110090139344],[-125.31373933825394,56.24870887533758],[-125.2921665800526,56.247056540626915],[-125.26589467604946,56.24798508689735],[-125.24546383723984,56.25056430978787],[-125.23605862304558,56.25528100550056],[-125.23443173823418,56.265331708249754],[-125.22640870089018,56.271906940494226],[-125.21221422008489,56.27785064470478],[-125.20305285181637,56.28624731202455],[-125.18902777948301,56.29474285061787],[-125.15828041482673,56.300461239688055],[-125.11909586971765,56.30359588713305],[-125.09050736604968,56.27664717466557],[-125.06366116996432,56.26306861556786],[-125.05348947539989,56.22895005473456],[-125.06026626311825,56.20789635724967],[-125.05470599389643,56.20353332984453],[-125.04165338921972,56.203104387380016],[-124.99869175024659,56.21038828580386],[-124.98554131973937,56.21519880596556],[-124.98091669880559,56.22188710019121],[-124.98018059312473,56.22941030857714],[-124.9467071604058,56.240076223757825],[-124.92350692040422,56.244372900348544],[-124.89464200037617,56.242232942362854],[-124.83285271645225,56.223537576729726],[-124.7951994995975,56.20000374409091],[-124.76884604940123,56.17031889025836],[-124.7154639566777,56.13380027614309],[-124.66101715968121,56.11611630816806],[-124.62355813647756,56.116149689457345],[-124.59020604916996,56.12205558777978],[-124.53213193998603,56.127013504540066],[-124.50424725654209,56.132448190825286],[-124.48399810231042,56.13000291534353],[-124.47904330578473,56.119204434704905],[-124.47541608667478,56.11887599916224],[-124.47909041466485,56.106972182121645],[-124.49320112465999,56.08917901038119],[-124.49763221901546,56.0672526124791],[-124.4850573432147,56.04299607843319],[-124.44068574674245,55.99892623545761],[-127.02532046358732,56.00010339060975],[-127.9182200361173,56.0028134627013],[-127.9155705519187,55.99755803788947],[-127.94153266946087,55.99993573332609],[-128.36462689156696,56.003179123311526],[-128.36876110578,56.009032137732554],[-128.39152662154257,56.02775354701058],[-128.4057430901441,56.03526908066664],[-128.5114291813624,56.07675800927715],[-128.52261728137745,56.083756808905456],[-128.4920906642542,56.10217272586324],[-128.47379179089887,56.10578292999352],[-128.4093034634456,56.10914748718847],[-128.3878614900262,56.10700859850039],[-128.34554558876624,56.09359599706787],[-128.32162047926045,56.092086884008836],[-128.30652783282778,56.09660929978748],[-128.2787116816937,56.11028458736148],[-128.27597959124674,56.118788536563976],[-128.28551561732007,56.12653630496865],[-128.28795389978347,56.130479099233554],[-128.29026921886924,56.13695011506538],[-128.29404081892892,56.170819043948406],[-128.29843343098486,56.18095904135434],[-128.29557149098383,56.19050643488807],[-128.27702312366293,56.209394962702454],[-128.27549173460227,56.21420323694539],[-128.28475932185313,56.233249344589474],[-128.28575872393642,56.2414127172879],[-128.28409004561846,56.24657477181157],[-128.27460614612107,56.25254962964918],[-128.24116363998783,56.26546675712006],[-128.2309058495451,56.271252976104805],[-128.22222770857806,56.279822131024964],[-128.21456128296958,56.29540582207644],[-128.20206004507875,56.30091777387045],[-128.15496522219914,56.308207470784986],[-128.10580942554557,56.30942579960237],[-128.09407778602716,56.31418959983082],[-128.08796532363164,56.32121711448156],[-128.0951491382274,56.334995762876495],[-128.1093440861987,56.348183752370154],[-128.1301001206236,56.35493059601726],[-128.2272522255637,56.36885425714871],[-128.25580029473747,56.37584921501394],[-128.2731757792694,56.38341559774801],[-128.280735697538,56.39106703781536],[-128.28543949675966,56.40004379155398],[-128.28018565995308,56.40944959094163],[-128.26523344956013,56.41902868029071],[-128.24724741141355,56.42434892444676],[-128.2278761081912,56.42634564231731],[-128.21537734729668,56.43024475018074],[-128.19057089031014,56.44649301118995],[-128.16351761224513,56.45347754933462],[-128.15665586801373,56.44919317644198],[-128.13650552480644,56.42760780849761],[-128.11853900113272,56.42156458218134],[-128.0801032388186,56.414124235593334],[-128.06781046534283,56.41344009975877],[-128.05349906731692,56.41552245964508],[-128.02754799183566,56.42390932238113],[-128.01532812449938,56.424715182724746],[-127.99896437942893,56.42834701897317],[-127.9786224073904,56.43542587476638],[-127.96940913675185,56.443387685306334],[-127.96379459912838,56.451151261389185],[-127.9646679750358,56.460732083608924],[-127.96984489988347,56.47046831863573],[-127.9871142806647,56.49473203122885],[-127.99002141309009,56.50344636882742],[-127.98874221691692,56.51044196099924],[-127.977493834207,56.52072405019589],[-127.96677690752436,56.52860925517713],[-127.94599070315,56.53349431735684],[-127.9080603140398,56.538545316427744],[-127.85449311177778,56.542909841258684],[-127.843691268398,56.548825804958454],[-127.84759920794299,56.559158845265564],[-127.88606687875215,56.5782004122278],[-127.89736736812333,56.58465147409704],[-127.90523718163533,56.5914707108149],[-127.91252852218928,56.610205723099035],[-127.91621840540512,56.61507143526606],[-127.92697189122754,56.61936001649096],[-127.9449777934517,56.62155825546728],[-127.98212135253627,56.611165167009496],[-127.98947867129685,56.611316762351834],[-128.0124295252865,56.627066794616404],[-128.0182209189052,56.633251002424856],[-128.02836502894084,56.636989646661156],[-128.04499194513738,56.64773642549874],[-128.0534069464109,56.65688305384208],[-128.07111912962455,56.66664086855289],[-128.08827796490505,56.66806030363974],[-128.097791645454,56.666001111620076],[-128.10068995951994,56.662539949928956],[-128.09824126584752,56.654715351977146],[-128.10337583134404,56.6443675625035],[-128.11058845781312,56.63938239912778],[-128.12648299693376,56.637579538067556],[-128.17651951694816,56.64344766787579],[-128.18120858003033,56.64865223472699],[-128.1839106944021,56.65761088881823],[-128.1670708579059,56.68186734110802],[-128.1610036818706,56.69400004102128],[-128.16197755261896,56.70646733812703],[-128.17024622327153,56.7197160100268],[-128.18867569239484,56.73784654293007],[-128.1988559349413,56.73776052121197],[-128.2064203349579,56.73020420254599],[-128.23032726327426,56.73518278862251],[-128.2487385935165,56.742103488774376],[-128.25926713244743,56.74822551973578],[-128.27201348397477,56.74936365644555],[-128.29062248083687,56.74506364722293],[-128.3141464203926,56.75062690114868],[-128.3585184874756,56.75298137760336],[-128.4183034163646,56.77184543964376],[-128.44902450353035,56.794744131037824],[-128.48600021486928,56.80372737660318],[-128.4951322101415,56.81142542792364],[-128.5373752030254,56.833217560875894],[-128.5626913584168,56.843425069001356],[-128.61888238538359,56.877863903173356],[-128.6344699387512,56.88364117780584],[-128.65544970532048,56.88289104129112],[-128.6933411494942,56.87842646901608],[-128.69472751350463,56.88492356519253],[-128.68398734611105,56.89574875849495],[-128.65727858137421,56.91227509513801],[-128.64890196783932,56.919753551592166],[-128.66407441752284,56.92632128232795],[-128.66769315685326,56.93594320697536],[-128.6676653374871,56.950216345956626],[-128.6635466229779,56.963418546405485],[-128.66002273594626,56.96774264277772],[-128.6615163149732,56.97227103930043],[-128.67564567614042,56.97842807854828],[-128.68656797355618,56.985422882590356],[-128.6991259711927,56.99682114246548],[-128.70910723322507,57.01029025144336],[-128.71800901535278,57.030821560865064],[-128.726272030325,57.04214604571258],[-128.74064577073005,57.04730075854675],[-128.76337480693664,57.04931765178699],[-128.78065648553806,57.05289427493507],[-128.78689842542025,57.06064592204848],[-128.7861158968756,57.075668272502114],[-128.81797037748206,57.08755771324389],[-128.8344588627028,57.09933289359637],[-128.8500446366853,57.11665819907742],[-128.8602163345764,57.12109014264793],[-128.87613290305018,57.121852080457366],[-128.8922613945272,57.12745709100327],[-128.91479193245465,57.14276546685806],[-128.9306152967653,57.14763431426484],[-128.94746981626776,57.147747598166],[-128.9776933458491,57.143939785603585],[-129.00205422036822,57.16438939262971],[-129.00224609852063,57.99875932583203],[-128.94319054575735,59.00225460321689],[-129.7977614478548,59.00058811764295],[-131.0097870079928,59.00209685688748],[-131.00996143403935,58.9399880727213],[-131.004490514702,58.615617225597205],[-131.00421573384557,58.06751692126727],[-131.00075990074637,58.01237096300224],[-131.0075144107541,58.01239833824121],[-131.00807314363408,58.00532498421637],[-131.0013731818902,58.00525621286961],[-131.00167476773623,58.00055135423117],[-133.06954316515902,58.00005242529557],[-133.17239919057363,58.1516413129184],[-133.3540705679278,58.28339962664466],[-133.46127439917436,58.38987267238764],[-133.3817976967538,58.43255160484751],[-133.50418276323185,58.49637769727143],[-133.69947134521038,58.60911361239962],[-133.84133308522917,58.7301489726246],[-134.00258580902408,58.774094848863506],[-134.25643375802522,58.85907245376322],[-134.33738290423474,58.92033537162952],[-134.3122785950638,58.96139114007856],[-134.40760749049687,58.978445453079686],[-134.38537490206505,59.041396668675496],[-134.44491903796123,59.08647402522174],[-134.4847830721965,59.133387135950755],[-134.56979928880324,59.13350376634004],[-134.6779472785426,59.19280431352155],[-134.69929969827274,59.24838876625808],[-134.95893515363505,59.28108634980403],[-135.03020196270887,59.3483510922912],[-134.9892463626631,59.38787571311564],[-135.09752762580436,59.427003111036825],[-135.06834792777445,59.45499496182293],[-135.0279888374384,59.47630230514313],[-135.02770806212612,59.563918071904],[-135.11754594776673,59.62338338968318],[-135.1544546616296,59.62647867309502],[-135.22181480361576,59.66414686818168],[-135.23470735917016,59.69594991486634],[-135.3770228370529,59.74292598154917],[-135.47900520750207,59.7986125982563],[-135.9456889274958,59.66362239861155],[-136.19525108726884,59.638812685572354],[-136.35571247449144,59.60067303909974],[-136.24140604955232,59.55910280311874],[-136.23628501827733,59.52671140431026],[-136.30143606407015,59.4658376907095],[-136.3314892123488,59.45599245614156],[-136.36047321348633,59.45091964465052],[-136.3977353087748,59.447177032717015],[-136.4762480521641,59.46419270930942],[-136.46749461027568,59.284562064370085],[-136.49512750085722,59.27512928449337],[-136.48876688258736,59.25801147077273],[-136.58199214833007,59.16554119375845],[-136.8246700392305,59.15980142556056],[-136.99963448353998,59.09136395790616],[-137.09774857255576,59.05652114045772],[-137.23664809916602,59.011437859761536],[-137.2884077396932,58.99948195448447],[-137.44656238453797,58.90866173800891],[-137.52672886331473,58.9065987935439],[-137.49931351997733,58.98313853365629],[-137.60206921280843,59.240725055787145],[-137.8780439377597,59.38144171660801],[-138.31585205607567,59.61101923161936],[-138.6054255083433,59.75769014854749],[-138.62625098987726,59.770457051372674],[-138.65629932935838,59.799224081594716],[-138.7057852301481,59.906239996992944],[-138.7908234334957,59.92299071651773],[-139.04213094499946,59.99156796333309],[-139.05220104113553,60.00004064885218],[-135.40000002614968,60.00005904715349]],[[-133.7040231418373,59.56783551954026],[-133.70460368859062,59.567747083523585],[-133.7042048435593,59.56711713493684],[-133.70367657155563,59.56718511660203],[-133.7040231418373,59.56783551954026]],[[-133.70186641165677,59.56958201142323],[-133.70412022038497,59.568482384389],[-133.70328263317944,59.56720040703077],[-133.7007800344168,59.56744345479226],[-133.70186641165677,59.56958201142323]],[[-129.21826772612647,59.18544040353845],[-129.21535640779072,59.18595228034047],[-129.21728317110643,59.191957712135874],[-129.23018500568506,59.190862968649945],[-129.22957207648093,59.18538511077132],[-129.21826772612647,59.18544040353845]],[[-129.29293088753502,59.297647400438514],[-129.30215770778068,59.29315656415579],[-129.30128939877358,59.289905506329056],[-129.30393744326454,59.2850191869298],[-129.29879366348018,59.28138261525558],[-129.30168190976596,59.280043994500396],[-129.2971175483699,59.27732676828254],[-129.27749586718832,59.29045141775274],[-129.28615342581801,59.293651883406646],[-129.28598711515974,59.296759479250596],[-129.2845523474046,59.29729218097055],[-129.28836901420044,59.29642266005865],[-129.29293088753502,59.297647400438514]],[[-128.4865482414619,59.923645169297416],[-128.48109872812032,59.92414277085579],[-128.48436006338434,59.93226725332774],[-128.5022859057005,59.939761793023955],[-128.51095927895952,59.93975140503576],[-128.52772455952478,59.9298960922329],[-128.52542374315914,59.928064472036176],[-128.51618631280013,59.92733957776081],[-128.49836403941273,59.922881772045635],[-128.4865482414619,59.923645169297416]],[[-133.68004566282295,59.50898808639191],[-133.6822567805194,59.50800538345733],[-133.66638843699297,59.49014289208326],[-133.64606908668063,59.477179733949306],[-133.6240303334392,59.47720597462135],[-133.62434019639656,59.484371590796],[-133.60966874520398,59.4837586337843],[-133.61050655163172,59.4914190874405],[-133.61623268206475,59.49135826404154],[-133.61649995083295,59.494175570654306],[-133.63882025678265,59.495424540589944],[-133.63846898382437,59.4992679653495],[-133.6474916782491,59.50167759583314],[-133.63823098947327,59.50187120811283],[-133.63824511590047,59.51259965719883],[-133.6499161646613,59.51337765804658],[-133.65035176378277,59.506996979660364],[-133.65509475660085,59.50683887394189],[-133.66575255746736,59.50895958595404],[-133.67198474381897,59.51446558570167],[-133.6791357565447,59.51463788671917],[-133.67774956840992,59.517084674536385],[-133.68056175886187,59.51836937275222],[-133.68147765650144,59.51533438214975],[-133.67867367137575,59.51064439720967],[-133.68004566282295,59.50898808639191]]]},"bbox":[-139.05220104113553,55.99755803788947,-124.44068574674245,60.00005904715349]},{"id":"5957802","type":"Feature","properties":{},"geometry":{"type":"MultiPolygon","coordinates":[[[[-133.70377071081202,59.56736751319823],[-133.7042048435593,59.56711713493684],[-133.70460368859062,59.567747083523585],[-133.7040231418373,59.56783551954026],[-133.70377071081202,59.56736751319823]]],[[[-133.70186641165677,59.56958201142323],[-133.7007800344168,59.56744345479226],[-133.70328263317944,59.56720040703077],[-133.70412022038497,59.568482384389],[-133.70186641165677,59.56958201142323]]]]},"bbox":[-133.70460368859062,59.56711713493684,-133.7007800344168,59.56958201142323]},{"id":"5957803","type":"Feature","properties":{},"geometry":{"type":"Polygon","coordinates":[[[-133.67794247194058,59.51624157867033],[-133.67927278923023,59.51474618852911],[-133.67161974756652,59.514327381481856],[-133.66402975426504,59.50829589281726],[-133.6527185562952,59.50660817830343],[-133.65035176378277,59.506996979660364],[-133.6499161646613,59.51337765804658],[-133.63824511590047,59.51259965719883],[-133.63823098947327,59.50187120811283],[-133.6474916782491,59.50167759583314],[-133.63846898382437,59.4992679653495],[-133.63882025678265,59.495424540589944],[-133.61649995083295,59.494175570654306],[-133.61623268206475,59.49135826404154],[-133.61050655163172,59.4914190874405],[-133.60966874520398,59.4837586337843],[-133.62434019639656,59.484371590796],[-133.6240303334392,59.47720597462135],[-133.64606908668063,59.477179733949306],[-133.66638843699297,59.49014289208326],[-133.68121574754664,59.506665197168964],[-133.68227226077718,59.50807659239602],[-133.67867367137575,59.51064439720967],[-133.68101066570605,59.51367799316612],[-133.68081816835323,59.51814857415291],[-133.67794247194058,59.51624157867033]]]},"bbox":[-133.68227226077718,59.477179733949306,-133.60966874520398,59.51814857415291]},{"id":"5957804","type":"Feature","properties":{},"geometry":{"type":"Polygon","coordinates":[[[-129.21728317110643,59.191957712135874],[-129.21535640779072,59.18595228034047],[-129.22957207648093,59.18538511077132],[-129.23018500568506,59.190862968649945],[-129.21728317110643,59.191957712135874]]]},"bbox":[-129.23018500568506,59.18538511077132,-129.21535640779072,59.191957712135874]},{"id":"5957813","type":"Feature","properties":{},"geometry":{"type":"Polygon","coordinates":[[[-128.49319175851468,59.923039671948274],[-128.49754203396012,59.922816273767886],[-128.50262152607104,59.92363762298379],[-128.50203570141835,59.925625415168305],[-128.4934348997848,59.9256992888048],[-128.49319175851468,59.923039671948274]]]},"bbox":[-128.50262152607104,59.922816273767886,-128.49319175851468,59.9256992888048]},{"id":"5957814","type":"Feature","properties":{},"geometry":{"type":"Polygon","coordinates":[[[-128.48436006338434,59.93226725332774],[-128.48109872812032,59.92414277085579],[-128.49319187177403,59.923037967227984],[-128.4932646175814,59.925612298971025],[-128.49779877759252,59.92572789101583],[-128.50203570141835,59.925625415168305],[-128.50312806100828,59.92369078731097],[-128.52773021301883,59.92941038665839],[-128.51095927895952,59.93975140503576],[-128.5022859057005,59.939761793023955],[-128.48436006338434,59.93226725332774]]]},"bbox":[-128.52773021301883,59.923037967227984,-128.48109872812032,59.939761793023955]},{"id":"5957820","type":"Feature","properties":{},"geometry":{"type":"Polygon","coordinates":[[[-129.29293088753502,59.297647400438514],[-129.28836901420044,59.29642266005865],[-129.2845523474046,59.29729218097055],[-129.28598711515974,59.296759479250596],[-129.28615342581801,59.293651883406646],[-129.27749586718832,59.29045141775274],[-129.2971175483699,59.27732676828254],[-129.30168190976596,59.280043994500396],[-129.29879366348018,59.28138261525558],[-129.30393744326454,59.2850191869298],[-129.30128939877358,59.289905506329056],[-129.30215770778068,59.29315656415579],[-129.29293088753502,59.297647400438514]]]},"bbox":[-129.30393744326454,59.27732676828254,-129.27749586718832,59.297647400438514]}],"bbox":[-139.05220104113553,55.99755803788947,-124.44068574674245,60.00005904715349]}