{"type":"FeatureCollection","features":[{"id":"5959007","type":"Feature","properties":{},"geometry":{"type":"Polygon","coordinates":[[[-127.7125001090235,60.00003137424175],[-119.9999999830041,59.9999999999322],[-120.00002255610882,58.000000050971664],[-121.27382340859951,58.00141230041371],[-121.75329355679348,57.999121156846705],[-122.7398228870952,58.00058234256797],[-122.75555818219213,58.00275430213938],[-122.75775758459369,58.000548004844894],[-122.75770082259628,57.99756581500259],[-123.00643787502109,57.99979820169118],[-124.94836471233003,57.99987025382662],[-124.96213338875523,58.00684582802045],[-124.96520302758614,58.01056341113547],[-124.9683852158838,58.01652220598289],[-124.96631415672883,58.02191803338773],[-124.95588976162233,58.025738998229954],[-124.92702471390604,58.023654681498904],[-124.91938588870613,58.025419695458055],[-124.91702713522145,58.03042733056324],[-124.92684628998109,58.053434690963144],[-124.92636113986853,58.06489103455469],[-124.91906686141236,58.073971548861174],[-124.90389093304478,58.08481846801312],[-124.88740036845087,58.09404561587021],[-124.87602574981217,58.10389466950841],[-124.86096492608469,58.12489038663175],[-124.87405783578484,58.13953876961378],[-124.8826924677658,58.157508192769576],[-124.8839553756736,58.16431677639791],[-124.87515813614851,58.17440867425055],[-124.8498693395584,58.184881357822434],[-124.83103425283367,58.198730976302755],[-124.82970496373919,58.207061364018095],[-124.83935891230524,58.21555645632302],[-124.84891953029653,58.22135372532641],[-124.87985297371833,58.223437485923526],[-124.89230947163693,58.23059317085233],[-124.89899930269726,58.24370391326404],[-124.91669153806205,58.25610385593995],[-124.92626696069648,58.2532141104801],[-124.94265729323153,58.235356742720015],[-124.95186697703913,58.23083551608234],[-124.9924103699224,58.23308243393055],[-125.02858712426156,58.24140337468224],[-125.03879237222687,58.24155309939578],[-125.05696298717614,58.23538760229209],[-125.08813601026898,58.23533289011367],[-125.1199987228293,58.23861574324307],[-125.14150784733845,58.23630944335504],[-125.16010571687254,58.24383674497037],[-125.17195673882372,58.24346625931866],[-125.1854898893953,58.23860420105943],[-125.2012991386869,58.23926415928402],[-125.21924335374067,58.2560716101255],[-125.26418007240623,58.281955861733],[-125.27570477820377,58.30060620949446],[-125.28045951650194,58.30363901696373],[-125.28862133750151,58.30289376792763],[-125.30872672146688,58.29153490539422],[-125.32853318952655,58.27777076066835],[-125.3393102857569,58.27597168392523],[-125.35640054498712,58.27946768905343],[-125.35406232414493,58.28978438337067],[-125.36162058136497,58.293205737460156],[-125.37133486750417,58.294721315504574],[-125.37727573204229,58.298388272121606],[-125.39082510506049,58.31493880422746],[-125.41558467652813,58.327191265158554],[-125.42663298492985,58.33628305607899],[-125.439346744912,58.34113453920014],[-125.45154716501925,58.34022564689296],[-125.46239278622086,58.33522895484506],[-125.46909847294849,58.32738494642853],[-125.47254727923836,58.316166926047636],[-125.47656188549627,58.30935399534364],[-125.48049818892517,58.30865313726376],[-125.51745799558448,58.30865745037615],[-125.55184269276637,58.31955345309208],[-125.57275724190877,58.316615007975216],[-125.58455955407493,58.3127336030428],[-125.59263980147072,58.314598057631294],[-125.61026585230012,58.312898733481056],[-125.62660566303813,58.306693131447936],[-125.65019138910452,58.30391260031169],[-125.71739303078354,58.30727590880854],[-125.73040497565091,58.311236822621666],[-125.7374933579881,58.318001592731164],[-125.75034383890967,58.32356024789694],[-125.76564143048427,58.320361703984915],[-125.77489738148893,58.32161659134955],[-125.78085012824715,58.331508757038506],[-125.78462508478675,58.34601311696951],[-125.82492819569218,58.35259637409363],[-125.8333697237808,58.35616875032978],[-125.8352897918591,58.360929130711135],[-125.82296812342699,58.3694040949243],[-125.8253543689574,58.37305162379859],[-125.83552716408185,58.38099342195999],[-125.84528104468156,58.400556667596106],[-125.85745433032504,58.41265744263121],[-125.87723351634904,58.41426062927513],[-125.89458798158849,58.41228931313722],[-125.89785562774419,58.408716785749384],[-125.9091132343033,58.40220327370779],[-125.92169101945909,58.400662489271234],[-125.9308900579066,58.39528784858199],[-126.00001053290971,58.40680311058078],[-126.01456064298668,58.40655000838499],[-126.04783477054589,58.414659844250394],[-126.06009712027748,58.42048420673806],[-126.06585992429713,58.431830278544176],[-126.07055007622903,58.44941680277995],[-126.11014477267581,58.46085424056392],[-126.13812282108798,58.46506405677644],[-126.15885846897586,58.47225745126279],[-126.17858972978227,58.48427158606168],[-126.20759362166245,58.49342355015121],[-126.23105173274013,58.51250554393338],[-126.24962283156142,58.52207156363805],[-126.28482571506805,58.54931885109308],[-126.30299118624664,58.57224928654525],[-126.29963147203561,58.59029035443],[-126.30289601688975,58.59835136925582],[-126.31986754114081,58.60843145281122],[-126.33239395463214,58.610038481526836],[-126.37499296386885,58.6034014108352],[-126.38918824620508,58.59855180949623],[-126.40327062525364,58.59689627060798],[-126.44580728223039,58.603298904299166],[-126.45721394104106,58.60326982891739],[-126.46816001665766,58.6002204551718],[-126.48676978464032,58.605044583278946],[-126.5289002643288,58.58879680960956],[-126.53960243726192,58.5822545155339],[-126.55198570552403,58.579134973065976],[-126.58552482045128,58.580410559023896],[-126.60559181968223,58.58515322356424],[-126.61588587257634,58.59259765775547],[-126.63730578151966,58.6036533350833],[-126.66683224069824,58.628012001319824],[-126.69990127980473,58.64886990642144],[-126.72147404163637,58.656111490877464],[-126.74386777816484,58.66726144505129],[-126.76440341945737,58.66907439883354],[-126.79274273385127,58.66840372545755],[-126.83557061059334,58.663114423749235],[-126.84420715932944,58.65481123261879],[-126.87351514430581,58.63674020892715],[-126.89714357602041,58.6307869894427],[-126.91435145943178,58.638803916114966],[-126.91603733931946,58.64662161365727],[-126.90668012883289,58.66116645489414],[-126.88781117440304,58.677961801147724],[-126.87044521518888,58.685119150357515],[-126.86131186093426,58.6928172157295],[-126.8510992529145,58.69767736153627],[-126.83980337352799,58.708051584497596],[-126.83439598828065,58.72210944534326],[-126.87962379233367,58.76121981058758],[-126.89534845126919,58.778130980819455],[-126.93172796249935,58.79683312057502],[-126.94867705570037,58.8089734739227],[-126.95938998466667,58.81372080004071],[-126.97084559122618,58.81420650212111],[-126.98699894572935,58.80946259899309],[-126.99242215048451,58.806135766722214],[-127.00422283711104,58.804314967410846],[-127.02138492607088,58.806628821556984],[-127.03702525878782,58.82503899681985],[-127.05039573232307,58.8339032784642],[-127.05685378142405,58.84369091060508],[-127.05941939592354,58.85060176832081],[-127.05723938195744,58.85665241152566],[-127.0520710787014,58.86272966444369],[-127.0340927457022,58.872216588838896],[-126.99239779706113,58.90933567218467],[-126.98487514551512,58.92092342277973],[-126.96593934645915,58.94396707382211],[-126.95789079586683,58.94948306716798],[-126.9482685225254,58.961633524621796],[-126.9434632954681,58.97177157552318],[-126.95188093030532,58.980485979016095],[-126.9443392115489,58.99616354680485],[-126.94383672711915,59.000414387315786],[-126.95138547452252,59.024687937212306],[-126.97671084040688,59.04364926282445],[-126.97856134872576,59.049811203065204],[-126.96655730375828,59.075041902108175],[-126.9750685094494,59.085526549192174],[-126.97214828370318,59.10299484914277],[-126.97626946541631,59.11140248875081],[-126.98874042712058,59.11875905314029],[-127.02763400744776,59.132951834295355],[-127.04591075120645,59.13607457865567],[-127.06807328498749,59.133650716844016],[-127.0985794338867,59.1206551419279],[-127.1132035786035,59.12046249315897],[-127.17093650849486,59.14019722683241],[-127.1869560382362,59.14889412930872],[-127.1935809551804,59.15907011832136],[-127.193128680196,59.18250918340116],[-127.1983478688743,59.196167314349324],[-127.20824697644213,59.208018774592354],[-127.22305003493567,59.21721136758502],[-127.22739097469064,59.24219625703566],[-127.23586102018359,59.25305633958048],[-127.25053961319912,59.258750906624805],[-127.27970592246801,59.28216879729833],[-127.29157618032862,59.30477553154888],[-127.3331227919402,59.346578837539525],[-127.33487792700429,59.3608374887047],[-127.3426456899548,59.37866314233564],[-127.35587720367062,59.39172099740474],[-127.36967977377684,59.40021432908641],[-127.3917028360589,59.42524736453175],[-127.4146371549691,59.44779359747173],[-127.42771386527886,59.455250538986746],[-127.44514904633421,59.47923710459422],[-127.44617526147015,59.48894918806573],[-127.48393864820143,59.51494676273123],[-127.48484482206024,59.52370566579946],[-127.49398869140236,59.53008095771805],[-127.53267728474265,59.534416931526025],[-127.5468028138765,59.55711304186495],[-127.55536247748137,59.55749659930886],[-127.56274340057769,59.56115269821816],[-127.57301710510588,59.569772813853234],[-127.59267264869632,59.597040749745965],[-127.6774669696266,59.612871457412375],[-127.71316852517917,59.62651935189194],[-127.72766554364168,59.62997521316114],[-127.75132119619762,59.65555646324782],[-127.75261060545365,59.66664882742282],[-127.75693669047406,59.6694870085958],[-127.76661853843804,59.67106145855641],[-127.77773535666047,59.67541163570421],[-127.78678417601927,59.687445056481906],[-127.7958640204845,59.692449735492346],[-127.79785007059746,59.69513220800245],[-127.78567831122231,59.701517187620674],[-127.78707686656378,59.70481281643832],[-127.79693750834817,59.708546748082064],[-127.79970997011718,59.71131832772816],[-127.79795127172056,59.72089562064828],[-127.7945350682665,59.72385490972753],[-127.7940740548323,59.72765117888177],[-127.80002959738812,59.73188171416511],[-127.80449776483734,59.74686878233268],[-127.81058614678705,59.759338083079435],[-127.7868011472442,59.772112163606884],[-127.80272594098054,59.785446060806144],[-127.76164166192993,59.799696981866404],[-127.75751467298754,59.81100627928737],[-127.76191522881984,59.8169848715795],[-127.76335310971524,59.823178803214304],[-127.76918761455185,59.82823856694945],[-127.76748599022287,59.83782688442858],[-127.7589476028822,59.8424029996456],[-127.73583918924066,59.84254937336785],[-127.70893604447961,59.848463866320635],[-127.67263939773302,59.85063616377044],[-127.6606356468778,59.85503454490569],[-127.65628776428393,59.86426613922176],[-127.65549982585355,59.88014259143803],[-127.67753765663421,59.89322350731809],[-127.70261894175636,59.89601308120068],[-127.72860753643916,59.89570745282407],[-127.73047101223318,59.99318754575068],[-127.7246009103912,59.99610041188624],[-127.72500008816814,60.0000221504593],[-127.7125001090235,60.00003137424175]],[[-120.90874661061646,58.35701198555314],[-120.91054045298016,58.35638975717814],[-120.91049498370234,58.35450788929704],[-120.90510971791471,58.354288885656906],[-120.90547816241323,58.35772494620427],[-120.90874661061646,58.35701198555314]],[[-121.72772571779727,58.284025578011324],[-121.72374612213021,58.28320526664292],[-121.72304253036968,58.28729468955283],[-121.72861036590012,58.28757861041375],[-121.72881250888473,58.283952838267936],[-121.72772571779727,58.284025578011324]],[[-122.70738363254503,58.09015213558088],[-122.7102226645787,58.08908453398636],[-122.70378342827121,58.068167517502125],[-122.70521603023398,58.06571829558368],[-122.6861078736942,58.0654588041614],[-122.68709877726694,58.09513682277538],[-122.70524291701281,58.09403793712162],[-122.70500785604858,58.091999358533094],[-122.70738363254503,58.09015213558088]],[[-122.573809505519,58.82528760622489],[-122.57473865402663,58.82233744713024],[-122.59331686869629,58.818311426400676],[-122.61577245578776,58.80707673125298],[-122.6377967781018,58.80748939180875],[-122.641479172587,58.80516928281561],[-122.64252868294552,58.80330909585123],[-122.6350569070219,58.79925458833189],[-122.63616837940778,58.79611279350356],[-122.64061929790249,58.792703186542795],[-122.65762439504627,58.78893808340907],[-122.65370340069657,58.785996532217254],[-122.65607814362157,58.78523806626656],[-122.655643518521,58.78359271098141],[-122.66340245921069,58.775286329086086],[-122.66134597693554,58.774714951320476],[-122.66271823855192,58.77456064743825],[-122.6621315990899,58.770478217792544],[-122.66785473981052,58.767600510610606],[-122.67401703996083,58.74414368069187],[-122.64398870992433,58.743869199010746],[-122.632823128488,58.74056079040952],[-122.62885993005465,58.73635691651612],[-122.60993020614092,58.747100807231845],[-122.59402890502096,58.74870549102141],[-122.58982367957242,58.75076177832075],[-122.45452121980051,58.74962838221274],[-122.45363992910546,58.815611218749304],[-122.42547508145181,58.816350831788675],[-122.42424216286956,58.846534326392046],[-122.504494608135,58.844694191425276],[-122.50796471570261,58.80594739475441],[-122.55602227832033,58.80635542997501],[-122.55806609797948,58.80470636133273],[-122.56347241355458,58.80417315012019],[-122.56927176515413,58.80518536607687],[-122.57207295509286,58.80701276683691],[-122.57601698475574,58.81585645428713],[-122.56354713193133,58.82233087919724],[-122.55913415280547,58.82595357436579],[-122.55917793625775,58.82831030520436],[-122.56399474481863,58.83128137104971],[-122.57797240734324,58.8302439985199],[-122.573809505519,58.82528760622489]]]},"bbox":[-127.81058614678705,57.99756581500259,-119.9999999830041,60.00003137424175]},{"id":"5959805","type":"Feature","properties":{},"geometry":{"type":"Polygon","coordinates":[[[-121.72306483557779,58.287165081688244],[-121.72374612213021,58.28320526664292],[-121.72881250888473,58.283952838267936],[-121.72861036590012,58.28757861041375],[-121.72306483557779,58.287165081688244]]]},"bbox":[-121.72881250888473,58.28320526664292,-121.72306483557779,58.28757861041375]},{"id":"5959806","type":"Feature","properties":{},"geometry":{"type":"Polygon","coordinates":[[[-122.55917793625775,58.82831030520436],[-122.55913415280547,58.82595357436579],[-122.56354713193133,58.82233087919724],[-122.57601698475574,58.81585645428713],[-122.57207295509286,58.80701276683691],[-122.56927176515413,58.80518536607687],[-122.56347241355458,58.80417315012019],[-122.55806609797948,58.80470636133273],[-122.55602227832033,58.80635542997501],[-122.50796471570261,58.80594739475441],[-122.504494608135,58.844694191425276],[-122.42424216286956,58.846534326392046],[-122.42547508145181,58.816350831788675],[-122.45363992910546,58.815611218749304],[-122.45452121980051,58.74962838221274],[-122.58982367957242,58.75076177832075],[-122.59402890502096,58.74870549102141],[-122.60993020614092,58.747100807231845],[-122.62885993005465,58.73635691651612],[-122.632823128488,58.74056079040952],[-122.64398870992433,58.743869199010746],[-122.67401703996083,58.74414368069187],[-122.66785473981052,58.767600510610606],[-122.6621315990899,58.770478217792544],[-122.66271823855192,58.77456064743825],[-122.66134597693554,58.774714951320476],[-122.66340245921069,58.775286329086086],[-122.655643518521,58.78359271098141],[-122.65607814362157,58.78523806626656],[-122.65370340069657,58.785996532217254],[-122.65762439504627,58.78893808340907],[-122.64061929790249,58.792703186542795],[-122.63616837940778,58.79611279350356],[-122.6350569070219,58.79925458833189],[-122.64252868294552,58.80330909585123],[-122.641479172587,58.80516928281561],[-122.6377967781018,58.80748939180875],[-122.61577245578776,58.80707673125298],[-122.59331686869629,58.818311426400676],[-122.57473865402663,58.82233744713024],[-122.573809505519,58.82528760622489],[-122.57795288133471,58.829605892291326],[-122.57637252129888,58.83096179750375],[-122.56399474481863,58.83128137104971],[-122.55917793625775,58.82831030520436]]]},"bbox":[-122.67401703996083,58.73635691651612,-122.42424216286956,58.846534326392046]},{"id":"5959809","type":"Feature","properties":{},"geometry":{"type":"Polygon","coordinates":[[[-120.91054045298016,58.35638975717814],[-120.90882647967942,58.35674279783451],[-120.9091230299134,58.357889302920384],[-120.90547816241323,58.35772494620427],[-120.90510971791471,58.354288885656906],[-120.90995487695707,58.35417878500568],[-120.91054045298016,58.35638975717814]]]},"bbox":[-120.91054045298016,58.35417878500568,-120.90510971791471,58.357889302920384]},{"id":"5959810","type":"Feature","properties":{},"geometry":{"type":"Polygon","coordinates":[[[-122.68709877726694,58.09513682277538],[-122.6861078736942,58.0654588041614],[-122.70521603023398,58.06571829558368],[-122.70378342827121,58.068167517502125],[-122.7102226645787,58.08908453398636],[-122.70728223115846,58.08924767990106],[-122.70500785604858,58.091999358533094],[-122.70524291701281,58.09403793712162],[-122.68709877726694,58.09513682277538]]]},"bbox":[-122.7102226645787,58.0654588041614,-122.6861078736942,58.09513682277538]}],"bbox":[-127.81058614678705,57.99756581500259,-119.9999999830041,60.00003137424175]}